"","eventid","iyear","imonth","iday","approxdate","extended","resolution","country","country_txt","region","region_txt","provstate","city","latitude","longitude","specificity","vicinity","location","summary","crit1","crit2","crit3","doubtterr","alternative","alternative_txt","multiple","success","suicide","attacktype1","attacktype1_txt","attacktype2","attacktype2_txt","attacktype3","attacktype3_txt","targtype1","targtype1_txt","targsubtype1","targsubtype1_txt","corp1","target1","natlty1","natlty1_txt","targtype2","targtype2_txt","targsubtype2","targsubtype2_txt","corp2","target2","natlty2","natlty2_txt","targtype3","targtype3_txt","targsubtype3","targsubtype3_txt","corp3","target3","natlty3","natlty3_txt","gname","gsubname","gname2","gsubname2","gname3","gsubname3","motive","guncertain1","guncertain2","guncertain3","individual","nperps","nperpcap","claimed","claimmode","claimmode_txt","claim2","claimmode2","claimmode2_txt","claim3","claimmode3","claimmode3_txt","compclaim","weaptype1","weaptype1_txt","weapsubtype1","weapsubtype1_txt","weaptype2","weaptype2_txt","weapsubtype2","weapsubtype2_txt","weaptype3","weaptype3_txt","weapsubtype3","weapsubtype3_txt","weaptype4","weaptype4_txt","weapsubtype4","weapsubtype4_txt","weapdetail","nkill","nkillus","nkillter","nwound","nwoundus","nwoundte","property","propextent","propextent_txt","propvalue","propcomment","ishostkid","nhostkid","nhostkidus","nhours","ndays","divert","kidhijcountry","ransom","ransomamt","ransomamtus","ransompaid","ransompaidus","ransomnote","hostkidoutcome","hostkidoutcome_txt","nreleased","addnotes","scite1","scite2","scite3","dbsource","INT_LOG","INT_IDEO","INT_MISC","INT_ANY","related"
"51188",199205040008,1992,5,4,NA,0,NA,202,"Tajikistan",7,"Central Asia",NA,"Dushanbe",38.536667,68.78,1,0,NA,NA,1,1,1,0,NA,NA,0,0,0,9,"Unknown",NA,NA,NA,NA,2,"Government (General)",17,"Head of State",NA,"Presidential residence",202,"Tajikistan",NA,NA,NA,NA,NA,NA,NA,NA,NA,NA,NA,NA,NA,NA,NA,NA,"Unknown",NA,NA,NA,NA,NA,NA,0,NA,NA,0,NA,NA,NA,NA,NA,NA,NA,NA,NA,NA,NA,NA,13,"Unknown",NA,NA,NA,NA,NA,NA,NA,NA,NA,NA,NA,NA,NA,NA,NA,0,NA,NA,0,NA,NA,1,NA,NA,NA,NA,0,NA,NA,NA,NA,NA,NA,0,NA,NA,NA,NA,NA,NA,NA,NA,NA,NA,NA,NA,"PGIS",-9,-9,0,-9,NA
"51323",199205100017,1992,5,10,NA,0,NA,202,"Tajikistan",7,"Central Asia",NA,"Dushanbe",38.536667,68.78,1,0,NA,NA,1,1,1,-9,NA,NA,0,1,0,9,"Unknown",NA,NA,NA,NA,3,"Police",22,"Police Building (headquarters, station, school)","Police","KGB Building",202,"Tajikistan",NA,NA,NA,NA,NA,NA,NA,NA,NA,NA,NA,NA,NA,NA,NA,NA,"Armed People",NA,NA,NA,NA,NA,NA,0,NA,NA,0,NA,NA,NA,NA,NA,NA,NA,NA,NA,NA,NA,NA,13,"Unknown",NA,NA,NA,NA,NA,NA,NA,NA,NA,NA,NA,NA,NA,NA,NA,4,0,0,0,0,0,1,NA,NA,NA,NA,0,NA,NA,NA,NA,NA,NA,0,NA,NA,NA,NA,NA,NA,NA,NA,NA,NA,NA,NA,"PGIS",-9,-9,0,-9,NA
"52613",199208240004,1992,8,24,NA,0,NA,202,"Tajikistan",7,"Central Asia",NA,"Dushanbe",38.536667,68.78,1,0,NA,NA,1,1,1,0,NA,NA,0,1,0,1,"Assassination",NA,NA,NA,NA,2,"Government (General)",15,"Politician or Political Party Movement/Meeting/Rally","govt","Procurator General Nurullo Khuvaidullayev",202,"Tajikistan",NA,NA,NA,NA,NA,NA,NA,NA,NA,NA,NA,NA,NA,NA,NA,NA,"Unknown",NA,NA,NA,NA,NA,NA,0,NA,NA,0,NA,NA,NA,NA,NA,NA,NA,NA,NA,NA,NA,NA,5,"Firearms",3,"Handgun",NA,NA,NA,NA,NA,NA,NA,NA,NA,NA,NA,NA,"Pistol",2,NA,NA,0,NA,NA,0,NA,NA,NA,NA,0,NA,NA,NA,NA,NA,NA,0,NA,NA,NA,NA,NA,NA,NA,NA,NA,NA,NA,NA,"PGIS",-9,-9,0,-9,NA
"52694",199208310008,1992,8,31,NA,0,NA,202,"Tajikistan",7,"Central Asia",NA,"Dushanbe",38.536667,68.78,1,0,NA,NA,1,1,1,-9,NA,NA,0,1,0,9,"Unknown",NA,NA,NA,NA,2,"Government (General)",17,"Head of State","Govt","Presidential palace *",202,"Tajikistan",NA,NA,NA,NA,NA,NA,NA,NA,NA,NA,NA,NA,NA,NA,NA,NA,"Protesters",NA,NA,NA,NA,NA,NA,1,NA,NA,0,NA,NA,NA,NA,NA,NA,NA,NA,NA,NA,NA,NA,13,"Unknown",NA,NA,NA,NA,NA,NA,NA,NA,NA,NA,NA,NA,NA,NA,NA,0,NA,NA,0,NA,NA,1,NA,NA,NA,NA,0,NA,NA,NA,NA,NA,NA,0,NA,NA,NA,NA,NA,NA,NA,NA,NA,NA,NA,NA,"PGIS",-9,-9,0,-9,NA
"53458",199210200010,1992,10,20,NA,0,NA,202,"Tajikistan",7,"Central Asia",NA,"Khorog",37.486729,71.549843,1,0,NA,NA,1,1,1,-9,NA,NA,0,1,0,4,"Hijacking",NA,NA,NA,NA,6,"Airports & Aircraft",42,"Aircraft (not at an airport)",NA,"Helicopter",202,"Tajikistan",NA,NA,NA,NA,NA,NA,NA,NA,NA,NA,NA,NA,NA,NA,NA,NA,"Unknown",NA,NA,NA,NA,NA,NA,0,NA,NA,0,4,NA,NA,NA,NA,NA,NA,NA,NA,NA,NA,NA,5,"Firearms",3,"Handgun",NA,NA,NA,NA,NA,NA,NA,NA,NA,NA,NA,NA,"Pistol",0,NA,NA,0,NA,NA,0,NA,NA,NA,NA,1,-99,0,NA,NA,"Afghanistan","Afghanistan",0,NA,NA,NA,NA,NA,NA,NA,NA,NA,NA,NA,NA,"PGIS",-9,-9,0,-9,NA
"53599",199210280009,1992,10,28,NA,0,NA,202,"Tajikistan",7,"Central Asia",NA,"Kalininabad",37.865784,68.91458,1,0,NA,NA,1,1,1,0,NA,NA,0,1,0,1,"Assassination",NA,NA,NA,NA,2,"Government (General)",18,"Government Personnel (excluding police, military)","Govt.","Dzhabkhon Rizoyev, Chairman People's Deputies Council, Kulyab Province",202,"Tajikistan",NA,NA,NA,NA,NA,NA,NA,NA,NA,NA,NA,NA,NA,NA,NA,NA,"Unknown",NA,NA,NA,NA,NA,NA,0,NA,NA,0,NA,NA,NA,NA,NA,NA,NA,NA,NA,NA,NA,NA,5,"Firearms",2,"Automatic Weapon",NA,NA,NA,NA,NA,NA,NA,NA,NA,NA,NA,NA,"Automatic firearm",1,NA,NA,0,NA,NA,0,NA,NA,NA,NA,0,NA,NA,NA,NA,NA,NA,0,NA,NA,NA,NA,NA,NA,NA,NA,NA,NA,NA,NA,"PGIS",-9,-9,0,-9,NA
"53634",199210300016,1992,10,30,NA,0,NA,202,"Tajikistan",7,"Central Asia",NA,"Dushanbe",38.536667,68.78,1,0,NA,NA,1,1,1,-9,NA,NA,0,1,0,6,"Hostage Taking (Kidnapping)",NA,NA,NA,NA,2,"Government (General)",18,"Government Personnel (excluding police, military)","Govt","Kadruddin Aslanov, Chairman of the Executive Committee, Kurgan-Tyube Region",202,"Tajikistan",NA,NA,NA,NA,NA,NA,NA,NA,NA,NA,NA,NA,NA,NA,NA,NA,"Unknown",NA,NA,NA,NA,NA,NA,0,NA,NA,0,NA,NA,NA,NA,NA,NA,NA,NA,NA,NA,NA,NA,13,"Unknown",NA,NA,NA,NA,NA,NA,NA,NA,NA,NA,NA,NA,NA,NA,NA,0,NA,NA,0,NA,NA,0,NA,NA,NA,NA,1,1,0,NA,NA,NA,"Tajikistan",0,NA,NA,NA,NA,NA,NA,NA,NA,NA,NA,NA,NA,"PGIS",-9,-9,0,-9,NA
"53715",199211040014,1992,11,4,NA,0,NA,202,"Tajikistan",7,"Central Asia",NA,"Hisor",38.525556,68.547222,3,1,NA,NA,1,1,1,0,NA,NA,1,1,0,3,"Bombing/Explosion",NA,NA,NA,NA,19,"Transportation",100,"Train/Train Tracks/Trolley","Railway","Line into Dushanbe",202,"Tajikistan",NA,NA,NA,NA,NA,NA,NA,NA,NA,NA,NA,NA,NA,NA,NA,NA,"Unknown",NA,NA,NA,NA,NA,NA,0,NA,NA,0,NA,NA,NA,NA,NA,NA,NA,NA,NA,NA,NA,NA,6,"Explosives/Bombs/Dynamite",16,"Unknown Explosive Type",NA,NA,NA,NA,NA,NA,NA,NA,NA,NA,NA,NA,"Explosive",0,NA,NA,0,NA,NA,1,NA,NA,NA,NA,0,NA,NA,NA,NA,NA,NA,0,NA,NA,NA,NA,NA,NA,NA,NA,NA,NA,NA,NA,"PGIS",-9,-9,0,-9,"199211040014, 199211040015"
"53716",199211040015,1992,11,4,NA,0,NA,202,"Tajikistan",7,"Central Asia",NA,"Hisor",38.525556,68.547222,3,1,NA,NA,1,1,1,0,NA,NA,1,1,0,3,"Bombing/Explosion",NA,NA,NA,NA,19,"Transportation",100,"Train/Train Tracks/Trolley","Railway","Line into Dushanbe",202,"Tajikistan",NA,NA,NA,NA,NA,NA,NA,NA,NA,NA,NA,NA,NA,NA,NA,NA,"Unknown",NA,NA,NA,NA,NA,NA,0,NA,NA,0,NA,NA,NA,NA,NA,NA,NA,NA,NA,NA,NA,NA,6,"Explosives/Bombs/Dynamite",16,"Unknown Explosive Type",NA,NA,NA,NA,NA,NA,NA,NA,NA,NA,NA,NA,"Explosive",0,NA,NA,0,NA,NA,1,NA,NA,NA,NA,0,NA,NA,NA,NA,NA,NA,0,NA,NA,NA,NA,NA,NA,NA,NA,NA,NA,NA,NA,"PGIS",-9,-9,0,-9,"199211040015, 199211040014"
"53771",199211070007,1992,11,7,NA,0,NA,202,"Tajikistan",7,"Central Asia","Khatlon","Tajik / Afghan Border",28.291564,-16.62913,4,0,NA,NA,1,1,1,0,NA,NA,0,1,0,2,"Armed Assault",NA,NA,NA,NA,3,"Police",25,"Police Security Forces/Officers","Border guards","Unit",202,"Tajikistan",NA,NA,NA,NA,NA,NA,NA,NA,NA,NA,NA,NA,NA,NA,NA,NA,"Unknown",NA,NA,NA,NA,NA,NA,0,NA,NA,0,NA,NA,NA,NA,NA,NA,NA,NA,NA,NA,NA,NA,5,"Firearms",2,"Automatic Weapon",NA,NA,NA,NA,NA,NA,NA,NA,NA,NA,NA,NA,"Automatic firearm",3,NA,NA,4,NA,NA,1,NA,NA,NA,NA,0,NA,NA,NA,NA,NA,NA,0,NA,NA,NA,NA,NA,NA,NA,NA,NA,NA,NA,NA,"PGIS",-9,-9,0,-9,NA
"54045",199211190024,1992,11,19,NA,0,NA,202,"Tajikistan",7,"Central Asia",NA,"Dushanbe",38.536667,68.78,1,0,NA,NA,1,1,1,0,NA,NA,0,1,0,1,"Assassination",NA,NA,NA,NA,2,"Government (General)",18,"Government Personnel (excluding police, military)","KGB","KGB deputy Jurabek Aminov",202,"Tajikistan",NA,NA,NA,NA,NA,NA,NA,NA,NA,NA,NA,NA,NA,NA,NA,NA,"Unknown",NA,NA,NA,NA,NA,NA,0,NA,NA,0,NA,NA,NA,NA,NA,NA,NA,NA,NA,NA,NA,NA,6,"Explosives/Bombs/Dynamite",11,"Projectile (rockets, mortars, RPGs, etc.)",NA,NA,NA,NA,NA,NA,NA,NA,NA,NA,NA,NA,"Rocket",1,NA,NA,0,NA,NA,0,NA,NA,NA,NA,0,NA,NA,NA,NA,NA,NA,0,NA,NA,NA,NA,NA,NA,NA,NA,NA,NA,NA,NA,"PGIS",-9,-9,0,-9,NA
"54073",199211210005,1992,11,21,NA,0,NA,202,"Tajikistan",7,"Central Asia","Dushanabe","Dushanbe",28.291564,-16.62913,4,1,NA,NA,1,1,1,0,NA,NA,0,1,0,2,"Armed Assault",NA,NA,NA,NA,13,"Other",65,"Refugee Camp","Govt","Refugee camp",202,"Tajikistan",NA,NA,NA,NA,NA,NA,NA,NA,NA,NA,NA,NA,NA,NA,NA,NA,"Unknown",NA,NA,NA,NA,NA,NA,0,NA,NA,0,NA,NA,NA,NA,NA,NA,NA,NA,NA,NA,NA,NA,5,"Firearms",2,"Automatic Weapon",NA,NA,NA,NA,NA,NA,NA,NA,NA,NA,NA,NA,"Automatic firearm",0,NA,NA,800,NA,NA,1,NA,NA,NA,NA,0,NA,NA,NA,NA,NA,NA,0,NA,NA,NA,NA,NA,NA,NA,NA,NA,NA,NA,NA,"PGIS",-9,-9,0,-9,NA
"54420",199212120009,1992,12,12,NA,0,NA,202,"Tajikistan",7,"Central Asia",NA,"Dushanbe",38.536667,68.78,1,0,NA,NA,1,1,1,0,NA,NA,0,1,0,2,"Armed Assault",NA,NA,NA,NA,2,"Government (General)",21,"Government Building/Facility/Office","Directorate of Internal Affairs","Building",202,"Tajikistan",NA,NA,NA,NA,NA,NA,NA,NA,NA,NA,NA,NA,NA,NA,NA,NA,"People's Democratic Army",NA,NA,NA,NA,NA,NA,0,NA,NA,0,NA,NA,NA,NA,NA,NA,NA,NA,NA,NA,NA,NA,5,"Firearms",2,"Automatic Weapon",NA,NA,NA,NA,NA,NA,NA,NA,NA,NA,NA,NA,"Automatic firearm",0,NA,NA,0,NA,NA,1,NA,NA,NA,NA,0,NA,NA,NA,NA,NA,NA,0,NA,NA,NA,NA,NA,NA,NA,NA,NA,NA,NA,NA,"PGIS",0,0,0,0,NA
"54436",199212130010,1992,12,13,NA,0,NA,202,"Tajikistan",7,"Central Asia",NA,"Dushanbe",38.536667,68.78,1,0,NA,NA,1,1,1,0,NA,NA,0,1,0,2,"Armed Assault",NA,NA,NA,NA,9,"Food or Water Supply",51,"Food Supply",NA,"Train Carrying Fuel and Food",202,"Tajikistan",NA,NA,NA,NA,NA,NA,NA,NA,NA,NA,NA,NA,NA,NA,NA,NA,"People's Democratic Army",NA,NA,NA,NA,NA,NA,0,NA,NA,0,NA,NA,NA,NA,NA,NA,NA,NA,NA,NA,NA,NA,5,"Firearms",2,"Automatic Weapon",NA,NA,NA,NA,NA,NA,NA,NA,NA,NA,NA,NA,"Automatic firearm",0,NA,NA,0,NA,NA,1,NA,NA,NA,NA,0,NA,NA,NA,NA,NA,NA,0,NA,NA,NA,NA,NA,NA,NA,NA,NA,NA,NA,NA,"PGIS",0,0,0,0,NA
"54437",199212130011,1992,12,13,NA,0,NA,202,"Tajikistan",7,"Central Asia",NA,"Dushanbe",38.536667,68.78,1,0,NA,NA,1,1,1,0,NA,NA,0,1,0,2,"Armed Assault",NA,NA,NA,NA,8,"Educational Institution",49,"School/University/Educational Building",NA,"Dushanbe Polytechnic",202,"Tajikistan",NA,NA,NA,NA,NA,NA,NA,NA,NA,NA,NA,NA,NA,NA,NA,NA,"People's Democratic Army",NA,NA,NA,NA,NA,NA,0,NA,NA,0,NA,NA,NA,NA,NA,NA,NA,NA,NA,NA,NA,NA,5,"Firearms",2,"Automatic Weapon",NA,NA,NA,NA,NA,NA,NA,NA,NA,NA,NA,NA,"Automatic firearm",0,NA,NA,0,NA,NA,1,NA,NA,NA,NA,0,NA,NA,NA,NA,NA,NA,0,NA,NA,NA,NA,NA,NA,NA,NA,NA,NA,NA,NA,"PGIS",0,0,0,0,NA
"54438",199212130012,1992,12,13,NA,0,NA,202,"Tajikistan",7,"Central Asia",NA,"Dushanbe",38.536667,68.78,1,0,NA,NA,1,1,1,0,NA,NA,0,1,0,2,"Armed Assault",NA,NA,NA,NA,21,"Utilities",107,"Electricity",NA,"Thermal Electric Power Station",202,"Tajikistan",NA,NA,NA,NA,NA,NA,NA,NA,NA,NA,NA,NA,NA,NA,NA,NA,"People's Democratic Army",NA,NA,NA,NA,NA,NA,0,NA,NA,0,NA,NA,NA,NA,NA,NA,NA,NA,NA,NA,NA,NA,5,"Firearms",2,"Automatic Weapon",NA,NA,NA,NA,NA,NA,NA,NA,NA,NA,NA,NA,"Automatic firearm",0,NA,NA,0,NA,NA,1,NA,NA,NA,NA,0,NA,NA,NA,NA,NA,NA,0,NA,NA,NA,NA,NA,NA,NA,NA,NA,NA,NA,NA,"PGIS",0,0,0,0,NA
"54580",199212250005,1992,12,25,NA,1,33964,202,"Tajikistan",7,"Central Asia",NA,"Dushanbe",38.536667,68.78,1,0,NA,NA,1,1,0,1,1,"Insurgency/Guerilla Action",0,1,0,6,"Hostage Taking (Kidnapping)",NA,NA,NA,NA,4,"Military",34,"Military Personnel (soldiers, troops, officers, forces)","Russian Military","3 Soldiers",167,"Russia",NA,NA,NA,NA,NA,NA,NA,NA,NA,NA,NA,NA,NA,NA,NA,NA,"Muslim Militants",NA,NA,NA,NA,NA,NA,0,NA,NA,0,NA,NA,NA,NA,NA,NA,NA,NA,NA,NA,NA,NA,13,"Unknown",NA,NA,NA,NA,NA,NA,NA,NA,NA,NA,NA,NA,NA,NA,NA,3,NA,NA,0,NA,NA,0,NA,NA,NA,NA,1,3,0,0,1,NA,"Tajikistan",0,NA,NA,NA,NA,NA,4,"Hostage(s) killed (not during rescue attempt)",3,NA,NA,NA,NA,"PGIS",-9,-9,1,1,NA
"54671",199401010029,1994,1,1,NA,0,NA,202,"Tajikistan",7,"Central Asia",NA,"Unknown",NA,NA,5,0,NA,NA,1,1,1,0,NA,NA,0,1,0,8,"Unarmed Assault",NA,NA,NA,NA,12,"NGO",61,"Domestic NGO",NA,"Russian Peace Keeping Force",167,"Russia",NA,NA,NA,NA,NA,NA,NA,NA,NA,NA,NA,NA,NA,NA,NA,NA,"Unknown",NA,NA,NA,NA,NA,NA,0,NA,NA,0,NA,NA,NA,NA,NA,NA,NA,NA,NA,NA,NA,NA,2,"Chemical",1,"Poisoning",NA,NA,NA,NA,NA,NA,NA,NA,NA,NA,NA,NA,"Cyanide laced champagne",15,0,0,53,0,0,0,NA,NA,NA,NA,0,NA,NA,NA,NA,NA,NA,0,NA,NA,NA,NA,NA,NA,NA,NA,NA,NA,NA,NA,"CBRN Global Chronology",-9,-9,1,1,NA
"55408",199403100002,1994,3,10,NA,0,NA,202,"Tajikistan",7,"Central Asia",NA,"Dushanbe",38.536667,68.78,1,0,NA,NA,1,1,1,0,NA,NA,0,1,0,1,"Assassination",NA,NA,NA,NA,2,"Government (General)",18,"Government Personnel (excluding police, military)","Government","Deputy Prime Minister Moyonsho Nazarshoyev",202,"Tajikistan",NA,NA,NA,NA,NA,NA,NA,NA,NA,NA,NA,NA,NA,NA,NA,NA,"Unknown",NA,NA,NA,NA,NA,NA,0,NA,NA,0,NA,NA,NA,NA,NA,NA,NA,NA,NA,NA,NA,NA,5,"Firearms",3,"Handgun",NA,NA,NA,NA,NA,NA,NA,NA,NA,NA,NA,NA,"Pistol",1,NA,NA,0,NA,NA,0,NA,NA,NA,NA,0,NA,NA,NA,NA,NA,NA,0,NA,NA,NA,NA,NA,NA,NA,NA,NA,NA,NA,NA,"PGIS",-9,-9,0,-9,NA
"55780",199404070011,1994,4,7,NA,0,NA,202,"Tajikistan",7,"Central Asia",NA,"Uzbek Border",NA,NA,5,0,NA,NA,1,1,0,1,1,"Insurgency/Guerilla Action",0,1,0,3,"Bombing/Explosion",NA,NA,NA,NA,4,"Military",35,"Military Transportation/Vehicle (excluding convoys)","Russian Military","Armored Personnel Carrier",167,"Russia",NA,NA,NA,NA,NA,NA,NA,NA,NA,NA,NA,NA,NA,NA,NA,NA,"Unknown",NA,NA,NA,NA,NA,NA,0,NA,NA,0,NA,NA,NA,NA,NA,NA,NA,NA,NA,NA,NA,NA,6,"Explosives/Bombs/Dynamite",8,"Land Mine",NA,NA,NA,NA,NA,NA,NA,NA,NA,NA,NA,NA,"Mine",1,NA,NA,0,NA,NA,1,NA,NA,NA,NA,0,NA,NA,NA,NA,NA,NA,0,NA,NA,NA,NA,NA,NA,NA,NA,NA,NA,NA,NA,"PGIS",-9,-9,1,1,NA
"55834",199404110004,1994,4,11,NA,0,NA,202,"Tajikistan",7,"Central Asia",NA,"Dushanbe",38.536667,68.78,1,0,NA,NA,1,1,1,-9,NA,NA,0,1,0,2,"Armed Assault",NA,NA,NA,NA,2,"Government (General)",18,"Government Personnel (excluding police, military)","Government","Residence Foreign Minister Tashid Alimov",202,"Tajikistan",NA,NA,NA,NA,NA,NA,NA,NA,NA,NA,NA,NA,NA,NA,NA,NA,"Unknown",NA,NA,NA,NA,NA,NA,0,NA,NA,0,NA,NA,NA,NA,NA,NA,NA,NA,NA,NA,NA,NA,5,"Firearms",2,"Automatic Weapon",NA,NA,NA,NA,NA,NA,NA,NA,NA,NA,NA,NA,"Automatic firearm",0,NA,NA,0,NA,NA,1,NA,NA,NA,NA,0,NA,NA,NA,NA,NA,NA,0,NA,NA,NA,NA,NA,NA,NA,NA,NA,NA,NA,NA,"PGIS",-9,-9,0,-9,NA
"56250",199405170009,1994,5,17,NA,0,NA,202,"Tajikistan",7,"Central Asia",NA,"Dushanbe",38.536667,68.78,1,0,NA,NA,1,1,1,0,NA,NA,0,1,0,1,"Assassination",NA,NA,NA,NA,10,"Journalists & Media",53,"Newspaper Journalist/Staff/Facility","Tajik National Broadcasting Co.","Employee",202,"Tajikistan",NA,NA,NA,NA,NA,NA,NA,NA,NA,NA,NA,NA,NA,NA,NA,NA,"Unknown",NA,NA,NA,NA,NA,NA,0,NA,NA,0,NA,NA,NA,NA,NA,NA,NA,NA,NA,NA,NA,NA,5,"Firearms",2,"Automatic Weapon",NA,NA,NA,NA,NA,NA,NA,NA,NA,NA,NA,NA,"Automatic firearm",1,NA,NA,0,NA,NA,0,NA,NA,NA,NA,0,NA,NA,NA,NA,NA,NA,0,NA,NA,NA,NA,NA,NA,NA,NA,NA,NA,NA,NA,"PGIS",-9,-9,0,-9,NA
"56262",199405180002,1994,5,18,NA,0,NA,202,"Tajikistan",7,"Central Asia",NA,"Dushanbe",38.536667,68.78,1,0,NA,NA,1,1,1,-9,NA,NA,0,1,0,1,"Assassination",NA,NA,NA,NA,1,"Business",4,"Multinational Corporation","Interfer Corp. Joint Tajik U.S. Venture","Head of Interfer",202,"Tajikistan",NA,NA,NA,NA,NA,NA,NA,NA,NA,NA,NA,NA,NA,NA,NA,NA,"Unknown",NA,NA,NA,NA,NA,NA,0,NA,NA,0,NA,NA,NA,NA,NA,NA,NA,NA,NA,NA,NA,NA,5,"Firearms",2,"Automatic Weapon",NA,NA,NA,NA,NA,NA,NA,NA,NA,NA,NA,NA,"Automatic firearm",1,NA,NA,0,NA,NA,0,NA,NA,NA,NA,0,NA,NA,NA,NA,NA,NA,0,NA,NA,NA,NA,NA,NA,NA,NA,NA,NA,NA,NA,"PGIS",-9,-9,0,-9,NA
"56279",199405190006,1994,5,19,NA,0,NA,202,"Tajikistan",7,"Central Asia",NA,"Dushanbe",38.536667,68.78,1,0,NA,NA,1,1,1,0,NA,NA,0,1,0,1,"Assassination",NA,NA,NA,NA,10,"Journalists & Media",53,"Newspaper Journalist/Staff/Facility","Dzumkhuriat Newspaper","Secretary, Editorial Board",202,"Tajikistan",NA,NA,NA,NA,NA,NA,NA,NA,NA,NA,NA,NA,NA,NA,NA,NA,"Unknown",NA,NA,NA,NA,NA,NA,0,NA,NA,0,NA,NA,NA,NA,NA,NA,NA,NA,NA,NA,NA,NA,5,"Firearms",3,"Handgun",NA,NA,NA,NA,NA,NA,NA,NA,NA,NA,NA,NA,"Pistol",1,NA,NA,0,NA,NA,0,NA,NA,NA,NA,0,NA,NA,NA,NA,NA,NA,0,NA,NA,NA,NA,NA,NA,NA,NA,NA,NA,NA,NA,"PGIS",-9,-9,0,-9,NA
"56355",199405270004,1994,5,27,NA,0,NA,202,"Tajikistan",7,"Central Asia","Khatlon","Tajik / Afghan Border",28.291564,-16.62913,4,0,NA,NA,1,1,0,1,1,"Insurgency/Guerilla Action",0,1,0,1,"Assassination",NA,NA,NA,NA,4,"Military",34,"Military Personnel (soldiers, troops, officers, forces)","Russian Border Guards","Soldier",167,"Russia",NA,NA,NA,NA,NA,NA,NA,NA,NA,NA,NA,NA,NA,NA,NA,NA,"Unknown",NA,NA,NA,NA,NA,NA,0,NA,NA,0,NA,NA,NA,NA,NA,NA,NA,NA,NA,NA,NA,NA,13,"Unknown",NA,NA,NA,NA,NA,NA,NA,NA,NA,NA,NA,NA,NA,NA,NA,1,NA,NA,0,NA,NA,0,NA,NA,NA,NA,0,NA,NA,NA,NA,NA,NA,0,NA,NA,NA,NA,NA,NA,NA,NA,NA,NA,NA,NA,"PGIS",-9,-9,1,1,NA
"56382",199405310004,1994,5,31,NA,0,NA,202,"Tajikistan",7,"Central Asia",NA,"Dushanbe",38.536667,68.78,1,0,NA,NA,1,1,0,1,1,"Insurgency/Guerilla Action",0,1,0,1,"Assassination",NA,NA,NA,NA,4,"Military",NA,NA,"Russian Border Guards","LT. Col. Vladimir Borisenkov",167,"Russia",NA,NA,NA,NA,NA,NA,NA,NA,NA,NA,NA,NA,NA,NA,NA,NA,"Unknown",NA,NA,NA,NA,NA,NA,0,NA,NA,0,NA,NA,NA,NA,NA,NA,NA,NA,NA,NA,NA,NA,5,"Firearms",3,"Handgun",NA,NA,NA,NA,NA,NA,NA,NA,NA,NA,NA,NA,"Pistol",1,NA,NA,0,NA,NA,0,NA,NA,NA,NA,0,NA,NA,NA,NA,NA,NA,0,NA,NA,NA,NA,NA,NA,NA,NA,NA,NA,NA,NA,"PGIS",-9,-9,1,1,NA
"56391",199406010003,1994,6,1,NA,0,NA,202,"Tajikistan",7,"Central Asia","Khatlon","Tajik / Afghan Border",28.291564,-16.62913,4,0,NA,NA,1,1,0,1,1,"Insurgency/Guerilla Action",0,1,0,3,"Bombing/Explosion",NA,NA,NA,NA,4,"Military",29,"Military Unit/Patrol/Convoy","Russian Military","Border Guard Unit",167,"Russia",NA,NA,NA,NA,NA,NA,NA,NA,NA,NA,NA,NA,NA,NA,NA,NA,"Unknown",NA,NA,NA,NA,NA,NA,0,NA,NA,0,NA,NA,NA,NA,NA,NA,NA,NA,NA,NA,NA,NA,6,"Explosives/Bombs/Dynamite",8,"Land Mine",NA,NA,NA,NA,NA,NA,NA,NA,NA,NA,NA,NA,"Mine",1,NA,NA,0,NA,NA,1,NA,NA,NA,NA,0,NA,NA,NA,NA,NA,NA,0,NA,NA,NA,NA,NA,NA,NA,NA,NA,NA,NA,NA,"PGIS",-9,-9,1,1,NA
"56396",199406020004,1994,6,2,NA,0,NA,202,"Tajikistan",7,"Central Asia",NA,"Dushanbe",38.536667,68.78,1,0,NA,NA,1,1,0,1,1,"Insurgency/Guerilla Action",0,1,0,2,"Armed Assault",NA,NA,NA,NA,4,"Military",34,"Military Personnel (soldiers, troops, officers, forces)","Military","Residence, officer assigned to ministry of defense",202,"Tajikistan",NA,NA,NA,NA,NA,NA,NA,NA,NA,NA,NA,NA,NA,NA,NA,NA,"Unknown",NA,NA,NA,NA,NA,NA,0,NA,NA,0,NA,NA,NA,NA,NA,NA,NA,NA,NA,NA,NA,NA,5,"Firearms",2,"Automatic Weapon",NA,NA,NA,NA,NA,NA,NA,NA,NA,NA,NA,NA,"Automatic firearm",4,NA,NA,1,NA,NA,1,NA,NA,NA,NA,0,NA,NA,NA,NA,NA,NA,0,NA,NA,NA,NA,NA,NA,NA,NA,NA,NA,NA,NA,"PGIS",-9,-9,0,-9,NA
"56410",199406040002,1994,6,4,NA,0,NA,202,"Tajikistan",7,"Central Asia",NA,"Kurgan-Tyube",37.836165,68.779826,1,0,NA,NA,1,1,0,1,1,"Insurgency/Guerilla Action",0,1,0,1,"Assassination",NA,NA,NA,NA,4,"Military",34,"Military Personnel (soldiers, troops, officers, forces)","Russian Military","Private Pavel Mikheyev member Russian Peace Keeping Force",167,"Russia",NA,NA,NA,NA,NA,NA,NA,NA,NA,NA,NA,NA,NA,NA,NA,NA,"Unknown",NA,NA,NA,NA,NA,NA,0,NA,NA,0,NA,NA,NA,NA,NA,NA,NA,NA,NA,NA,NA,NA,5,"Firearms",3,"Handgun",NA,NA,NA,NA,NA,NA,NA,NA,NA,NA,NA,NA,"Pistol",0,NA,NA,0,NA,NA,0,NA,NA,NA,NA,0,NA,NA,NA,NA,NA,NA,0,NA,NA,NA,NA,NA,NA,NA,NA,NA,NA,NA,NA,"PGIS",-9,-9,1,1,NA
"56411",199406040003,1994,6,4,NA,0,NA,202,"Tajikistan",7,"Central Asia",NA,"Dushanbe",38.536667,68.78,1,0,NA,NA,1,1,0,1,1,"Insurgency/Guerilla Action",0,1,0,1,"Assassination",NA,NA,NA,NA,4,"Military",34,"Military Personnel (soldiers, troops, officers, forces)","Russian Military","Lt. Col. Yuri Sutipkin attached to Tajikistan Defense Ministry",167,"Russia",NA,NA,NA,NA,NA,NA,NA,NA,NA,NA,NA,NA,NA,NA,NA,NA,"Unknown",NA,NA,NA,NA,NA,NA,0,NA,NA,0,NA,NA,NA,NA,NA,NA,NA,NA,NA,NA,NA,NA,5,"Firearms",3,"Handgun",NA,NA,NA,NA,NA,NA,NA,NA,NA,NA,NA,NA,"Pistol",1,NA,NA,0,NA,NA,0,NA,NA,NA,NA,0,NA,NA,NA,NA,NA,NA,0,NA,NA,NA,NA,NA,NA,NA,NA,NA,NA,NA,NA,"PGIS",-9,-9,1,1,NA
"56434",199406070005,1994,6,7,NA,0,NA,202,"Tajikistan",7,"Central Asia","Khatlon","Tajik / Afghan Border",28.291564,-16.62913,4,0,NA,NA,1,1,0,1,1,"Insurgency/Guerilla Action",0,1,0,9,"Unknown",NA,NA,NA,NA,4,"Military",35,"Military Transportation/Vehicle (excluding convoys)","Russian Military","Vehicle",167,"Russia",NA,NA,NA,NA,NA,NA,NA,NA,NA,NA,NA,NA,NA,NA,NA,NA,"Unknown",NA,NA,NA,NA,NA,NA,0,NA,NA,0,NA,NA,NA,NA,NA,NA,NA,NA,NA,NA,NA,NA,13,"Unknown",NA,NA,NA,NA,NA,NA,NA,NA,NA,NA,NA,NA,NA,NA,NA,2,NA,NA,8,NA,NA,1,NA,NA,NA,NA,0,NA,NA,NA,NA,NA,NA,0,NA,NA,NA,NA,NA,NA,NA,NA,NA,NA,NA,NA,"PGIS",-9,-9,1,1,NA
"56496",199406140005,1994,6,14,NA,0,NA,202,"Tajikistan",7,"Central Asia",NA,"Unknown",NA,NA,5,0,NA,NA,1,1,0,1,1,"Insurgency/Guerilla Action",0,1,0,1,"Assassination",NA,NA,NA,NA,4,"Military",34,"Military Personnel (soldiers, troops, officers, forces)","Russian Military","Lieutenant, 201 Motorized Division",167,"Russia",NA,NA,NA,NA,NA,NA,NA,NA,NA,NA,NA,NA,NA,NA,NA,NA,"Unknown",NA,NA,NA,NA,NA,NA,0,NA,NA,0,NA,NA,NA,NA,NA,NA,NA,NA,NA,NA,NA,NA,13,"Unknown",NA,NA,NA,NA,NA,NA,NA,NA,NA,NA,NA,NA,NA,NA,NA,1,NA,NA,0,NA,NA,0,NA,NA,NA,NA,0,NA,NA,NA,NA,NA,NA,0,NA,NA,NA,NA,NA,NA,NA,NA,NA,NA,NA,NA,"PGIS",-9,-9,1,1,NA
"56503",199406150001,1994,6,15,NA,0,NA,202,"Tajikistan",7,"Central Asia",NA,"Gharm",39.030241,70.37367,1,0,NA,NA,1,1,1,0,NA,NA,0,1,0,1,"Assassination",NA,NA,NA,NA,2,"Government (General)",18,"Government Personnel (excluding police, military)","Government","Deputy Defense Minister Ramazan Radjabov",219,"Uzbekistan",NA,NA,NA,NA,NA,NA,NA,NA,NA,NA,NA,NA,NA,NA,NA,NA,"Unknown",NA,NA,NA,NA,NA,NA,0,NA,NA,0,NA,NA,NA,NA,NA,NA,NA,NA,NA,NA,NA,NA,5,"Firearms",2,"Automatic Weapon",NA,NA,NA,NA,NA,NA,NA,NA,NA,NA,NA,NA,"Automatic firearm",6,NA,NA,0,NA,NA,0,NA,NA,NA,NA,0,NA,NA,NA,NA,NA,NA,0,NA,NA,NA,NA,NA,NA,NA,NA,NA,NA,NA,NA,"PGIS",-9,-9,1,1,NA
"56555",199406190003,1994,6,19,NA,0,NA,202,"Tajikistan",7,"Central Asia","Khatlon","62 miles South of Dushanbe",28.291564,-16.62913,4,0,NA,NA,1,1,1,-9,NA,NA,0,1,0,3,"Bombing/Explosion",NA,NA,NA,NA,3,"Police",23,"Police Patrol (including vehicles and convoys)","Police","Police Van",202,"Tajikistan",NA,NA,NA,NA,NA,NA,NA,NA,NA,NA,NA,NA,NA,NA,NA,NA,"Unknown",NA,NA,NA,NA,NA,NA,0,NA,NA,0,NA,NA,NA,NA,NA,NA,NA,NA,NA,NA,NA,NA,5,"Firearms",2,"Automatic Weapon",6,"Explosives/Bombs/Dynamite",7,"Grenade",NA,NA,NA,NA,NA,NA,NA,NA,"Automatic firearm; Grenades",3,NA,NA,0,NA,NA,1,NA,NA,NA,NA,0,NA,NA,NA,NA,NA,NA,0,NA,NA,NA,NA,NA,NA,NA,NA,NA,NA,NA,NA,"PGIS",-9,-9,0,-9,NA
"56578",199406240001,1994,6,24,NA,0,NA,202,"Tajikistan",7,"Central Asia",NA,"Dushanbe",38.536667,68.78,1,0,NA,NA,1,1,1,0,NA,NA,0,1,0,3,"Bombing/Explosion",NA,NA,NA,NA,4,"Military",35,"Military Transportation/Vehicle (excluding convoys)","Russian Military","Bus Carrying Children Russian Servicemen",167,"Russia",NA,NA,NA,NA,NA,NA,NA,NA,NA,NA,NA,NA,NA,NA,NA,NA,"Unknown",NA,NA,NA,NA,NA,NA,0,NA,NA,0,NA,NA,NA,NA,NA,NA,NA,NA,NA,NA,NA,NA,6,"Explosives/Bombs/Dynamite",11,"Projectile (rockets, mortars, RPGs, etc.)",NA,NA,NA,NA,NA,NA,NA,NA,NA,NA,NA,NA,"Rifle propelled grenade",1,NA,NA,1,NA,NA,1,NA,NA,NA,NA,0,NA,NA,NA,NA,NA,NA,0,NA,NA,NA,NA,NA,NA,NA,NA,NA,NA,NA,NA,"PGIS",-9,-9,1,1,NA
"57213",199409150001,1994,9,15,NA,0,NA,202,"Tajikistan",7,"Central Asia",NA,"Vahdat (District)",38.553056,69.019722,3,0,NA,NA,1,1,1,-9,NA,NA,0,1,0,6,"Hostage Taking (Kidnapping)",NA,NA,NA,NA,2,"Government (General)",21,"Government Building/Facility/Office",NA,"Tasik Security Ministry",202,"Tajikistan",NA,NA,NA,NA,NA,NA,NA,NA,NA,NA,NA,NA,NA,NA,NA,NA,"Unknown",NA,NA,NA,NA,NA,NA,0,NA,NA,0,NA,NA,NA,NA,NA,NA,NA,NA,NA,NA,NA,NA,13,"Unknown",NA,NA,NA,NA,NA,NA,NA,NA,NA,NA,NA,NA,NA,NA,NA,0,NA,NA,0,NA,NA,0,NA,NA,NA,NA,1,3,0,NA,NA,NA,"Tajikistan",0,NA,NA,NA,NA,NA,NA,NA,NA,NA,NA,NA,NA,"PGIS",-9,-9,0,-9,NA
"57219",199409160002,1994,9,16,NA,0,NA,202,"Tajikistan",7,"Central Asia","Districts of Republican Subordination","Between Dushanbe and Ragun",39.086092,70.241148,4,1,NA,NA,1,1,1,0,NA,NA,0,1,0,6,"Hostage Taking (Kidnapping)",NA,NA,NA,NA,2,"Government (General)",18,"Government Personnel (excluding police, military)","Tasik Security Ministry","U/I National Security Employee",202,"Tajikistan",NA,NA,NA,NA,NA,NA,NA,NA,NA,NA,NA,NA,NA,NA,NA,NA,"Unknown",NA,NA,NA,NA,NA,NA,0,NA,NA,0,NA,NA,NA,NA,NA,NA,NA,NA,NA,NA,NA,NA,13,"Unknown",NA,NA,NA,NA,NA,NA,NA,NA,NA,NA,NA,NA,NA,NA,NA,0,NA,NA,0,NA,NA,0,NA,NA,NA,NA,1,1,0,NA,NA,NA,"Tajikistan",0,NA,NA,NA,NA,NA,NA,NA,NA,NA,NA,NA,NA,"PGIS",-9,-9,0,-9,NA
"57276",199409250002,1994,9,25,NA,0,NA,202,"Tajikistan",7,"Central Asia","Khatlon","Tajik / Afghan Border",28.291564,-16.62913,4,0,NA,NA,1,1,0,1,1,"Insurgency/Guerilla Action",0,1,0,1,"Assassination",NA,NA,NA,NA,4,"Military",34,"Military Personnel (soldiers, troops, officers, forces)","Russian Military","Border Guard",167,"Russia",NA,NA,NA,NA,NA,NA,NA,NA,NA,NA,NA,NA,NA,NA,NA,NA,"Unknown",NA,NA,NA,NA,NA,NA,0,NA,NA,0,NA,NA,NA,NA,NA,NA,NA,NA,NA,NA,NA,NA,5,"Firearms",5,"Unknown Gun Type",NA,NA,NA,NA,NA,NA,NA,NA,NA,NA,NA,NA,NA,1,NA,NA,NA,NA,NA,0,NA,NA,NA,NA,0,NA,NA,NA,NA,NA,NA,0,NA,NA,NA,NA,NA,NA,NA,NA,NA,NA,NA,NA,"PGIS",-9,-9,1,1,NA
"57370",199410060001,1994,10,6,NA,0,NA,202,"Tajikistan",7,"Central Asia",NA,"Dushanbe",38.536667,68.78,1,0,NA,NA,1,1,0,1,1,"Insurgency/Guerilla Action",0,1,0,3,"Bombing/Explosion",NA,NA,NA,NA,4,"Military",35,"Military Transportation/Vehicle (excluding convoys)","Russian Military","Car Carrying Russian Soldiers",167,"Russia",NA,NA,NA,NA,NA,NA,NA,NA,NA,NA,NA,NA,NA,NA,NA,NA,"Unknown",NA,NA,NA,NA,NA,NA,0,NA,NA,0,NA,NA,NA,NA,NA,NA,NA,NA,NA,NA,NA,NA,6,"Explosives/Bombs/Dynamite",7,"Grenade",NA,NA,NA,NA,NA,NA,NA,NA,NA,NA,NA,NA,"Fragmentation grenade - Russian",1,NA,NA,0,NA,NA,1,NA,NA,NA,NA,0,NA,NA,NA,NA,NA,NA,0,NA,NA,NA,NA,NA,NA,NA,NA,NA,NA,NA,NA,"PGIS",-9,-9,1,1,NA
"57500",199410200002,1994,10,20,NA,0,NA,202,"Tajikistan",7,"Central Asia",NA,"Rasht (District)",39.215745,70.526493,3,0,NA,NA,1,1,1,0,NA,NA,0,1,0,3,"Bombing/Explosion",NA,NA,NA,NA,2,"Government (General)",18,"Government Personnel (excluding police, military)","Government","Deputy Prime Minister Munnauar Nazriyev, 55",202,"Tajikistan",NA,NA,NA,NA,NA,NA,NA,NA,NA,NA,NA,NA,NA,NA,NA,NA,"Unknown",NA,NA,NA,NA,NA,NA,0,NA,NA,0,NA,NA,NA,NA,NA,NA,NA,NA,NA,NA,NA,NA,6,"Explosives/Bombs/Dynamite",8,"Land Mine",NA,NA,NA,NA,NA,NA,NA,NA,NA,NA,NA,NA,"Mine",2,NA,NA,0,NA,NA,1,NA,NA,NA,NA,0,NA,NA,NA,NA,NA,NA,0,NA,NA,NA,NA,NA,NA,NA,NA,NA,NA,NA,NA,"PGIS",-9,-9,0,-9,NA
"57605",199411040003,1994,11,4,NA,0,NA,202,"Tajikistan",7,"Central Asia",NA,"Dushanbe",38.536667,68.78,1,0,NA,NA,1,1,1,-9,NA,NA,0,1,0,3,"Bombing/Explosion",NA,NA,NA,NA,1,"Business",5,"Industrial/Textiles/Factory",NA,"Printing Works",202,"Tajikistan",NA,NA,NA,NA,NA,NA,NA,NA,NA,NA,NA,NA,NA,NA,NA,NA,"Unknown",NA,NA,NA,NA,NA,NA,0,NA,NA,0,NA,NA,NA,NA,NA,NA,NA,NA,NA,NA,NA,NA,6,"Explosives/Bombs/Dynamite",16,"Unknown Explosive Type",NA,NA,NA,NA,NA,NA,NA,NA,NA,NA,NA,NA,"Bomb",0,NA,NA,0,NA,NA,1,NA,NA,NA,NA,0,NA,NA,NA,NA,NA,NA,0,NA,NA,NA,NA,NA,NA,NA,NA,NA,NA,NA,NA,"PGIS",-9,-9,0,-9,NA
"57606",199411040004,1994,11,4,NA,0,NA,202,"Tajikistan",7,"Central Asia",NA,"Dushanbe",38.536667,68.78,1,0,NA,NA,1,1,1,0,NA,NA,0,1,0,3,"Bombing/Explosion",NA,NA,NA,NA,2,"Government (General)",21,"Government Building/Facility/Office",NA,"Agricultural Ministry",202,"Tajikistan",NA,NA,NA,NA,NA,NA,NA,NA,NA,NA,NA,NA,NA,NA,NA,NA,"Unknown",NA,NA,NA,NA,NA,NA,0,NA,NA,0,NA,NA,NA,NA,NA,NA,NA,NA,NA,NA,NA,NA,6,"Explosives/Bombs/Dynamite",16,"Unknown Explosive Type",NA,NA,NA,NA,NA,NA,NA,NA,NA,NA,NA,NA,"Bomb",0,NA,NA,0,NA,NA,1,NA,NA,NA,NA,0,NA,NA,NA,NA,NA,NA,0,NA,NA,NA,NA,NA,NA,NA,NA,NA,NA,NA,NA,"PGIS",-9,-9,0,-9,NA
"57607",199411040005,1994,11,4,NA,0,NA,202,"Tajikistan",7,"Central Asia",NA,"Dushanbe",38.536667,68.78,1,0,NA,NA,1,1,1,0,NA,NA,0,1,0,3,"Bombing/Explosion",NA,NA,NA,NA,16,"Telecommunication",90,"Telephone/Telegraph",NA,"Telephone Exchange",202,"Tajikistan",NA,NA,NA,NA,NA,NA,NA,NA,NA,NA,NA,NA,NA,NA,NA,NA,"Unknown",NA,NA,NA,NA,NA,NA,0,NA,NA,0,NA,NA,NA,NA,NA,NA,NA,NA,NA,NA,NA,NA,6,"Explosives/Bombs/Dynamite",16,"Unknown Explosive Type",NA,NA,NA,NA,NA,NA,NA,NA,NA,NA,NA,NA,"Bomb",0,NA,NA,0,NA,NA,1,NA,NA,NA,NA,0,NA,NA,NA,NA,NA,NA,0,NA,NA,NA,NA,NA,NA,NA,NA,NA,NA,NA,NA,"PGIS",-9,-9,0,-9,NA
"57608",199411040006,1994,11,4,NA,0,NA,202,"Tajikistan",7,"Central Asia",NA,"Dushanbe",38.536667,68.78,1,0,NA,NA,1,1,1,0,NA,NA,0,1,0,3,"Bombing/Explosion",NA,NA,NA,NA,2,"Government (General)",21,"Government Building/Facility/Office",NA,"Electoral Commission Office",202,"Tajikistan",NA,NA,NA,NA,NA,NA,NA,NA,NA,NA,NA,NA,NA,NA,NA,NA,"Unknown",NA,NA,NA,NA,NA,NA,0,NA,NA,0,NA,NA,NA,NA,NA,NA,NA,NA,NA,NA,NA,NA,6,"Explosives/Bombs/Dynamite",16,"Unknown Explosive Type",NA,NA,NA,NA,NA,NA,NA,NA,NA,NA,NA,NA,"Bomb",0,NA,NA,0,NA,NA,1,NA,NA,NA,NA,0,NA,NA,NA,NA,NA,NA,0,NA,NA,NA,NA,NA,NA,NA,NA,NA,NA,NA,NA,"PGIS",-9,-9,0,-9,NA
"57684",199411140001,1994,11,14,NA,0,NA,202,"Tajikistan",7,"Central Asia",NA,"Dushanbe",38.536667,68.78,1,0,NA,NA,1,1,1,0,NA,NA,0,1,0,1,"Assassination",NA,NA,NA,NA,10,"Journalists & Media",53,"Newspaper Journalist/Staff/Facility",NA,"Journalist Khamidjon Khakimov",202,"Tajikistan",NA,NA,NA,NA,NA,NA,NA,NA,NA,NA,NA,NA,NA,NA,NA,NA,"Unknown",NA,NA,NA,NA,NA,NA,0,NA,NA,0,NA,NA,NA,NA,NA,NA,NA,NA,NA,NA,NA,NA,5,"Firearms",5,"Unknown Gun Type",NA,NA,NA,NA,NA,NA,NA,NA,NA,NA,NA,NA,"Firearm",0,NA,NA,0,NA,NA,0,NA,NA,NA,NA,0,NA,NA,NA,NA,NA,NA,0,NA,NA,NA,NA,NA,NA,NA,NA,NA,NA,NA,NA,"PGIS",-9,-9,0,-9,NA
"57751",199411230003,1994,11,23,NA,0,NA,202,"Tajikistan",7,"Central Asia",NA,"Dushanbe",38.536667,68.78,1,0,NA,NA,1,1,1,-9,NA,NA,0,0,0,4,"Hijacking",NA,NA,NA,NA,6,"Airports & Aircraft",42,"Aircraft (not at an airport)",NA,"Airline",167,"Russia",NA,NA,NA,NA,NA,NA,NA,NA,NA,NA,NA,NA,NA,NA,NA,NA,"Unknown",NA,NA,NA,NA,NA,NA,0,NA,NA,0,1,NA,NA,NA,NA,NA,NA,NA,NA,NA,NA,NA,13,"Unknown",NA,NA,NA,NA,NA,NA,NA,NA,NA,NA,NA,NA,NA,NA,NA,0,NA,NA,0,NA,NA,0,NA,NA,NA,NA,1,-99,0,NA,NA,"Iran","Iran",0,NA,NA,NA,NA,NA,7,"Unknown",NA,NA,NA,NA,NA,"PGIS",-9,-9,1,1,NA
"57886",199412090006,1994,12,9,NA,0,NA,202,"Tajikistan",7,"Central Asia",NA,"Khorog",37.486729,71.549843,1,0,NA,NA,1,1,1,0,NA,NA,0,1,0,3,"Bombing/Explosion",NA,NA,NA,NA,2,"Government (General)",15,"Politician or Political Party Movement/Meeting/Rally",NA,"Political Leader",202,"Tajikistan",NA,NA,NA,NA,NA,NA,NA,NA,NA,NA,NA,NA,NA,NA,NA,NA,"Unknown",NA,NA,NA,NA,NA,NA,0,NA,NA,0,NA,NA,NA,NA,NA,NA,NA,NA,NA,NA,NA,NA,6,"Explosives/Bombs/Dynamite",16,"Unknown Explosive Type",NA,NA,NA,NA,NA,NA,NA,NA,NA,NA,NA,NA,"Bomb",2,NA,NA,0,NA,NA,1,NA,NA,NA,NA,0,NA,NA,NA,NA,NA,NA,0,NA,NA,NA,NA,NA,NA,NA,NA,NA,NA,NA,NA,"PGIS",-9,-9,0,-9,NA
"58084",199412300003,1994,12,30,NA,0,NA,202,"Tajikistan",7,"Central Asia",NA,"Dushanbe",38.536667,68.78,1,0,NA,NA,1,1,0,1,1,"Insurgency/Guerilla Action",0,1,0,1,"Assassination",NA,NA,NA,NA,4,"Military",34,"Military Personnel (soldiers, troops, officers, forces)",NA,"Russian Military",202,"Tajikistan",NA,NA,NA,NA,NA,NA,NA,NA,NA,NA,NA,NA,NA,NA,NA,NA,"Unknown",NA,NA,NA,NA,NA,NA,0,NA,NA,0,NA,NA,NA,NA,NA,NA,NA,NA,NA,NA,NA,NA,5,"Firearms",5,"Unknown Gun Type",NA,NA,NA,NA,NA,NA,NA,NA,NA,NA,NA,NA,"Firearm",1,NA,NA,0,NA,NA,0,NA,NA,NA,NA,0,NA,NA,NA,NA,NA,NA,0,NA,NA,NA,NA,NA,NA,NA,NA,NA,NA,NA,NA,"PGIS",-9,-9,0,-9,NA
"58103",199501010001,1995,1,1,NA,0,NA,202,"Tajikistan",7,"Central Asia",NA,"Dushanbe",38.536667,68.78,1,0,NA,NA,1,1,0,1,1,"Insurgency/Guerilla Action",0,1,0,1,"Assassination",NA,NA,NA,NA,4,"Military",34,"Military Personnel (soldiers, troops, officers, forces)",NA,"Russian Military",167,"Russia",NA,NA,NA,NA,NA,NA,NA,NA,NA,NA,NA,NA,NA,NA,NA,NA,"Unknown",NA,NA,NA,NA,NA,NA,0,NA,NA,0,NA,NA,NA,NA,NA,NA,NA,NA,NA,NA,NA,NA,2,"Chemical",1,"Poisoning",NA,NA,NA,NA,NA,NA,NA,NA,NA,NA,NA,NA,"Poison",10,NA,NA,0,NA,NA,0,NA,NA,NA,NA,0,NA,NA,NA,NA,NA,NA,0,NA,NA,NA,NA,NA,NA,NA,NA,NA,NA,NA,NA,"PGIS",-9,-9,1,1,NA
"58114",199501020003,1995,1,2,NA,0,NA,202,"Tajikistan",7,"Central Asia",NA,"Dushanbe",38.536667,68.78,1,0,NA,NA,1,1,1,0,NA,NA,0,1,0,3,"Bombing/Explosion",NA,NA,NA,NA,10,"Journalists & Media",55,"Television Journalist/Staff/Facility",NA,"Television Station",202,"Tajikistan",NA,NA,NA,NA,NA,NA,NA,NA,NA,NA,NA,NA,NA,NA,NA,NA,"Unknown",NA,NA,NA,NA,NA,NA,0,NA,NA,0,NA,NA,NA,NA,NA,NA,NA,NA,NA,NA,NA,NA,6,"Explosives/Bombs/Dynamite",16,"Unknown Explosive Type",NA,NA,NA,NA,NA,NA,NA,NA,NA,NA,NA,NA,"Explosive",0,NA,NA,0,NA,NA,1,NA,NA,NA,NA,0,NA,NA,NA,NA,NA,NA,0,NA,NA,NA,NA,NA,NA,NA,NA,NA,NA,NA,NA,"PGIS",-9,-9,0,-9,NA
"58115",199501020004,1995,1,2,NA,0,NA,202,"Tajikistan",7,"Central Asia",NA,"Dushanbe",38.536667,68.78,1,0,NA,NA,1,1,1,0,NA,NA,0,1,0,3,"Bombing/Explosion",NA,NA,NA,NA,2,"Government (General)",18,"Government Personnel (excluding police, military)","Govt","Interior Ministry",202,"Tajikistan",NA,NA,NA,NA,NA,NA,NA,NA,NA,NA,NA,NA,NA,NA,NA,NA,"Unknown",NA,NA,NA,NA,NA,NA,0,NA,NA,0,NA,NA,NA,NA,NA,NA,NA,NA,NA,NA,NA,NA,6,"Explosives/Bombs/Dynamite",16,"Unknown Explosive Type",NA,NA,NA,NA,NA,NA,NA,NA,NA,NA,NA,NA,"Explosive",0,NA,NA,0,NA,NA,1,NA,NA,NA,NA,0,NA,NA,NA,NA,NA,NA,0,NA,NA,NA,NA,NA,NA,NA,NA,NA,NA,NA,NA,"PGIS",-9,-9,0,-9,NA
"58124",199501030002,1995,1,3,NA,0,NA,202,"Tajikistan",7,"Central Asia","Khatlon","Tajik / Afghan Border",37.833333,69,4,0,NA,NA,1,1,0,1,1,"Insurgency/Guerilla Action",0,1,0,9,"Unknown",NA,NA,NA,NA,4,"Military",34,"Military Personnel (soldiers, troops, officers, forces)",NA,"Russian Soldiers",167,"Russia",NA,NA,NA,NA,NA,NA,NA,NA,NA,NA,NA,NA,NA,NA,NA,NA,"Unknown",NA,NA,NA,NA,NA,NA,0,NA,NA,0,NA,NA,NA,NA,NA,NA,NA,NA,NA,NA,NA,NA,13,"Unknown",NA,NA,NA,NA,NA,NA,NA,NA,NA,NA,NA,NA,NA,NA,NA,10,NA,NA,0,NA,NA,1,NA,NA,NA,NA,0,NA,NA,NA,NA,NA,NA,0,NA,NA,NA,NA,NA,NA,NA,NA,NA,NA,NA,NA,"PGIS",-9,-9,1,1,NA
"58388",199502110001,1995,2,11,NA,0,NA,202,"Tajikistan",7,"Central Asia",NA,"Dushanbe",38.536667,68.78,1,0,NA,NA,1,1,1,0,NA,NA,0,1,0,1,"Assassination",NA,NA,NA,NA,15,"Religious Figures/Institutions",85,"Religious Figure","Unk","Religious Leader",202,"Tajikistan",NA,NA,NA,NA,NA,NA,NA,NA,NA,NA,NA,NA,NA,NA,NA,NA,"Unknown",NA,NA,NA,NA,NA,NA,0,NA,NA,0,NA,NA,NA,NA,NA,NA,NA,NA,NA,NA,NA,NA,5,"Firearms",3,"Handgun",NA,NA,NA,NA,NA,NA,NA,NA,NA,NA,NA,NA,"Pistol",1,NA,NA,0,NA,NA,0,NA,NA,NA,NA,0,NA,NA,NA,NA,NA,NA,0,NA,NA,NA,NA,NA,NA,NA,NA,NA,NA,NA,NA,"PGIS",-9,-9,0,-9,NA
"58424",199502140008,1995,2,14,NA,0,NA,202,"Tajikistan",7,"Central Asia",NA,"Dushanbe",38.536667,68.78,1,0,NA,NA,1,1,0,1,1,"Insurgency/Guerilla Action",0,1,0,1,"Assassination",NA,NA,NA,NA,4,"Military",34,"Military Personnel (soldiers, troops, officers, forces)",NA,"Russian Soldiers",167,"Russia",NA,NA,NA,NA,NA,NA,NA,NA,NA,NA,NA,NA,NA,NA,NA,NA,"Unknown",NA,NA,NA,NA,NA,NA,0,NA,NA,0,NA,NA,NA,NA,NA,NA,NA,NA,NA,NA,NA,NA,5,"Firearms",5,"Unknown Gun Type",NA,NA,NA,NA,NA,NA,NA,NA,NA,NA,NA,NA,"Firearm",2,NA,NA,0,NA,NA,0,NA,NA,NA,NA,0,NA,NA,NA,NA,NA,NA,0,NA,NA,NA,NA,NA,NA,NA,NA,NA,NA,NA,NA,"PGIS",-9,-9,1,1,NA
"58433",199502150002,1995,2,15,NA,0,NA,202,"Tajikistan",7,"Central Asia","Khatlon","Tajik / Afghan Border",28.291564,-16.62913,4,0,NA,NA,1,1,0,1,1,"Insurgency/Guerilla Action",0,1,0,1,"Assassination",NA,NA,NA,NA,4,"Military",34,"Military Personnel (soldiers, troops, officers, forces)",NA,"Russian Soldiers",167,"Russia",NA,NA,NA,NA,NA,NA,NA,NA,NA,NA,NA,NA,NA,NA,NA,NA,"Unknown",NA,NA,NA,NA,NA,NA,0,NA,NA,0,NA,NA,NA,NA,NA,NA,NA,NA,NA,NA,NA,NA,5,"Firearms",5,"Unknown Gun Type",NA,NA,NA,NA,NA,NA,NA,NA,NA,NA,NA,NA,"Firearm",2,NA,NA,0,NA,NA,0,NA,NA,NA,NA,0,NA,NA,NA,NA,NA,NA,0,NA,NA,NA,NA,NA,NA,NA,NA,NA,NA,NA,NA,"PGIS",-9,-9,1,1,NA
"58446",199502170001,1995,2,17,NA,0,NA,202,"Tajikistan",7,"Central Asia",NA,"Dushanbe",38.536667,68.78,1,0,NA,NA,1,1,0,1,1,"Insurgency/Guerilla Action",0,1,0,2,"Armed Assault",NA,NA,NA,NA,4,"Military",34,"Military Personnel (soldiers, troops, officers, forces)",NA,"Russian Soldiers",167,"Russia",NA,NA,NA,NA,NA,NA,NA,NA,NA,NA,NA,NA,NA,NA,NA,NA,"Unknown",NA,NA,NA,NA,NA,NA,0,NA,NA,0,NA,NA,NA,NA,NA,NA,NA,NA,NA,NA,NA,NA,5,"Firearms",5,"Unknown Gun Type",NA,NA,NA,NA,NA,NA,NA,NA,NA,NA,NA,NA,"Firearm",1,NA,NA,1,NA,NA,1,NA,NA,NA,NA,0,NA,NA,NA,NA,NA,NA,0,NA,NA,NA,NA,NA,NA,NA,NA,NA,NA,NA,NA,"PGIS",-9,-9,1,1,NA
"58454",199502190002,1995,2,19,NA,0,NA,202,"Tajikistan",7,"Central Asia",NA,"Dushanbe",38.536667,68.78,1,0,NA,NA,1,1,0,1,1,"Insurgency/Guerilla Action",0,1,0,1,"Assassination",NA,NA,NA,NA,4,"Military",34,"Military Personnel (soldiers, troops, officers, forces)",NA,"Russian Soldier",167,"Russia",NA,NA,NA,NA,NA,NA,NA,NA,NA,NA,NA,NA,NA,NA,NA,NA,"Unknown",NA,NA,NA,NA,NA,NA,0,NA,NA,0,NA,NA,NA,NA,NA,NA,NA,NA,NA,NA,NA,NA,5,"Firearms",5,"Unknown Gun Type",NA,NA,NA,NA,NA,NA,NA,NA,NA,NA,NA,NA,"Firearm",1,NA,NA,0,NA,NA,0,NA,NA,NA,NA,0,NA,NA,NA,NA,NA,NA,0,NA,NA,NA,NA,NA,NA,NA,NA,NA,NA,NA,NA,"PGIS",-9,-9,1,1,NA
"58479",199502230001,1995,2,23,NA,0,NA,202,"Tajikistan",7,"Central Asia",NA,"Dushanbe",38.536667,68.78,1,0,NA,NA,1,1,0,1,1,"Insurgency/Guerilla Action",0,1,0,3,"Bombing/Explosion",NA,NA,NA,NA,4,"Military",35,"Military Transportation/Vehicle (excluding convoys)",NA,"Military Bus",167,"Russia",NA,NA,NA,NA,NA,NA,NA,NA,NA,NA,NA,NA,NA,NA,NA,NA,"Unknown",NA,NA,NA,NA,NA,NA,0,NA,NA,0,NA,NA,NA,NA,NA,NA,NA,NA,NA,NA,NA,NA,6,"Explosives/Bombs/Dynamite",11,"Projectile (rockets, mortars, RPGs, etc.)",6,"Explosives/Bombs/Dynamite",11,"Projectile (rockets, mortars, RPGs, etc.)",NA,NA,NA,NA,NA,NA,NA,NA,"Anti-tank grenade; Rocket propelled grenade",1,NA,NA,6,NA,NA,1,NA,NA,NA,NA,0,NA,NA,NA,NA,NA,NA,0,NA,NA,NA,NA,NA,NA,NA,NA,NA,NA,NA,NA,"PGIS",-9,-9,1,1,NA
"58697",199503130002,1995,3,13,NA,0,NA,202,"Tajikistan",7,"Central Asia",NA,"Dushanbe",38.536667,68.78,1,0,NA,NA,1,1,1,0,NA,NA,0,1,0,1,"Assassination",NA,NA,NA,NA,2,"Government (General)",15,"Politician or Political Party Movement/Meeting/Rally",NA,"Tajik Politician (Deputy)",202,"Tajikistan",NA,NA,NA,NA,NA,NA,NA,NA,NA,NA,NA,NA,NA,NA,NA,NA,"Unknown",NA,NA,NA,NA,NA,NA,0,NA,NA,0,NA,NA,NA,NA,NA,NA,NA,NA,NA,NA,NA,NA,5,"Firearms",5,"Unknown Gun Type",NA,NA,NA,NA,NA,NA,NA,NA,NA,NA,NA,NA,"Firearm",1,NA,NA,0,NA,NA,0,NA,NA,NA,NA,0,NA,NA,NA,NA,NA,NA,0,NA,NA,NA,NA,NA,NA,NA,NA,NA,NA,NA,NA,"PGIS",-9,-9,0,-9,NA
"58733",199503170002,1995,3,17,NA,0,NA,202,"Tajikistan",7,"Central Asia",NA,"Dushanbe",38.536667,68.78,1,0,NA,NA,1,1,0,1,1,"Insurgency/Guerilla Action",0,1,0,1,"Assassination",NA,NA,NA,NA,4,"Military",34,"Military Personnel (soldiers, troops, officers, forces)",NA,"Russian Military",167,"Russia",NA,NA,NA,NA,NA,NA,NA,NA,NA,NA,NA,NA,NA,NA,NA,NA,"Unknown",NA,NA,NA,NA,NA,NA,0,NA,NA,0,NA,NA,NA,NA,NA,NA,NA,NA,NA,NA,NA,NA,5,"Firearms",2,"Automatic Weapon",NA,NA,NA,NA,NA,NA,NA,NA,NA,NA,NA,NA,"Automatic rifle",1,NA,NA,0,NA,NA,0,NA,NA,NA,NA,0,NA,NA,NA,NA,NA,NA,0,NA,NA,NA,NA,NA,NA,NA,NA,NA,NA,NA,NA,"PGIS",-9,-9,1,1,NA
"58745",199503180004,1995,3,18,NA,0,NA,202,"Tajikistan",7,"Central Asia",NA,"Dushanbe",38.536667,68.78,1,0,NA,NA,1,1,0,1,1,"Insurgency/Guerilla Action",0,0,0,1,"Assassination",NA,NA,NA,NA,4,"Military",34,"Military Personnel (soldiers, troops, officers, forces)",NA,"Russian Military",167,"Russia",NA,NA,NA,NA,NA,NA,NA,NA,NA,NA,NA,NA,NA,NA,NA,NA,"Unknown",NA,NA,NA,NA,NA,NA,0,NA,NA,0,NA,NA,NA,NA,NA,NA,NA,NA,NA,NA,NA,NA,5,"Firearms",5,"Unknown Gun Type",NA,NA,NA,NA,NA,NA,NA,NA,NA,NA,NA,NA,"Firearm",0,NA,NA,1,NA,NA,0,NA,NA,NA,NA,0,NA,NA,NA,NA,NA,NA,0,NA,NA,NA,NA,NA,NA,NA,NA,NA,NA,NA,NA,"PGIS",-9,-9,1,1,NA
"58930",199504140002,1995,4,14,NA,0,NA,202,"Tajikistan",7,"Central Asia",NA,"Dushanbe",38.536667,68.78,1,0,NA,NA,1,1,1,0,NA,NA,0,1,0,1,"Assassination",NA,NA,NA,NA,2,"Government (General)",18,"Government Personnel (excluding police, military)",NA,"govt Troops",202,"Tajikistan",NA,NA,NA,NA,NA,NA,NA,NA,NA,NA,NA,NA,NA,NA,NA,NA,"Muslim Militants",NA,NA,NA,NA,NA,NA,0,NA,NA,0,NA,NA,NA,NA,NA,NA,NA,NA,NA,NA,NA,NA,5,"Firearms",5,"Unknown Gun Type",NA,NA,NA,NA,NA,NA,NA,NA,NA,NA,NA,NA,"Small caliber",1,NA,NA,0,NA,NA,0,NA,NA,NA,NA,0,NA,NA,NA,NA,NA,NA,0,NA,NA,NA,NA,NA,NA,NA,NA,NA,NA,NA,NA,"PGIS",-9,-9,0,-9,NA
"58985",199504230001,1995,4,23,NA,0,NA,202,"Tajikistan",7,"Central Asia",NA,"Dushanbe",38.536667,68.78,1,0,NA,NA,1,1,0,1,1,"Insurgency/Guerilla Action",0,1,0,3,"Bombing/Explosion",NA,NA,NA,NA,4,"Military",34,"Military Personnel (soldiers, troops, officers, forces)",NA,"Russian Military",167,"Russia",NA,NA,NA,NA,NA,NA,NA,NA,NA,NA,NA,NA,NA,NA,NA,NA,"Unknown",NA,NA,NA,NA,NA,NA,0,NA,NA,0,NA,NA,NA,NA,NA,NA,NA,NA,NA,NA,NA,NA,6,"Explosives/Bombs/Dynamite",16,"Unknown Explosive Type",NA,NA,NA,NA,NA,NA,NA,NA,NA,NA,NA,NA,"Explosive",0,NA,NA,4,NA,NA,1,NA,NA,NA,NA,0,NA,NA,NA,NA,NA,NA,0,NA,NA,NA,NA,NA,NA,NA,NA,NA,NA,NA,NA,"PGIS",-9,-9,1,1,NA
"59005",199504280004,1995,4,28,NA,0,NA,202,"Tajikistan",7,"Central Asia",NA,"Dushanbe",38.536667,68.78,1,0,NA,NA,1,1,1,0,NA,NA,0,0,0,1,"Assassination",NA,NA,NA,NA,2,"Government (General)",15,"Politician or Political Party Movement/Meeting/Rally",NA,"Tajik Parliamentary Deputy",202,"Tajikistan",NA,NA,NA,NA,NA,NA,NA,NA,NA,NA,NA,NA,NA,NA,NA,NA,"Unknown",NA,NA,NA,NA,NA,NA,0,NA,NA,0,NA,NA,NA,NA,NA,NA,NA,NA,NA,NA,NA,NA,5,"Firearms",5,"Unknown Gun Type",NA,NA,NA,NA,NA,NA,NA,NA,NA,NA,NA,NA,"Small caliber",0,NA,NA,2,NA,NA,0,NA,NA,NA,NA,0,NA,NA,NA,NA,NA,NA,0,NA,NA,NA,NA,NA,NA,NA,NA,NA,NA,NA,NA,"PGIS",-9,-9,0,-9,NA
"59142",199505180006,1995,5,18,NA,0,NA,202,"Tajikistan",7,"Central Asia",NA,"Khujand",40.283333,69.633333,1,0,NA,NA,1,1,0,1,1,"Insurgency/Guerilla Action",0,1,0,1,"Assassination",NA,NA,NA,NA,4,"Military",34,"Military Personnel (soldiers, troops, officers, forces)",NA,"Tajik Military",202,"Tajikistan",NA,NA,NA,NA,NA,NA,NA,NA,NA,NA,NA,NA,NA,NA,NA,NA,"Unknown",NA,NA,NA,NA,NA,NA,0,NA,NA,0,NA,NA,NA,NA,NA,NA,NA,NA,NA,NA,NA,NA,5,"Firearms",5,"Unknown Gun Type",NA,NA,NA,NA,NA,NA,NA,NA,NA,NA,NA,NA,"Small caliber",1,NA,NA,0,NA,NA,0,NA,NA,NA,NA,0,NA,NA,NA,NA,NA,NA,0,NA,NA,NA,NA,NA,NA,NA,NA,NA,NA,NA,NA,"PGIS",-9,-9,0,-9,NA
"59143",199505180007,1995,5,18,NA,0,NA,202,"Tajikistan",7,"Central Asia",NA,"Khujand",40.283333,69.633333,1,0,NA,NA,1,1,0,1,1,"Insurgency/Guerilla Action",0,1,0,1,"Assassination",NA,NA,NA,NA,4,"Military",34,"Military Personnel (soldiers, troops, officers, forces)",NA,"Tajik Military",202,"Tajikistan",NA,NA,NA,NA,NA,NA,NA,NA,NA,NA,NA,NA,NA,NA,NA,NA,"Unknown",NA,NA,NA,NA,NA,NA,0,NA,NA,0,NA,NA,NA,NA,NA,NA,NA,NA,NA,NA,NA,NA,5,"Firearms",5,"Unknown Gun Type",NA,NA,NA,NA,NA,NA,NA,NA,NA,NA,NA,NA,"Small caliber",4,NA,NA,0,NA,NA,0,NA,NA,NA,NA,0,NA,NA,NA,NA,NA,NA,0,NA,NA,NA,NA,NA,NA,NA,NA,NA,NA,NA,NA,"PGIS",-9,-9,0,-9,NA
"59182",199505210003,1995,5,21,NA,0,NA,202,"Tajikistan",7,"Central Asia",NA,"Khorog",37.486729,71.549843,1,0,NA,NA,1,1,0,1,1,"Insurgency/Guerilla Action",0,1,0,3,"Bombing/Explosion",NA,NA,NA,NA,4,"Military",34,"Military Personnel (soldiers, troops, officers, forces)",NA,"Russian Military",167,"Russia",NA,NA,NA,NA,NA,NA,NA,NA,NA,NA,NA,NA,NA,NA,NA,NA,"Unknown",NA,NA,NA,NA,NA,NA,0,NA,NA,0,NA,NA,NA,NA,NA,NA,NA,NA,NA,NA,NA,NA,6,"Explosives/Bombs/Dynamite",16,"Unknown Explosive Type",NA,NA,NA,NA,NA,NA,NA,NA,NA,NA,NA,NA,"Explosive",1,NA,NA,0,NA,NA,1,NA,NA,NA,NA,0,NA,NA,NA,NA,NA,NA,0,NA,NA,NA,NA,NA,NA,NA,NA,NA,NA,NA,NA,"PGIS",-9,-9,1,1,NA
"59355",199506030003,1995,6,3,NA,0,NA,202,"Tajikistan",7,"Central Asia",NA,"Panj",37.233333,69.1,1,0,NA,NA,1,1,0,1,1,"Insurgency/Guerilla Action",0,1,0,1,"Assassination",NA,NA,NA,NA,4,"Military",34,"Military Personnel (soldiers, troops, officers, forces)",NA,"Russian Military",167,"Russia",NA,NA,NA,NA,NA,NA,NA,NA,NA,NA,NA,NA,NA,NA,NA,NA,"Unknown",NA,NA,NA,NA,NA,NA,0,NA,NA,0,NA,NA,NA,NA,NA,NA,NA,NA,NA,NA,NA,NA,5,"Firearms",5,"Unknown Gun Type",NA,NA,NA,NA,NA,NA,NA,NA,NA,NA,NA,NA,"Small caliber",1,NA,NA,0,NA,NA,0,NA,NA,NA,NA,0,NA,NA,NA,NA,NA,NA,0,NA,NA,NA,NA,NA,NA,NA,NA,NA,NA,NA,NA,"PGIS",-9,-9,1,1,NA
"59579",199506220015,1995,6,22,NA,0,NA,202,"Tajikistan",7,"Central Asia",NA,"Dushanbe",38.536667,68.78,1,0,NA,NA,1,1,0,1,1,"Insurgency/Guerilla Action",0,1,0,1,"Assassination",NA,NA,NA,NA,4,"Military",34,"Military Personnel (soldiers, troops, officers, forces)",NA,"Russian Military",167,"Russia",NA,NA,NA,NA,NA,NA,NA,NA,NA,NA,NA,NA,NA,NA,NA,NA,"Unknown",NA,NA,NA,NA,NA,NA,0,NA,NA,0,NA,NA,NA,NA,NA,NA,NA,NA,NA,NA,NA,NA,5,"Firearms",5,"Unknown Gun Type",NA,NA,NA,NA,NA,NA,NA,NA,NA,NA,NA,NA,"Small caliber",2,NA,NA,0,NA,NA,0,NA,NA,NA,NA,0,NA,NA,NA,NA,NA,NA,0,NA,NA,NA,NA,NA,NA,NA,NA,NA,NA,NA,NA,"PGIS",-9,-9,1,1,NA
"59593",199506250006,1995,6,25,NA,0,NA,202,"Tajikistan",7,"Central Asia",NA,"Kofarnikhon",38.553056,69.019722,1,0,NA,NA,1,1,0,1,1,"Insurgency/Guerilla Action",0,1,0,1,"Assassination",NA,NA,NA,NA,4,"Military",34,"Military Personnel (soldiers, troops, officers, forces)",NA,"Govt Military",202,"Tajikistan",NA,NA,NA,NA,NA,NA,NA,NA,NA,NA,NA,NA,NA,NA,NA,NA,"Unknown",NA,NA,NA,NA,NA,NA,0,NA,NA,0,NA,NA,NA,NA,NA,NA,NA,NA,NA,NA,NA,NA,5,"Firearms",5,"Unknown Gun Type",NA,NA,NA,NA,NA,NA,NA,NA,NA,NA,NA,NA,"Small caliber",3,NA,NA,0,NA,NA,0,NA,NA,NA,NA,0,NA,NA,NA,NA,NA,NA,0,NA,NA,NA,NA,NA,NA,NA,NA,NA,NA,NA,NA,"PGIS",-9,-9,0,-9,NA
"59685",199507050005,1995,7,5,NA,0,NA,202,"Tajikistan",7,"Central Asia","Dushanabe","Dushanbe",28.291564,-16.62913,4,1,NA,NA,1,1,0,1,1,"Insurgency/Guerilla Action",0,1,0,9,"Unknown",NA,NA,NA,NA,4,"Military",34,"Military Personnel (soldiers, troops, officers, forces)",NA,"Tajik Military",202,"Tajikistan",NA,NA,NA,NA,NA,NA,NA,NA,NA,NA,NA,NA,NA,NA,NA,NA,"Unknown",NA,NA,NA,NA,NA,NA,0,NA,NA,0,NA,NA,NA,NA,NA,NA,NA,NA,NA,NA,NA,NA,13,"Unknown",NA,NA,NA,NA,NA,NA,NA,NA,NA,NA,NA,NA,NA,NA,NA,4,NA,NA,0,NA,NA,1,NA,NA,NA,NA,0,NA,NA,NA,NA,NA,NA,0,NA,NA,NA,NA,NA,NA,NA,NA,NA,NA,NA,NA,"PGIS",-9,-9,0,-9,NA
"59743",199507130006,1995,7,13,NA,0,NA,202,"Tajikistan",7,"Central Asia",NA,"Unknown",NA,NA,5,0,NA,NA,1,1,1,0,NA,NA,0,0,0,1,"Assassination",NA,NA,NA,NA,2,"Government (General)",15,"Politician or Political Party Movement/Meeting/Rally",NA,"Tajik Parliamentary Deputy",202,"Tajikistan",NA,NA,NA,NA,NA,NA,NA,NA,NA,NA,NA,NA,NA,NA,NA,NA,"Unknown",NA,NA,NA,NA,NA,NA,0,NA,NA,0,NA,NA,NA,NA,NA,NA,NA,NA,NA,NA,NA,NA,5,"Firearms",5,"Unknown Gun Type",NA,NA,NA,NA,NA,NA,NA,NA,NA,NA,NA,NA,"Small caliber",0,NA,NA,1,NA,NA,0,NA,NA,NA,NA,0,NA,NA,NA,NA,NA,NA,0,NA,NA,NA,NA,NA,NA,NA,NA,NA,NA,NA,NA,"PGIS",-9,-9,0,-9,NA
"59809",199507210004,1995,7,21,NA,0,NA,202,"Tajikistan",7,"Central Asia",NA,"Dushanbe",38.536667,68.78,1,0,NA,NA,1,1,1,-9,NA,NA,0,1,0,1,"Assassination",NA,NA,NA,NA,1,"Business",NA,NA,NA,"Businessman",202,"Tajikistan",NA,NA,NA,NA,NA,NA,NA,NA,NA,NA,NA,NA,NA,NA,NA,NA,"Unknown",NA,NA,NA,NA,NA,NA,0,NA,NA,0,NA,NA,NA,NA,NA,NA,NA,NA,NA,NA,NA,NA,5,"Firearms",5,"Unknown Gun Type",NA,NA,NA,NA,NA,NA,NA,NA,NA,NA,NA,NA,"Small caliber",1,NA,NA,0,NA,NA,0,NA,NA,NA,NA,0,NA,NA,NA,NA,NA,NA,0,NA,NA,NA,NA,NA,NA,NA,NA,NA,NA,NA,NA,"PGIS",-9,-9,0,-9,NA
"59821",199507220001,1995,7,22,NA,0,NA,202,"Tajikistan",7,"Central Asia",NA,"Dushanbe",38.536667,68.78,1,0,NA,NA,1,1,1,-9,NA,NA,0,1,0,1,"Assassination",NA,NA,NA,NA,1,"Business",NA,NA,NA,"Business man",167,"Russia",NA,NA,NA,NA,NA,NA,NA,NA,NA,NA,NA,NA,NA,NA,NA,NA,"Unknown",NA,NA,NA,NA,NA,NA,0,NA,NA,0,NA,NA,NA,NA,NA,NA,NA,NA,NA,NA,NA,NA,5,"Firearms",5,"Unknown Gun Type",NA,NA,NA,NA,NA,NA,NA,NA,NA,NA,NA,NA,"Small caliber",1,NA,NA,0,NA,NA,0,NA,NA,NA,NA,0,NA,NA,NA,NA,NA,NA,0,NA,NA,NA,NA,NA,NA,NA,NA,NA,NA,NA,NA,"PGIS",-9,-9,1,1,NA
"59927",199508010003,1995,8,1,NA,0,NA,202,"Tajikistan",7,"Central Asia",NA,"Dushanbe",38.536667,68.78,1,0,NA,NA,1,1,1,0,NA,NA,0,1,0,1,"Assassination",NA,NA,NA,NA,2,"Government (General)",15,"Politician or Political Party Movement/Meeting/Rally",NA,"Parliamentary Deputy",202,"Tajikistan",NA,NA,NA,NA,NA,NA,NA,NA,NA,NA,NA,NA,NA,NA,NA,NA,"Unknown",NA,NA,NA,NA,NA,NA,0,NA,NA,0,NA,NA,NA,NA,NA,NA,NA,NA,NA,NA,NA,NA,5,"Firearms",5,"Unknown Gun Type",NA,NA,NA,NA,NA,NA,NA,NA,NA,NA,NA,NA,"Small caliber",1,NA,NA,0,NA,NA,0,NA,NA,NA,NA,0,NA,NA,NA,NA,NA,NA,0,NA,NA,NA,NA,NA,NA,NA,NA,NA,NA,NA,NA,"PGIS",-9,-9,0,-9,NA
"60358",199509180003,1995,9,18,NA,0,NA,202,"Tajikistan",7,"Central Asia",NA,"Kurgan-Tyube",37.836165,68.779826,1,0,NA,NA,1,1,1,0,NA,NA,0,1,0,2,"Armed Assault",NA,NA,NA,NA,17,"Terrorists/Non-State Militia",NA,NA,NA,"Opposition Units ?!",15,"Austria",NA,NA,NA,NA,NA,NA,NA,NA,NA,NA,NA,NA,NA,NA,NA,NA,"Unknown",NA,NA,NA,NA,NA,NA,0,NA,NA,0,NA,NA,NA,NA,NA,NA,NA,NA,NA,NA,NA,NA,5,"Firearms",5,"Unknown Gun Type",NA,NA,NA,NA,NA,NA,NA,NA,NA,NA,NA,NA,"Firearm",1,NA,NA,1,NA,NA,1,NA,NA,NA,NA,0,NA,NA,NA,NA,NA,NA,0,NA,NA,NA,NA,NA,NA,NA,NA,NA,NA,NA,NA,"PGIS",-9,-9,1,1,NA
"60444",199509280006,1995,9,28,NA,0,NA,202,"Tajikistan",7,"Central Asia",NA,"Dushanbe",38.536667,68.78,1,0,NA,NA,1,1,0,1,1,"Insurgency/Guerilla Action",0,1,0,1,"Assassination",NA,NA,NA,NA,4,"Military",34,"Military Personnel (soldiers, troops, officers, forces)",NA,"Russian Soldiers",167,"Russia",NA,NA,NA,NA,NA,NA,NA,NA,NA,NA,NA,NA,NA,NA,NA,NA,"Islamic Revival Movement",NA,NA,NA,NA,NA,NA,0,NA,NA,0,NA,NA,NA,NA,NA,NA,NA,NA,NA,NA,NA,NA,5,"Firearms",5,"Unknown Gun Type",NA,NA,NA,NA,NA,NA,NA,NA,NA,NA,NA,NA,"Small caliber",2,NA,NA,2,NA,NA,0,NA,NA,NA,NA,0,NA,NA,NA,NA,NA,NA,0,NA,NA,NA,NA,NA,NA,NA,NA,NA,NA,NA,NA,"PGIS",0,1,1,1,NA
"60537",199510080001,1995,10,8,NA,0,NA,202,"Tajikistan",7,"Central Asia",NA,"Khorog",37.486729,71.549843,1,0,NA,NA,1,1,0,1,1,"Insurgency/Guerilla Action",0,1,0,2,"Armed Assault",NA,NA,NA,NA,4,"Military",34,"Military Personnel (soldiers, troops, officers, forces)",NA,"Russian Soldiers",167,"Russia",NA,NA,NA,NA,NA,NA,NA,NA,NA,NA,NA,NA,NA,NA,NA,NA,"Unknown",NA,NA,NA,NA,NA,NA,0,NA,NA,0,NA,NA,NA,NA,NA,NA,NA,NA,NA,NA,NA,NA,5,"Firearms",5,"Unknown Gun Type",NA,NA,NA,NA,NA,NA,NA,NA,NA,NA,NA,NA,"Small caliber",6,NA,NA,4,NA,NA,1,NA,NA,NA,NA,0,NA,NA,NA,NA,NA,NA,0,NA,NA,NA,NA,NA,NA,NA,NA,NA,NA,NA,NA,"PGIS",-9,-9,1,1,NA
"60682",199510210004,1995,10,21,NA,0,NA,202,"Tajikistan",7,"Central Asia",NA,"Dushanbe",38.536667,68.78,1,0,NA,NA,1,1,1,-9,NA,NA,0,1,0,1,"Assassination",NA,NA,NA,NA,3,"Police",25,"Police Security Forces/Officers","Usmad Kholov","Police / Businessman",202,"Tajikistan",NA,NA,NA,NA,NA,NA,NA,NA,NA,NA,NA,NA,NA,NA,NA,NA,"Unknown",NA,NA,NA,NA,NA,NA,0,NA,NA,0,NA,NA,NA,NA,NA,NA,NA,NA,NA,NA,NA,NA,5,"Firearms",5,"Unknown Gun Type",NA,NA,NA,NA,NA,NA,NA,NA,NA,NA,NA,NA,"Small caliber",2,NA,NA,0,NA,NA,0,NA,NA,NA,NA,0,NA,NA,NA,NA,NA,NA,0,NA,NA,NA,NA,NA,NA,NA,NA,NA,NA,NA,NA,"PGIS",-9,-9,0,-9,NA
"60781",199510310001,1995,10,31,NA,0,NA,202,"Tajikistan",7,"Central Asia",NA,"Gharm",39.215745,70.526493,2,0,NA,NA,1,1,1,0,NA,NA,0,1,0,3,"Bombing/Explosion",NA,NA,NA,NA,3,"Police",25,"Police Security Forces/Officers",NA,"Police",202,"Tajikistan",NA,NA,NA,NA,NA,NA,NA,NA,NA,NA,NA,NA,NA,NA,NA,NA,"Unknown",NA,NA,NA,NA,NA,NA,0,NA,NA,0,NA,NA,NA,NA,NA,NA,NA,NA,NA,NA,NA,NA,5,"Firearms",2,"Automatic Weapon",6,"Explosives/Bombs/Dynamite",11,"Projectile (rockets, mortars, RPGs, etc.)",NA,NA,NA,NA,NA,NA,NA,NA,"Automatic firearms; Mortar",15,NA,NA,1,NA,NA,1,NA,NA,NA,NA,0,NA,NA,NA,NA,NA,NA,0,NA,NA,NA,NA,NA,NA,NA,NA,NA,NA,NA,NA,"PGIS",-9,-9,0,-9,NA
"60948",199511300002,1995,11,30,NA,0,NA,202,"Tajikistan",7,"Central Asia",NA,"Dushanbe",38.536667,68.78,1,0,NA,NA,1,1,0,1,1,"Insurgency/Guerilla Action",0,1,0,1,"Assassination",NA,NA,NA,NA,4,"Military",34,"Military Personnel (soldiers, troops, officers, forces)",NA,"Russian Soldiers",167,"Russia",NA,NA,NA,NA,NA,NA,NA,NA,NA,NA,NA,NA,NA,NA,NA,NA,"Unknown",NA,NA,NA,NA,NA,NA,0,NA,NA,0,NA,NA,NA,NA,NA,NA,NA,NA,NA,NA,NA,NA,5,"Firearms",5,"Unknown Gun Type",NA,NA,NA,NA,NA,NA,NA,NA,NA,NA,NA,NA,"Small caliber",1,NA,NA,0,NA,NA,0,NA,NA,NA,NA,0,NA,NA,NA,NA,NA,NA,0,NA,NA,NA,NA,NA,NA,NA,NA,NA,NA,NA,NA,"PGIS",-9,-9,1,1,NA
"61032",199512120009,1995,12,12,NA,0,NA,202,"Tajikistan",7,"Central Asia",NA,"Dushanbe",38.536667,68.78,1,0,NA,NA,1,1,1,-9,NA,NA,0,1,0,6,"Hostage Taking (Kidnapping)",NA,NA,NA,NA,10,"Journalists & Media",53,"Newspaper Journalist/Staff/Facility",NA,"Reporter for BBC",202,"Tajikistan",NA,NA,NA,NA,NA,NA,NA,NA,NA,NA,NA,NA,NA,NA,NA,NA,"Unknown",NA,NA,NA,NA,NA,NA,0,NA,NA,0,NA,NA,NA,NA,NA,NA,NA,NA,NA,NA,NA,NA,5,"Firearms",5,"Unknown Gun Type",NA,NA,NA,NA,NA,NA,NA,NA,NA,NA,NA,NA,"Small caliber",1,NA,NA,0,NA,NA,0,NA,NA,NA,NA,1,1,0,NA,NA,NA,"Tajikistan",0,NA,NA,NA,NA,NA,4,"Hostage(s) killed (not during rescue attempt)",NA,NA,NA,NA,NA,"PGIS",-9,-9,0,-9,NA
"61407",199601210003,1996,1,21,NA,0,NA,202,"Tajikistan",7,"Central Asia",NA,"Dushanbe",38.536667,68.78,1,0,NA,NA,1,1,1,0,NA,NA,0,1,0,1,"Assassination",NA,NA,NA,NA,15,"Religious Figures/Institutions",85,"Religious Figure",NA,"Pro-government Religious Leader",202,"Tajikistan",NA,NA,NA,NA,NA,NA,NA,NA,NA,NA,NA,NA,NA,NA,NA,NA,"Unknown",NA,NA,NA,NA,NA,NA,0,NA,NA,0,NA,NA,NA,NA,NA,NA,NA,NA,NA,NA,NA,NA,5,"Firearms",5,"Unknown Gun Type",5,"Firearms",2,"Automatic Weapon",NA,NA,NA,NA,NA,NA,NA,NA,"Small caliber; Submachine gun",5,NA,NA,0,NA,NA,0,NA,NA,NA,NA,0,NA,NA,NA,NA,NA,NA,0,NA,NA,NA,NA,NA,NA,NA,NA,NA,NA,NA,NA,"PGIS",-9,-9,0,-9,NA
"61550",199602110004,1996,2,11,NA,0,NA,202,"Tajikistan",7,"Central Asia",NA,"Sicharog",38.73014,69.80235,1,0,NA,NA,1,1,1,0,NA,NA,0,1,0,2,"Armed Assault",NA,NA,NA,NA,9,"Food or Water Supply",51,"Food Supply",NA,"Supply Convoy (unarmed food convoy)",202,"Tajikistan",NA,NA,NA,NA,NA,NA,NA,NA,NA,NA,NA,NA,NA,NA,NA,NA,"Unknown",NA,NA,NA,NA,NA,NA,0,NA,NA,0,NA,NA,NA,NA,NA,NA,NA,NA,NA,NA,NA,NA,5,"Firearms",5,"Unknown Gun Type",NA,NA,NA,NA,NA,NA,NA,NA,NA,NA,NA,NA,"Small caliber",22,NA,NA,0,NA,NA,1,NA,NA,NA,NA,0,NA,NA,NA,NA,NA,NA,0,NA,NA,NA,NA,NA,NA,NA,NA,NA,NA,NA,NA,"PGIS",-9,-9,0,-9,NA
"61591",199602150003,1996,2,15,NA,0,NA,202,"Tajikistan",7,"Central Asia",NA,"Rasht (District)",39.215745,70.526493,3,0,NA,NA,1,1,1,-9,NA,NA,0,1,0,2,"Armed Assault",NA,NA,NA,NA,3,"Police",25,"Police Security Forces/Officers",NA,"Security Chief",202,"Tajikistan",NA,NA,NA,NA,NA,NA,NA,NA,NA,NA,NA,NA,NA,NA,NA,NA,"Unknown",NA,NA,NA,NA,NA,NA,0,NA,NA,0,NA,NA,NA,NA,NA,NA,NA,NA,NA,NA,NA,NA,5,"Firearms",5,"Unknown Gun Type",NA,NA,NA,NA,NA,NA,NA,NA,NA,NA,NA,NA,"Small caliber",1,NA,NA,2,NA,NA,1,NA,NA,NA,NA,0,NA,NA,NA,NA,NA,NA,0,NA,NA,NA,NA,NA,NA,NA,NA,NA,NA,NA,NA,"PGIS",-9,-9,0,-9,NA
"61752",199603080001,1996,3,8,NA,0,NA,202,"Tajikistan",7,"Central Asia",NA,"Ramit",38.722593,69.319788,1,0,NA,NA,1,1,1,0,NA,NA,0,1,0,1,"Assassination",NA,NA,NA,NA,2,"Government (General)",18,"Government Personnel (excluding police, military)",NA,"Interiory Ministry Officials",202,"Tajikistan",NA,NA,NA,NA,NA,NA,NA,NA,NA,NA,NA,NA,NA,NA,NA,NA,"Unknown",NA,NA,NA,NA,NA,NA,0,NA,NA,0,NA,NA,NA,NA,NA,NA,NA,NA,NA,NA,NA,NA,5,"Firearms",5,"Unknown Gun Type",NA,NA,NA,NA,NA,NA,NA,NA,NA,NA,NA,NA,"Small caliber",4,NA,NA,0,NA,NA,0,NA,NA,NA,NA,0,NA,NA,NA,NA,NA,NA,0,NA,NA,NA,NA,NA,NA,NA,NA,NA,NA,NA,NA,"PGIS",-9,-9,0,-9,NA
"61753",199603080002,1996,3,8,NA,0,NA,202,"Tajikistan",7,"Central Asia",NA,"Konibodom",40.285252,70.430527,1,0,NA,NA,1,1,1,0,NA,NA,0,1,0,1,"Assassination",NA,NA,NA,NA,2,"Government (General)",15,"Politician or Political Party Movement/Meeting/Rally",NA,"Parliamentary Deputy",202,"Tajikistan",NA,NA,NA,NA,NA,NA,NA,NA,NA,NA,NA,NA,NA,NA,NA,NA,"Unknown",NA,NA,NA,NA,NA,NA,0,NA,NA,0,NA,NA,NA,NA,NA,NA,NA,NA,NA,NA,NA,NA,5,"Firearms",5,"Unknown Gun Type",NA,NA,NA,NA,NA,NA,NA,NA,NA,NA,NA,NA,"Small caliber",1,NA,NA,2,NA,NA,0,NA,NA,NA,NA,0,NA,NA,NA,NA,NA,NA,0,NA,NA,NA,NA,NA,NA,NA,NA,NA,NA,NA,NA,"PGIS",-9,-9,0,-9,NA
"61930",199603280005,1996,3,28,NA,0,NA,202,"Tajikistan",7,"Central Asia",NA,"Dushanbe",38.536667,68.78,1,0,NA,NA,1,1,1,0,NA,NA,0,1,0,1,"Assassination",NA,NA,NA,NA,10,"Journalists & Media",53,"Newspaper Journalist/Staff/Facility",NA,"Journalist",167,"Russia",NA,NA,NA,NA,NA,NA,NA,NA,NA,NA,NA,NA,NA,NA,NA,NA,"Unknown",NA,NA,NA,NA,NA,NA,0,NA,NA,0,NA,NA,NA,NA,NA,NA,NA,NA,NA,NA,NA,NA,5,"Firearms",5,"Unknown Gun Type",NA,NA,NA,NA,NA,NA,NA,NA,NA,NA,NA,NA,"Small caliber",1,NA,NA,0,NA,NA,0,NA,NA,NA,NA,0,NA,NA,NA,NA,NA,NA,0,NA,NA,NA,NA,NA,NA,NA,NA,NA,NA,NA,NA,"PGIS",-9,-9,1,1,NA
"62237",199605060005,1996,5,6,NA,0,NA,202,"Tajikistan",7,"Central Asia",NA,"Dushanbe",38.536667,68.78,1,0,NA,NA,1,1,1,0,NA,NA,0,1,0,1,"Assassination",NA,NA,NA,NA,8,"Educational Institution",50,"Other Personnel",NA,"Rector of Medical School",202,"Tajikistan",NA,NA,NA,NA,NA,NA,NA,NA,NA,NA,NA,NA,NA,NA,NA,NA,"Unknown",NA,NA,NA,NA,NA,NA,0,NA,NA,0,NA,NA,NA,NA,NA,NA,NA,NA,NA,NA,NA,NA,5,"Firearms",5,"Unknown Gun Type",NA,NA,NA,NA,NA,NA,NA,NA,NA,NA,NA,NA,"Small caliber",1,NA,NA,0,NA,NA,0,NA,NA,NA,NA,0,NA,NA,NA,NA,NA,NA,0,NA,NA,NA,NA,NA,NA,NA,NA,NA,NA,NA,NA,"PGIS",-9,-9,0,-9,NA
"62408",199605250003,1996,5,25,NA,0,NA,202,"Tajikistan",7,"Central Asia",NA,"Machiton",38.574907,68.967372,1,0,NA,NA,1,1,1,-9,NA,NA,0,1,0,2,"Armed Assault",NA,NA,NA,NA,3,"Police",25,"Police Security Forces/Officers",NA,"Police",202,"Tajikistan",NA,NA,NA,NA,NA,NA,NA,NA,NA,NA,NA,NA,NA,NA,NA,NA,"Unknown",NA,NA,NA,NA,NA,NA,0,NA,NA,0,NA,NA,NA,NA,NA,NA,NA,NA,NA,NA,NA,NA,5,"Firearms",5,"Unknown Gun Type",NA,NA,NA,NA,NA,NA,NA,NA,NA,NA,NA,NA,"Small caliber",8,NA,NA,5,NA,NA,1,NA,NA,NA,NA,0,NA,NA,NA,NA,NA,NA,0,NA,NA,NA,NA,NA,NA,NA,NA,NA,NA,NA,NA,"PGIS",-9,-9,0,-9,NA
"62602",199606180006,1996,6,18,NA,0,NA,202,"Tajikistan",7,"Central Asia",NA,"Dushanbe",38.536667,68.78,1,0,NA,NA,1,1,0,1,1,"Insurgency/Guerilla Action",0,1,0,2,"Armed Assault",NA,NA,NA,NA,4,"Military",35,"Military Transportation/Vehicle (excluding convoys)",NA,"Military Bus",202,"Tajikistan",NA,NA,NA,NA,NA,NA,NA,NA,NA,NA,NA,NA,NA,NA,NA,NA,"Unknown",NA,NA,NA,NA,NA,NA,0,NA,NA,0,NA,NA,NA,NA,NA,NA,NA,NA,NA,NA,NA,NA,5,"Firearms",5,"Unknown Gun Type",NA,NA,NA,NA,NA,NA,NA,NA,NA,NA,NA,NA,"Small caliber",0,NA,NA,8,NA,NA,1,NA,NA,NA,NA,0,NA,NA,NA,NA,NA,NA,0,NA,NA,NA,NA,NA,NA,NA,NA,NA,NA,NA,NA,"PGIS",-9,-9,0,-9,NA
"62785",199607190005,1996,7,19,NA,0,NA,202,"Tajikistan",7,"Central Asia",NA,"Dushanbe",38.536667,68.78,1,0,NA,NA,1,1,1,-9,NA,NA,0,1,0,1,"Assassination",NA,NA,NA,NA,14,"Private Citizens & Property",68,"Named Civilian","Tajik Academy of Science and Society for Relations","Chairman Muhammad Osimov",202,"Tajikistan",NA,NA,NA,NA,NA,NA,NA,NA,NA,NA,NA,NA,NA,NA,NA,NA,"Unknown",NA,NA,NA,NA,NA,NA,0,NA,NA,0,NA,NA,NA,NA,NA,NA,NA,NA,NA,NA,NA,NA,13,"Unknown",NA,NA,NA,NA,NA,NA,NA,NA,NA,NA,NA,NA,NA,NA,"Arms",1,NA,0,0,NA,0,0,NA,NA,NA,NA,0,NA,NA,NA,NA,NA,NA,0,NA,NA,NA,NA,NA,NA,NA,NA,NA,NA,NA,NA,"PGIS",-9,-9,0,-9,NA
"63042",199608150003,1996,8,15,NA,0,NA,202,"Tajikistan",7,"Central Asia",NA,"Dushanbe",38.536667,68.78,1,0,NA,NA,1,1,1,0,NA,NA,0,1,0,3,"Bombing/Explosion",NA,NA,NA,NA,1,"Business",2,"Restaurant/Bar/Caf",NA,"Cafe in City Center",202,"Tajikistan",NA,NA,NA,NA,NA,NA,NA,NA,NA,NA,NA,NA,NA,NA,NA,NA,"Unknown",NA,NA,NA,NA,NA,NA,0,NA,NA,0,NA,NA,NA,NA,NA,NA,NA,NA,NA,NA,NA,NA,6,"Explosives/Bombs/Dynamite",16,"Unknown Explosive Type",NA,NA,NA,NA,NA,NA,NA,NA,NA,NA,NA,NA,"Explosive",0,NA,NA,6,NA,NA,1,NA,NA,NA,NA,0,NA,NA,NA,NA,NA,NA,0,NA,NA,NA,NA,NA,NA,NA,NA,NA,NA,NA,NA,"PGIS",-9,-9,0,-9,NA
"63043",199608150004,1996,8,15,NA,0,NA,202,"Tajikistan",7,"Central Asia",NA,"Dushanbe",38.536667,68.78,1,0,NA,NA,1,1,0,1,1,"Insurgency/Guerilla Action",0,1,0,3,"Bombing/Explosion",NA,NA,NA,NA,4,"Military",35,"Military Transportation/Vehicle (excluding convoys)",NA,"Military Bus",167,"Russia",NA,NA,NA,NA,NA,NA,NA,NA,NA,NA,NA,NA,NA,NA,NA,NA,"Unknown",NA,NA,NA,NA,NA,NA,0,NA,NA,0,NA,NA,NA,NA,NA,NA,NA,NA,NA,NA,NA,NA,6,"Explosives/Bombs/Dynamite",16,"Unknown Explosive Type",NA,NA,NA,NA,NA,NA,NA,NA,NA,NA,NA,NA,"Explosive",1,NA,NA,2,NA,NA,1,NA,NA,NA,NA,0,NA,NA,NA,NA,NA,NA,0,NA,NA,NA,NA,NA,NA,NA,NA,NA,NA,NA,NA,"PGIS",-9,-9,1,1,NA
"63209",199609040005,1996,9,4,NA,0,NA,202,"Tajikistan",7,"Central Asia",NA,"Khorog",37.486729,71.549843,1,0,NA,NA,1,1,1,0,NA,NA,0,1,0,3,"Bombing/Explosion",NA,NA,NA,NA,2,"Government (General)",21,"Government Building/Facility/Office",NA,"Regional Admn Office Building",202,"Tajikistan",NA,NA,NA,NA,NA,NA,NA,NA,NA,NA,NA,NA,NA,NA,NA,NA,"Unknown",NA,NA,NA,NA,NA,NA,0,NA,NA,0,NA,NA,NA,NA,NA,NA,NA,NA,NA,NA,NA,NA,6,"Explosives/Bombs/Dynamite",16,"Unknown Explosive Type",NA,NA,NA,NA,NA,NA,NA,NA,NA,NA,NA,NA,"Explosive",0,NA,NA,0,NA,NA,1,NA,NA,NA,NA,0,NA,NA,NA,NA,NA,NA,0,NA,NA,NA,NA,NA,NA,NA,NA,NA,NA,NA,NA,"PGIS",-9,-9,0,-9,NA
"63255",199609090002,1996,9,9,NA,0,NA,202,"Tajikistan",7,"Central Asia",NA,"Dushanbe",38.536667,68.78,1,0,NA,NA,1,1,1,0,NA,NA,0,0,0,3,"Bombing/Explosion",NA,NA,NA,NA,14,"Private Citizens & Property",75,"Village/City/Town/Suburb",NA,"City Stadium",202,"Tajikistan",NA,NA,NA,NA,NA,NA,NA,NA,NA,NA,NA,NA,NA,NA,NA,NA,"Unknown",NA,NA,NA,NA,NA,NA,0,NA,NA,0,NA,NA,NA,NA,NA,NA,NA,NA,NA,NA,NA,NA,6,"Explosives/Bombs/Dynamite",16,"Unknown Explosive Type",NA,NA,NA,NA,NA,NA,NA,NA,NA,NA,NA,NA,"Explosive",0,NA,NA,0,NA,NA,1,NA,NA,NA,NA,0,NA,NA,NA,NA,NA,NA,0,NA,NA,NA,NA,NA,NA,NA,NA,NA,NA,NA,NA,"PGIS",-9,-9,0,-9,NA
"63911",199611200003,1996,11,20,NA,0,NA,202,"Tajikistan",7,"Central Asia",NA,"Dushanbe",38.536667,68.78,1,0,NA,NA,1,1,1,-9,NA,NA,0,1,0,2,"Armed Assault",NA,NA,NA,NA,19,"Transportation",99,"Bus (excluding tourists)",NA,"Bus",167,"Russia",NA,NA,NA,NA,NA,NA,NA,NA,NA,NA,NA,NA,NA,NA,NA,NA,"Unknown",NA,NA,NA,NA,NA,NA,0,NA,NA,0,NA,NA,NA,NA,NA,NA,NA,NA,NA,NA,NA,NA,5,"Firearms",5,"Unknown Gun Type",NA,NA,NA,NA,NA,NA,NA,NA,NA,NA,NA,NA,"Small caliber",0,NA,NA,2,NA,NA,1,NA,NA,NA,NA,0,NA,NA,NA,NA,NA,NA,0,NA,NA,NA,NA,NA,NA,NA,NA,NA,NA,NA,NA,"PGIS",-9,-9,1,1,NA
"63918",199611220001,1996,11,22,NA,0,NA,202,"Tajikistan",7,"Central Asia",NA,"Dushanbe",38.536667,68.78,1,0,NA,NA,1,1,1,-9,NA,NA,0,1,0,3,"Bombing/Explosion",NA,NA,NA,NA,19,"Transportation",99,"Bus (excluding tourists)",NA,"Bus transporting Russian Troops",167,"Russia",NA,NA,NA,NA,NA,NA,NA,NA,NA,NA,NA,NA,NA,NA,NA,NA,"Unknown",NA,NA,NA,NA,NA,NA,0,NA,NA,0,NA,NA,NA,NA,NA,NA,NA,NA,NA,NA,NA,NA,5,"Firearms",5,"Unknown Gun Type",6,"Explosives/Bombs/Dynamite",7,"Grenade",NA,NA,NA,NA,NA,NA,NA,NA,"Small caliber; Grenade",2,NA,NA,6,NA,NA,1,NA,NA,NA,NA,0,NA,NA,NA,NA,NA,NA,0,NA,NA,NA,NA,NA,NA,NA,NA,NA,NA,NA,NA,"PGIS",-9,-9,1,1,NA
"64028",199612040004,1996,12,4,NA,0,NA,202,"Tajikistan",7,"Central Asia",NA,"Ayni Air Base",38.511933,68.672556,1,0,NA,NA,1,1,0,1,1,"Insurgency/Guerilla Action",0,1,0,3,"Bombing/Explosion",NA,NA,NA,NA,4,"Military",27,"Military Barracks/Base/Headquarters/Checkpost",NA,"Air Force Supply Base",167,"Russia",NA,NA,NA,NA,NA,NA,NA,NA,NA,NA,NA,NA,NA,NA,NA,NA,"Unknown",NA,NA,NA,NA,NA,NA,0,NA,NA,0,NA,NA,NA,NA,NA,NA,NA,NA,NA,NA,NA,NA,6,"Explosives/Bombs/Dynamite",16,"Unknown Explosive Type",5,"Firearms",5,"Unknown Gun Type",NA,NA,NA,NA,NA,NA,NA,NA,"Explosive; Small caliber",0,NA,NA,0,NA,NA,1,NA,NA,NA,NA,0,NA,NA,NA,NA,NA,NA,0,NA,NA,NA,NA,NA,NA,NA,NA,NA,NA,NA,NA,"PGIS",-9,-9,1,1,NA
"64061",199612070005,1996,12,7,NA,1,35427,202,"Tajikistan",7,"Central Asia",NA,"Darvaz",38.46725,70.788556,1,0,NA,NA,1,1,1,-9,NA,NA,0,1,0,6,"Hostage Taking (Kidnapping)",NA,NA,NA,NA,1,"Business",10,"Mining","Gold and Mineral Extraction Ltd.","Workers",NA,NA,NA,NA,NA,NA,NA,NA,NA,NA,NA,NA,NA,NA,NA,NA,NA,NA,"Muslim Guerrillas",NA,NA,NA,NA,NA,NA,0,NA,NA,0,NA,NA,NA,NA,NA,NA,NA,NA,NA,NA,NA,NA,13,"Unknown",NA,NA,NA,NA,NA,NA,NA,NA,NA,NA,NA,NA,NA,NA,NA,0,NA,NA,0,NA,NA,0,NA,NA,NA,NA,1,4,0,0,21,NA,"Tajikistan",0,NA,NA,NA,NA,NA,NA,NA,NA,NA,NA,NA,NA,"PGIS",-9,-9,-9,-9,NA
"64097",199612100001,1996,12,10,NA,0,NA,202,"Tajikistan",7,"Central Asia",NA,"Dushanbe",38.536667,68.78,1,0,NA,NA,1,1,0,1,1,"Insurgency/Guerilla Action",0,1,0,1,"Assassination",NA,NA,NA,NA,4,"Military",34,"Military Personnel (soldiers, troops, officers, forces)",NA,"Military Serviceman",202,"Tajikistan",NA,NA,NA,NA,NA,NA,NA,NA,NA,NA,NA,NA,NA,NA,NA,NA,"Unknown",NA,NA,NA,NA,NA,NA,0,NA,NA,0,NA,NA,NA,NA,NA,NA,NA,NA,NA,NA,NA,NA,5,"Firearms",5,"Unknown Gun Type",NA,NA,NA,NA,NA,NA,NA,NA,NA,NA,NA,NA,"Small caliber",1,NA,NA,0,NA,NA,0,NA,NA,NA,NA,0,NA,NA,NA,NA,NA,NA,0,NA,NA,NA,NA,NA,NA,NA,NA,NA,NA,NA,NA,"PGIS",-9,-9,0,-9,NA
"64103",199612110004,1996,12,11,NA,0,NA,202,"Tajikistan",7,"Central Asia",NA,"Dushanbe",38.536667,68.78,1,0,NA,NA,1,1,0,1,1,"Insurgency/Guerilla Action",0,1,0,1,"Assassination",NA,NA,NA,NA,4,"Military",34,"Military Personnel (soldiers, troops, officers, forces)",NA,"Military Officer",202,"Tajikistan",NA,NA,NA,NA,NA,NA,NA,NA,NA,NA,NA,NA,NA,NA,NA,NA,"Unknown",NA,NA,NA,NA,NA,NA,0,NA,NA,0,NA,NA,NA,NA,NA,NA,NA,NA,NA,NA,NA,NA,5,"Firearms",5,"Unknown Gun Type",NA,NA,NA,NA,NA,NA,NA,NA,NA,NA,NA,NA,"Small caliber",1,NA,NA,0,NA,NA,0,NA,NA,NA,NA,0,NA,NA,NA,NA,NA,NA,0,NA,NA,NA,NA,NA,NA,NA,NA,NA,NA,NA,NA,"PGIS",-9,-9,0,-9,NA
"64112",199612120006,1996,12,12,NA,0,NA,202,"Tajikistan",7,"Central Asia",NA,"Dushanbe",38.536667,68.78,1,0,NA,NA,1,1,1,0,NA,NA,0,1,0,3,"Bombing/Explosion",NA,NA,NA,NA,14,"Private Citizens & Property",74,"Marketplace/Plaza/Square",NA,"City Center",202,"Tajikistan",NA,NA,NA,NA,NA,NA,NA,NA,NA,NA,NA,NA,NA,NA,NA,NA,"Unknown",NA,NA,NA,NA,NA,NA,0,NA,NA,0,NA,NA,NA,NA,NA,NA,NA,NA,NA,NA,NA,NA,6,"Explosives/Bombs/Dynamite",16,"Unknown Explosive Type",NA,NA,NA,NA,NA,NA,NA,NA,NA,NA,NA,NA,"Explosive",1,NA,NA,1,NA,NA,1,NA,NA,NA,NA,0,NA,NA,NA,NA,NA,NA,0,NA,NA,NA,NA,NA,NA,NA,NA,NA,NA,NA,NA,"PGIS",-9,-9,0,-9,NA
"64166",199612200004,1996,12,20,NA,1,35420,202,"Tajikistan",7,"Central Asia",NA,"Unknown",NA,NA,5,0,NA,NA,1,1,1,-9,NA,NA,0,1,0,5,"Hostage Taking (Barricade Incident)",NA,NA,NA,NA,7,"Government (Diplomatic)",47,"International Organization (peacekeeper, aid agency, compound)","UN","UN Personnel, Tajik Officials",422,"International",20,"Unknown",NA,NA,NA,NA,NA,NA,NA,NA,NA,NA,NA,NA,NA,NA,"Tajik Rebels",NA,NA,NA,NA,NA,NA,0,NA,NA,0,NA,NA,NA,NA,NA,NA,NA,NA,NA,NA,NA,NA,5,"Firearms",5,"Unknown Gun Type",NA,NA,NA,NA,NA,NA,NA,NA,NA,NA,NA,NA,"Small caliber",0,NA,NA,0,NA,NA,0,NA,NA,NA,NA,1,23,0,0,1,NA,"Tajikistan",0,NA,NA,NA,NA,NA,2,"Hostage(s) released by perpetrators",23,NA,NA,NA,NA,"PGIS",0,1,1,1,NA
"64243",199701020001,1997,1,2,NA,0,NA,202,"Tajikistan",7,"Central Asia",NA,"Dushanbe",38.536667,68.78,1,0,NA,NA,1,1,0,1,1,"Insurgency/Guerilla Action",0,1,0,2,"Armed Assault",NA,NA,NA,NA,4,"Military",34,"Military Personnel (soldiers, troops, officers, forces)",NA,"Russian Soldier",167,"Russia",NA,NA,NA,NA,NA,NA,NA,NA,NA,NA,NA,NA,NA,NA,NA,NA,"Unknown",NA,NA,NA,NA,NA,NA,0,NA,NA,0,NA,NA,NA,NA,NA,NA,NA,NA,NA,NA,NA,NA,5,"Firearms",5,"Unknown Gun Type",NA,NA,NA,NA,NA,NA,NA,NA,NA,NA,NA,NA,"Small caliber",1,NA,NA,0,NA,NA,0,NA,NA,NA,NA,0,NA,NA,NA,NA,NA,NA,0,NA,NA,NA,NA,NA,NA,NA,NA,NA,NA,NA,NA,"PGIS",-9,-9,1,1,NA
"64244",199701020002,1997,1,2,NA,0,NA,202,"Tajikistan",7,"Central Asia",NA,"Dushanbe",38.536667,68.78,1,0,NA,NA,1,1,0,1,1,"Insurgency/Guerilla Action",0,1,0,2,"Armed Assault",NA,NA,NA,NA,4,"Military",34,"Military Personnel (soldiers, troops, officers, forces)",NA,"Russian Military Personnel",167,"Russia",NA,NA,NA,NA,NA,NA,NA,NA,NA,NA,NA,NA,NA,NA,NA,NA,"Unknown",NA,NA,NA,NA,NA,NA,0,NA,NA,0,NA,NA,NA,NA,NA,NA,NA,NA,NA,NA,NA,NA,5,"Firearms",3,"Handgun",NA,NA,NA,NA,NA,NA,NA,NA,NA,NA,NA,NA,"Pistol",2,NA,NA,0,NA,NA,0,NA,NA,NA,NA,0,NA,NA,NA,NA,NA,NA,0,NA,NA,NA,NA,NA,NA,NA,NA,NA,NA,NA,NA,"PGIS",-9,-9,1,1,NA
"64261",199701040007,1997,1,4,NA,0,NA,202,"Tajikistan",7,"Central Asia",NA,"Dushanbe",38.536667,68.78,1,0,NA,NA,1,1,0,1,1,"Insurgency/Guerilla Action",1,1,0,2,"Armed Assault",NA,NA,NA,NA,4,"Military",34,"Military Personnel (soldiers, troops, officers, forces)",NA,"Tajik Military",202,"Tajikistan",NA,NA,NA,NA,NA,NA,NA,NA,NA,NA,NA,NA,NA,NA,NA,NA,"Unknown",NA,NA,NA,NA,NA,NA,0,NA,NA,0,NA,NA,NA,NA,NA,NA,NA,NA,NA,NA,NA,NA,5,"Firearms",5,"Unknown Gun Type",NA,NA,NA,NA,NA,NA,NA,NA,NA,NA,NA,NA,"Small caliber",1,NA,NA,0,NA,NA,0,NA,NA,NA,NA,0,NA,NA,NA,NA,NA,NA,0,NA,NA,NA,NA,NA,NA,NA,NA,NA,NA,NA,NA,"PGIS",-9,-9,0,-9,"199701040007, 199701040008"
"64262",199701040008,1997,1,4,NA,0,NA,202,"Tajikistan",7,"Central Asia",NA,"Dushanbe",38.536667,68.78,1,0,NA,NA,1,1,0,1,1,"Insurgency/Guerilla Action",1,1,0,2,"Armed Assault",NA,NA,NA,NA,4,"Military",34,"Military Personnel (soldiers, troops, officers, forces)",NA,"Tajik Military",202,"Tajikistan",NA,NA,NA,NA,NA,NA,NA,NA,NA,NA,NA,NA,NA,NA,NA,NA,"Unknown",NA,NA,NA,NA,NA,NA,0,NA,NA,0,NA,NA,NA,NA,NA,NA,NA,NA,NA,NA,NA,NA,5,"Firearms",5,"Unknown Gun Type",NA,NA,NA,NA,NA,NA,NA,NA,NA,NA,NA,NA,"Small caliber",1,NA,NA,0,NA,NA,0,NA,NA,NA,NA,0,NA,NA,NA,NA,NA,NA,0,NA,NA,NA,NA,NA,NA,NA,NA,NA,NA,NA,NA,"PGIS",-9,-9,0,-9,"199701040008, 199701040007"
"64263",199701040009,1997,1,4,NA,0,NA,202,"Tajikistan",7,"Central Asia",NA,"Dushanbe",38.536667,68.78,1,0,NA,NA,1,1,0,1,1,"Insurgency/Guerilla Action",0,1,0,3,"Bombing/Explosion",NA,NA,NA,NA,4,"Military",34,"Military Personnel (soldiers, troops, officers, forces)",NA,"Russian Military",167,"Russia",NA,NA,NA,NA,NA,NA,NA,NA,NA,NA,NA,NA,NA,NA,NA,NA,"Unknown",NA,NA,NA,NA,NA,NA,0,NA,NA,0,NA,NA,NA,NA,NA,NA,NA,NA,NA,NA,NA,NA,6,"Explosives/Bombs/Dynamite",15,"Vehicle",NA,NA,NA,NA,NA,NA,NA,NA,NA,NA,NA,NA,"Explosive",1,NA,NA,3,NA,NA,1,NA,NA,NA,NA,0,NA,NA,NA,NA,NA,NA,0,NA,NA,NA,NA,NA,NA,NA,NA,NA,NA,NA,NA,"PGIS",-9,-9,1,1,NA
"64378",199701180006,1997,1,18,NA,0,NA,202,"Tajikistan",7,"Central Asia",NA,"Dushanbe",38.536667,68.78,1,0,NA,NA,1,1,0,1,1,"Insurgency/Guerilla Action",0,1,0,2,"Armed Assault",NA,NA,NA,NA,4,"Military",34,"Military Personnel (soldiers, troops, officers, forces)",NA,"Russian Military",167,"Russia",NA,NA,NA,NA,NA,NA,NA,NA,NA,NA,NA,NA,NA,NA,NA,NA,"Unknown",NA,NA,NA,NA,NA,NA,0,NA,NA,0,NA,NA,NA,NA,NA,NA,NA,NA,NA,NA,NA,NA,5,"Firearms",3,"Handgun",NA,NA,NA,NA,NA,NA,NA,NA,NA,NA,NA,NA,"Pistol",1,NA,NA,0,NA,NA,0,NA,NA,NA,NA,0,NA,NA,NA,NA,NA,NA,0,NA,NA,NA,NA,NA,NA,NA,NA,NA,NA,NA,NA,"PGIS",-9,-9,1,1,NA
"64422",199701230001,1997,1,23,NA,0,NA,202,"Tajikistan",7,"Central Asia",NA,"Dushanbe",38.536667,68.78,1,0,NA,NA,1,1,1,-9,NA,NA,0,1,0,2,"Armed Assault",NA,NA,NA,NA,12,"NGO",62,"International NGO",NA,"Russians (Aid worker and family)",167,"Russia",NA,NA,NA,NA,NA,NA,NA,NA,NA,NA,NA,NA,NA,NA,NA,NA,"Unknown",NA,NA,NA,NA,NA,NA,0,NA,NA,0,NA,NA,NA,NA,NA,NA,NA,NA,NA,NA,NA,NA,5,"Firearms",5,"Unknown Gun Type",NA,NA,NA,NA,NA,NA,NA,NA,NA,NA,NA,NA,"Small caliber",3,NA,NA,0,NA,NA,0,NA,NA,NA,NA,0,NA,NA,NA,NA,NA,NA,0,NA,NA,NA,NA,NA,NA,NA,NA,NA,NA,NA,NA,"PGIS",-9,-9,1,1,NA
"64460",199701290003,1997,1,29,NA,0,NA,202,"Tajikistan",7,"Central Asia",NA,"Dushanbe",38.536667,68.78,1,0,NA,NA,1,1,0,1,1,"Insurgency/Guerilla Action",0,1,0,2,"Armed Assault",NA,NA,NA,NA,4,"Military",34,"Military Personnel (soldiers, troops, officers, forces)",NA,"Russian Soldiers",167,"Russia",NA,NA,NA,NA,NA,NA,NA,NA,NA,NA,NA,NA,NA,NA,NA,NA,"Unknown",NA,NA,NA,NA,NA,NA,0,NA,NA,0,NA,NA,NA,NA,NA,NA,NA,NA,NA,NA,NA,NA,5,"Firearms",3,"Handgun",NA,NA,NA,NA,NA,NA,NA,NA,NA,NA,NA,NA,"Pistol",1,NA,NA,1,NA,NA,0,NA,NA,NA,NA,0,NA,NA,NA,NA,NA,NA,0,NA,NA,NA,NA,NA,NA,NA,NA,NA,NA,NA,NA,"PGIS",-9,-9,1,1,NA
"64570",199702040006,1997,2,4,NA,0,NA,202,"Tajikistan",7,"Central Asia",NA,"Obigarm",38.71731,69.70885,1,1,NA,NA,1,1,1,0,NA,NA,0,1,0,6,"Hostage Taking (Kidnapping)",NA,NA,NA,NA,7,"Government (Diplomatic)",47,"International Organization (peacekeeper, aid agency, compound)","UN","Military observers",422,"International",NA,NA,NA,NA,NA,NA,NA,NA,NA,NA,NA,NA,NA,NA,NA,NA,"Unknown",NA,NA,NA,NA,NA,NA,0,NA,NA,0,NA,NA,NA,NA,NA,NA,NA,NA,NA,NA,NA,NA,5,"Firearms",5,"Unknown Gun Type",NA,NA,NA,NA,NA,NA,NA,NA,NA,NA,NA,NA,"Firearm",0,NA,NA,0,NA,NA,0,NA,NA,NA,NA,1,5,0,NA,NA,NA,"Tajikistan",0,NA,NA,NA,NA,NA,NA,NA,NA,NA,NA,NA,NA,"PGIS",-9,-9,1,1,NA
"64571",199702040007,1997,2,4,NA,1,35468,202,"Tajikistan",7,"Central Asia",NA,"Dushanbe",38.536667,68.78,1,0,NA,NA,1,1,1,-9,NA,NA,0,1,0,6,"Hostage Taking (Kidnapping)",NA,NA,NA,NA,10,"Journalists & Media",53,"Newspaper Journalist/Staff/Facility",NA,"Journalists",167,"Russia",NA,NA,NA,NA,NA,NA,NA,NA,NA,NA,NA,NA,NA,NA,NA,NA,"Unknown",NA,NA,NA,NA,NA,NA,0,NA,NA,0,NA,NA,NA,NA,NA,NA,NA,NA,NA,NA,NA,NA,13,"Unknown",NA,NA,NA,NA,NA,NA,NA,NA,NA,NA,NA,NA,NA,NA,NA,0,NA,NA,0,NA,NA,0,NA,NA,NA,NA,1,4,0,0,3,NA,"Tajikistan",0,NA,NA,NA,NA,NA,NA,NA,NA,NA,NA,NA,NA,"PGIS",-9,-9,1,1,NA
"64579",199702060004,1997,2,6,NA,0,NA,202,"Tajikistan",7,"Central Asia",NA,"Dushanbe",38.536667,68.78,1,0,NA,NA,1,1,1,-9,NA,NA,0,1,0,6,"Hostage Taking (Kidnapping)",NA,NA,NA,NA,7,"Government (Diplomatic)",47,"International Organization (peacekeeper, aid agency, compound)","UN","Aid Workers",422,"International",NA,NA,NA,NA,NA,NA,NA,NA,NA,NA,NA,NA,NA,NA,NA,NA,"Unknown",NA,NA,NA,NA,NA,NA,0,NA,NA,0,NA,NA,NA,NA,NA,NA,NA,NA,NA,NA,NA,NA,13,"Unknown",NA,NA,NA,NA,NA,NA,NA,NA,NA,NA,NA,NA,NA,NA,NA,0,NA,NA,0,NA,NA,0,NA,NA,NA,NA,1,4,0,NA,NA,NA,"Tajikistan",0,NA,NA,NA,NA,NA,NA,NA,NA,NA,NA,NA,NA,"PGIS",-9,-9,1,1,NA
"64666",199702180001,1997,2,18,NA,0,NA,202,"Tajikistan",7,"Central Asia",NA,"Dushanbe",38.536667,68.78,1,0,NA,NA,1,1,1,-9,NA,NA,0,1,0,2,"Armed Assault",NA,NA,NA,NA,3,"Police",25,"Police Security Forces/Officers",NA,"Police Officer",202,"Tajikistan",NA,NA,NA,NA,NA,NA,NA,NA,NA,NA,NA,NA,NA,NA,NA,NA,"Unknown",NA,NA,NA,NA,NA,NA,0,NA,NA,0,NA,NA,NA,NA,NA,NA,NA,NA,NA,NA,NA,NA,5,"Firearms",5,"Unknown Gun Type",NA,NA,NA,NA,NA,NA,NA,NA,NA,NA,NA,NA,"Small caliber",1,NA,NA,0,NA,NA,0,NA,NA,NA,NA,0,NA,NA,NA,NA,NA,NA,0,NA,NA,NA,NA,NA,NA,NA,NA,NA,NA,NA,NA,"PGIS",-9,-9,0,-9,NA
"64667",199702180002,1997,2,18,NA,0,NA,202,"Tajikistan",7,"Central Asia",NA,"Dushanbe",38.536667,68.78,1,0,NA,NA,1,1,0,1,1,"Insurgency/Guerilla Action",0,1,0,1,"Assassination",NA,NA,NA,NA,4,"Military",34,"Military Personnel (soldiers, troops, officers, forces)",NA,"Russian Military Lt Col",167,"Russia",NA,NA,NA,NA,NA,NA,NA,NA,NA,NA,NA,NA,NA,NA,NA,NA,"Unknown",NA,NA,NA,NA,NA,NA,0,NA,NA,0,NA,NA,NA,NA,NA,NA,NA,NA,NA,NA,NA,NA,5,"Firearms",5,"Unknown Gun Type",NA,NA,NA,NA,NA,NA,NA,NA,NA,NA,NA,NA,"Small caliber",1,NA,NA,0,NA,NA,0,NA,NA,NA,NA,0,NA,NA,NA,NA,NA,NA,0,NA,NA,NA,NA,NA,NA,NA,NA,NA,NA,NA,NA,"PGIS",-9,-9,1,1,NA
"64668",199702180003,1997,2,18,NA,0,NA,202,"Tajikistan",7,"Central Asia",NA,"Dushanbe",38.536667,68.78,1,0,NA,NA,1,1,1,-9,NA,NA,0,1,0,2,"Armed Assault",NA,NA,NA,NA,3,"Police",25,"Police Security Forces/Officers",NA,"Two US Embassy Guards",202,"Tajikistan",NA,NA,NA,NA,NA,NA,NA,NA,NA,NA,NA,NA,NA,NA,NA,NA,"Unknown",NA,NA,NA,NA,NA,NA,0,NA,NA,0,NA,NA,NA,NA,NA,NA,NA,NA,NA,NA,NA,NA,5,"Firearms",5,"Unknown Gun Type",NA,NA,NA,NA,NA,NA,NA,NA,NA,NA,NA,NA,"Small caliber",2,NA,NA,0,NA,NA,0,NA,NA,NA,NA,0,NA,NA,NA,NA,NA,NA,0,NA,NA,NA,NA,NA,NA,NA,NA,NA,NA,NA,NA,"PGIS",-9,-9,0,-9,NA
"64819",199703140004,1997,3,14,NA,0,NA,202,"Tajikistan",7,"Central Asia",NA,"Dushanbe",38.536667,68.78,1,0,NA,NA,1,1,0,1,1,"Insurgency/Guerilla Action",0,1,0,1,"Assassination",NA,NA,NA,NA,4,"Military",34,"Military Personnel (soldiers, troops, officers, forces)",NA,"Russian Soldier Lt Col.",167,"Russia",NA,NA,NA,NA,NA,NA,NA,NA,NA,NA,NA,NA,NA,NA,NA,NA,"Unknown",NA,NA,NA,NA,NA,NA,0,NA,NA,0,1,NA,NA,NA,NA,NA,NA,NA,NA,NA,NA,NA,5,"Firearms",3,"Handgun",NA,NA,NA,NA,NA,NA,NA,NA,NA,NA,NA,NA,"Pistol",1,NA,NA,0,NA,NA,0,NA,NA,NA,NA,0,NA,NA,NA,NA,NA,NA,0,NA,NA,NA,NA,NA,NA,NA,NA,NA,NA,NA,NA,"PGIS",-9,-9,1,1,NA
"65227",199704300009,1997,4,30,NA,0,NA,202,"Tajikistan",7,"Central Asia",NA,"Khujand",40.283333,69.633333,1,0,NA,NA,1,1,1,0,NA,NA,0,0,0,1,"Assassination",NA,NA,NA,NA,2,"Government (General)",17,"Head of State",NA,"Tajik President",202,"Tajikistan",NA,NA,NA,NA,NA,NA,NA,NA,NA,NA,NA,NA,NA,NA,NA,NA,"Unknown",NA,NA,NA,NA,NA,NA,0,NA,NA,0,NA,NA,NA,NA,NA,NA,NA,NA,NA,NA,NA,NA,6,"Explosives/Bombs/Dynamite",16,"Unknown Explosive Type",NA,NA,NA,NA,NA,NA,NA,NA,NA,NA,NA,NA,"Explosive",2,NA,NA,2,NA,NA,0,NA,NA,NA,NA,0,NA,NA,NA,NA,NA,NA,0,NA,NA,NA,NA,NA,NA,NA,NA,NA,NA,NA,NA,"PGIS",-9,-9,0,-9,NA
"65303",199705130004,1997,5,13,NA,0,NA,202,"Tajikistan",7,"Central Asia",NA,"Dushanbe",38.536667,68.78,1,0,NA,NA,1,1,0,1,1,"Insurgency/Guerilla Action",0,1,0,1,"Assassination",NA,NA,NA,NA,4,"Military",34,"Military Personnel (soldiers, troops, officers, forces)",NA,"Russian Military Officer",167,"Russia",NA,NA,NA,NA,NA,NA,NA,NA,NA,NA,NA,NA,NA,NA,NA,NA,"Unknown",NA,NA,NA,NA,NA,NA,0,NA,NA,0,1,NA,NA,NA,NA,NA,NA,NA,NA,NA,NA,NA,5,"Firearms",5,"Unknown Gun Type",NA,NA,NA,NA,NA,NA,NA,NA,NA,NA,NA,NA,"Small caliber",1,NA,NA,0,NA,NA,0,NA,NA,NA,NA,0,NA,NA,NA,NA,NA,NA,0,NA,NA,NA,NA,NA,NA,NA,NA,NA,NA,NA,NA,"PGIS",-9,-9,1,1,NA
"66067",199708010002,1997,8,1,NA,0,NA,202,"Tajikistan",7,"Central Asia",NA,"Daryeabad",38.514262,68.829861,1,0,NA,NA,1,1,1,-9,NA,NA,0,1,0,6,"Hostage Taking (Kidnapping)",NA,NA,NA,NA,14,"Private Citizens & Property",69,"Religion Identified","Muslim","Sons of chief cleric",202,"Tajikistan",NA,NA,NA,NA,NA,NA,NA,NA,NA,NA,NA,NA,NA,NA,NA,NA,"Unknown",NA,NA,NA,NA,NA,NA,0,NA,NA,0,20,NA,NA,NA,NA,NA,NA,NA,NA,NA,NA,NA,5,"Firearms",5,"Unknown Gun Type",NA,NA,NA,NA,NA,NA,NA,NA,NA,NA,NA,NA,"Firearm",0,NA,NA,0,NA,NA,0,NA,NA,NA,NA,1,3,0,NA,NA,NA,"Tajikistan",0,NA,NA,NA,NA,NA,NA,NA,NA,NA,NA,NA,NA,"PGIS",-9,-9,0,-9,NA
"66091",199708040004,1997,8,4,NA,0,NA,202,"Tajikistan",7,"Central Asia",NA,"Tursunzoda",38.50845,68.225098,1,0,NA,NA,1,1,1,0,NA,NA,0,1,0,3,"Bombing/Explosion",NA,NA,NA,NA,19,"Transportation",101,"Bus Station/Stop",NA,"Bus stop",202,"Tajikistan",NA,NA,NA,NA,NA,NA,NA,NA,NA,NA,NA,NA,NA,NA,NA,NA,"Unknown",NA,NA,NA,NA,NA,NA,0,NA,NA,0,NA,NA,NA,NA,NA,NA,NA,NA,NA,NA,NA,NA,6,"Explosives/Bombs/Dynamite",16,"Unknown Explosive Type",NA,NA,NA,NA,NA,NA,NA,NA,NA,NA,NA,NA,"Explosive",0,NA,NA,2,NA,NA,1,NA,NA,NA,NA,0,NA,NA,NA,NA,NA,NA,0,NA,NA,NA,NA,NA,NA,NA,NA,NA,NA,NA,NA,"PGIS",-9,-9,0,-9,NA
"66304",199708230005,1997,8,23,NA,0,NA,202,"Tajikistan",7,"Central Asia",NA,"Childara",38.78314,70.30417,1,0,NA,NA,1,1,1,-9,NA,NA,0,1,0,7,"Facility/Infrastructure Attack",NA,NA,NA,NA,7,"Government (Diplomatic)",47,"International Organization (peacekeeper, aid agency, compound)","UN","Helicopter",422,"International",NA,NA,NA,NA,NA,NA,NA,NA,NA,NA,NA,NA,NA,NA,NA,NA,"Unknown",NA,NA,NA,NA,NA,NA,0,NA,NA,0,NA,NA,NA,NA,NA,NA,NA,NA,NA,NA,NA,NA,5,"Firearms",5,"Unknown Gun Type",NA,NA,NA,NA,NA,NA,NA,NA,NA,NA,NA,NA,"Firearm",0,NA,NA,0,NA,NA,1,NA,NA,NA,NA,0,NA,NA,NA,NA,NA,NA,0,NA,NA,NA,NA,NA,NA,NA,NA,NA,NA,NA,NA,"PGIS",-9,-9,1,1,NA
"66387",199708290002,1997,8,29,NA,1,35675,202,"Tajikistan",7,"Central Asia",NA,"Daryeabad",38.514262,68.829861,1,0,NA,NA,1,1,1,0,NA,NA,0,1,0,6,"Hostage Taking (Kidnapping)",NA,NA,NA,NA,14,"Private Citizens & Property",69,"Religion Identified","Muslim","Mufti Amunullo Nigmatzoda and brother",202,"Tajikistan",NA,NA,NA,NA,NA,NA,NA,NA,NA,NA,NA,NA,NA,NA,NA,NA,"Rizvon Sadirov Group",NA,NA,NA,NA,NA,NA,0,NA,NA,0,NA,NA,NA,NA,NA,NA,NA,NA,NA,NA,NA,NA,5,"Firearms",5,"Unknown Gun Type",NA,NA,NA,NA,NA,NA,NA,NA,NA,NA,NA,NA,"Firearm",0,NA,NA,0,NA,NA,0,NA,NA,NA,NA,1,2,0,0,4,NA,"Tajikistan",0,NA,NA,NA,NA,NA,2,"Hostage(s) released by perpetrators",2,NA,NA,NA,NA,"PGIS",1,1,0,1,NA
"66445",199709050002,1997,9,5,NA,0,NA,202,"Tajikistan",7,"Central Asia",NA,"Dushanbe",38.536667,68.78,1,0,NA,NA,1,1,1,-9,NA,NA,0,1,0,3,"Bombing/Explosion",NA,NA,NA,NA,1,"Business",8,"Hotel/Resort","Vakhsh Hotel","Hotel",202,"Tajikistan",NA,NA,NA,NA,NA,NA,NA,NA,NA,NA,NA,NA,NA,NA,NA,NA,"Unknown",NA,NA,NA,NA,NA,NA,0,NA,NA,0,NA,NA,NA,NA,NA,NA,NA,NA,NA,NA,NA,NA,6,"Explosives/Bombs/Dynamite",16,"Unknown Explosive Type",NA,NA,NA,NA,NA,NA,NA,NA,NA,NA,NA,NA,"Explosive",0,NA,NA,0,NA,NA,1,NA,NA,NA,NA,0,NA,NA,NA,NA,NA,NA,0,NA,NA,NA,NA,NA,NA,NA,NA,NA,NA,NA,NA,"PGIS",-9,-9,0,-9,NA
"66496",199709100001,1997,9,10,NA,0,NA,202,"Tajikistan",7,"Central Asia",NA,"Dushanbe",38.536667,68.78,1,0,NA,NA,1,1,1,0,NA,NA,0,1,0,3,"Bombing/Explosion",NA,NA,NA,NA,20,"Unknown",NA,NA,NA,"Unk",202,"Tajikistan",NA,NA,NA,NA,NA,NA,NA,NA,NA,NA,NA,NA,NA,NA,NA,NA,"Unknown",NA,NA,NA,NA,NA,NA,0,NA,NA,0,NA,NA,NA,NA,NA,NA,NA,NA,NA,NA,NA,NA,6,"Explosives/Bombs/Dynamite",16,"Unknown Explosive Type",NA,NA,NA,NA,NA,NA,NA,NA,NA,NA,NA,NA,"Explosive",0,NA,NA,0,NA,NA,1,NA,NA,NA,NA,0,NA,NA,NA,NA,NA,NA,0,NA,NA,NA,NA,NA,NA,NA,NA,NA,NA,NA,NA,"PGIS",-9,-9,0,-9,NA
"66497",199709100002,1997,9,10,NA,0,NA,202,"Tajikistan",7,"Central Asia",NA,"Dushanbe",38.536667,68.78,1,0,NA,NA,1,1,1,0,NA,NA,0,1,0,3,"Bombing/Explosion",NA,NA,NA,NA,20,"Unknown",NA,NA,NA,"Unk",202,"Tajikistan",NA,NA,NA,NA,NA,NA,NA,NA,NA,NA,NA,NA,NA,NA,NA,NA,"Unknown",NA,NA,NA,NA,NA,NA,0,NA,NA,0,NA,NA,NA,NA,NA,NA,NA,NA,NA,NA,NA,NA,6,"Explosives/Bombs/Dynamite",16,"Unknown Explosive Type",NA,NA,NA,NA,NA,NA,NA,NA,NA,NA,NA,NA,"Explosive",0,NA,NA,0,NA,NA,1,NA,NA,NA,NA,0,NA,NA,NA,NA,NA,NA,0,NA,NA,NA,NA,NA,NA,NA,NA,NA,NA,NA,NA,"PGIS",-9,-9,0,-9,NA
"66498",199709100003,1997,9,10,NA,0,NA,202,"Tajikistan",7,"Central Asia",NA,"Dushanbe",38.536667,68.78,1,0,NA,NA,1,1,1,0,NA,NA,0,1,0,3,"Bombing/Explosion",NA,NA,NA,NA,20,"Unknown",NA,NA,NA,"Unk",202,"Tajikistan",NA,NA,NA,NA,NA,NA,NA,NA,NA,NA,NA,NA,NA,NA,NA,NA,"Unknown",NA,NA,NA,NA,NA,NA,0,NA,NA,0,NA,NA,NA,NA,NA,NA,NA,NA,NA,NA,NA,NA,6,"Explosives/Bombs/Dynamite",16,"Unknown Explosive Type",NA,NA,NA,NA,NA,NA,NA,NA,NA,NA,NA,NA,"Explosive",0,NA,NA,0,NA,NA,1,NA,NA,NA,NA,0,NA,NA,NA,NA,NA,NA,0,NA,NA,NA,NA,NA,NA,NA,NA,NA,NA,NA,NA,"PGIS",-9,-9,0,-9,NA
"66499",199709100004,1997,9,10,NA,0,NA,202,"Tajikistan",7,"Central Asia",NA,"Dushanbe",38.536667,68.78,1,0,NA,NA,1,1,1,0,NA,NA,0,1,0,3,"Bombing/Explosion",NA,NA,NA,NA,20,"Unknown",NA,NA,NA,"Unk",202,"Tajikistan",NA,NA,NA,NA,NA,NA,NA,NA,NA,NA,NA,NA,NA,NA,NA,NA,"Unknown",NA,NA,NA,NA,NA,NA,0,NA,NA,0,NA,NA,NA,NA,NA,NA,NA,NA,NA,NA,NA,NA,6,"Explosives/Bombs/Dynamite",16,"Unknown Explosive Type",NA,NA,NA,NA,NA,NA,NA,NA,NA,NA,NA,NA,"Explosive",0,NA,NA,0,NA,NA,1,NA,NA,NA,NA,0,NA,NA,NA,NA,NA,NA,0,NA,NA,NA,NA,NA,NA,NA,NA,NA,NA,NA,NA,"PGIS",-9,-9,0,-9,NA
"66523",199709120003,1997,9,12,NA,0,NA,202,"Tajikistan",7,"Central Asia",NA,"Dushanbe",38.536667,68.78,1,0,NA,NA,1,1,1,0,NA,NA,0,1,0,3,"Bombing/Explosion",NA,NA,NA,NA,14,"Private Citizens & Property",74,"Marketplace/Plaza/Square",NA,"Marketplace",202,"Tajikistan",NA,NA,NA,NA,NA,NA,NA,NA,NA,NA,NA,NA,NA,NA,NA,NA,"Unknown",NA,NA,NA,NA,NA,NA,0,NA,NA,0,NA,NA,NA,NA,NA,NA,NA,NA,NA,NA,NA,NA,6,"Explosives/Bombs/Dynamite",16,"Unknown Explosive Type",NA,NA,NA,NA,NA,NA,NA,NA,NA,NA,NA,NA,"Explosive",0,NA,NA,16,NA,NA,1,NA,NA,NA,NA,0,NA,NA,NA,NA,NA,NA,0,NA,NA,NA,NA,NA,NA,NA,NA,NA,NA,NA,NA,"PGIS",-9,-9,0,-9,NA
"66579",199709190003,1997,9,19,NA,0,NA,202,"Tajikistan",7,"Central Asia",NA,"Dushanbe",38.536667,68.78,1,0,NA,NA,1,1,1,-9,NA,NA,0,1,0,3,"Bombing/Explosion",NA,NA,NA,NA,1,"Business",7,"Retail/Grocery/Bakery",NA,"Department store",202,"Tajikistan",NA,NA,NA,NA,NA,NA,NA,NA,NA,NA,NA,NA,NA,NA,NA,NA,"Unknown",NA,NA,NA,NA,NA,NA,0,NA,NA,0,NA,NA,NA,NA,NA,NA,NA,NA,NA,NA,NA,NA,6,"Explosives/Bombs/Dynamite",16,"Unknown Explosive Type",NA,NA,NA,NA,NA,NA,NA,NA,NA,NA,NA,NA,"Explosive",0,NA,NA,2,NA,NA,1,NA,NA,NA,NA,0,NA,NA,NA,NA,NA,NA,0,NA,NA,NA,NA,NA,NA,NA,NA,NA,NA,NA,NA,"PGIS",-9,-9,0,-9,NA
"66638",199709250007,1997,9,25,NA,0,NA,202,"Tajikistan",7,"Central Asia",NA,"Dushanbe",38.536667,68.78,1,0,NA,NA,1,1,1,0,NA,NA,0,1,0,3,"Bombing/Explosion",NA,NA,NA,NA,10,"Journalists & Media",53,"Newspaper Journalist/Staff/Facility","Khovar state news agency","Offices",202,"Tajikistan",NA,NA,NA,NA,NA,NA,NA,NA,NA,NA,NA,NA,NA,NA,NA,NA,"Unknown",NA,NA,NA,NA,NA,NA,0,NA,NA,0,NA,NA,NA,NA,NA,NA,NA,NA,NA,NA,NA,NA,6,"Explosives/Bombs/Dynamite",16,"Unknown Explosive Type",NA,NA,NA,NA,NA,NA,NA,NA,NA,NA,NA,NA,"Explosive",0,NA,NA,3,NA,NA,1,NA,NA,NA,NA,0,NA,NA,NA,NA,NA,NA,0,NA,NA,NA,NA,NA,NA,NA,NA,NA,NA,NA,NA,"PGIS",-9,-9,0,-9,NA
"66641",199709260001,1997,9,26,NA,0,NA,202,"Tajikistan",7,"Central Asia",NA,"Dushanbe",38.536667,68.78,1,0,NA,NA,1,1,1,-9,NA,NA,0,1,0,2,"Armed Assault",NA,NA,NA,NA,2,"Government (General)",18,"Government Personnel (excluding police, military)",NA,"Son of Procurator General",202,"Tajikistan",NA,NA,NA,NA,NA,NA,NA,NA,NA,NA,NA,NA,NA,NA,NA,NA,"Unknown",NA,NA,NA,NA,NA,NA,0,NA,NA,0,NA,NA,NA,NA,NA,NA,NA,NA,NA,NA,NA,NA,5,"Firearms",5,"Unknown Gun Type",NA,NA,NA,NA,NA,NA,NA,NA,NA,NA,NA,NA,"Firearm",1,NA,NA,1,NA,NA,1,NA,NA,NA,NA,0,NA,NA,NA,NA,NA,NA,0,NA,NA,NA,NA,NA,NA,NA,NA,NA,NA,NA,NA,"PGIS",-9,-9,0,-9,NA
"66685",199710020006,1997,10,2,NA,0,NA,202,"Tajikistan",7,"Central Asia",NA,"Dushanbe",38.536667,68.78,1,0,NA,NA,1,1,1,-9,NA,NA,0,1,0,6,"Hostage Taking (Kidnapping)",NA,NA,NA,NA,1,"Business",5,"Industrial/Textiles/Factory",NA,"Factory mgr and son",202,"Tajikistan",NA,NA,NA,NA,NA,NA,NA,NA,NA,NA,NA,NA,NA,NA,NA,NA,"Unknown",NA,NA,NA,NA,NA,NA,0,NA,NA,0,NA,NA,NA,NA,NA,NA,NA,NA,NA,NA,NA,NA,5,"Firearms",5,"Unknown Gun Type",NA,NA,NA,NA,NA,NA,NA,NA,NA,NA,NA,NA,"Firearm",0,NA,NA,0,NA,NA,0,NA,NA,NA,NA,1,2,0,NA,NA,NA,"Tajikistan",0,NA,NA,NA,NA,NA,NA,NA,NA,NA,NA,NA,NA,"PGIS",-9,-9,0,-9,NA
"66718",199710060002,1997,10,6,NA,0,NA,202,"Tajikistan",7,"Central Asia",NA,"Dushanbe",38.536667,68.78,1,0,NA,NA,1,1,1,-9,NA,NA,0,1,0,3,"Bombing/Explosion",NA,NA,NA,NA,1,"Business",7,"Retail/Grocery/Bakery",NA,"Shop",202,"Tajikistan",NA,NA,NA,NA,NA,NA,NA,NA,NA,NA,NA,NA,NA,NA,NA,NA,"Unknown",NA,NA,NA,NA,NA,NA,0,NA,NA,0,NA,NA,NA,NA,NA,NA,NA,NA,NA,NA,NA,NA,6,"Explosives/Bombs/Dynamite",16,"Unknown Explosive Type",NA,NA,NA,NA,NA,NA,NA,NA,NA,NA,NA,NA,"Explosive",0,NA,NA,4,NA,NA,1,NA,NA,NA,NA,0,NA,NA,NA,NA,NA,NA,0,NA,NA,NA,NA,NA,NA,NA,NA,NA,NA,NA,NA,"PGIS",-9,-9,0,-9,NA
"66790",199710160001,1997,10,16,NA,0,NA,202,"Tajikistan",7,"Central Asia",NA,"Dushanbe",38.536667,68.78,1,0,NA,NA,1,1,1,0,NA,NA,0,1,0,2,"Armed Assault",NA,NA,NA,NA,3,"Police",22,"Police Building (headquarters, station, school)","Govt","HQ of Presidential Guard",202,"Tajikistan",NA,NA,NA,NA,NA,NA,NA,NA,NA,NA,NA,NA,NA,NA,NA,NA,"Unknown",NA,NA,NA,NA,NA,NA,0,NA,NA,0,80,NA,NA,NA,NA,NA,NA,NA,NA,NA,NA,NA,5,"Firearms",5,"Unknown Gun Type",NA,NA,NA,NA,NA,NA,NA,NA,NA,NA,NA,NA,"Firearm",18,NA,NA,0,NA,NA,1,NA,NA,NA,NA,0,NA,NA,NA,NA,NA,NA,0,NA,NA,NA,NA,NA,NA,NA,NA,NA,NA,NA,NA,"PGIS",-9,-9,0,-9,NA
"66808",199710180007,1997,10,18,NA,0,NA,202,"Tajikistan",7,"Central Asia",NA,"Dushanbe",38.536667,68.78,1,0,NA,NA,1,1,1,-9,NA,NA,0,0,0,3,"Bombing/Explosion",NA,NA,NA,NA,1,"Business",7,"Retail/Grocery/Bakery",NA,"Dept. Store",202,"Tajikistan",NA,NA,NA,NA,NA,NA,NA,NA,NA,NA,NA,NA,NA,NA,NA,NA,"Unknown",NA,NA,NA,NA,NA,NA,0,NA,NA,0,NA,NA,NA,NA,NA,NA,NA,NA,NA,NA,NA,NA,6,"Explosives/Bombs/Dynamite",9,"Letter Bomb",NA,NA,NA,NA,NA,NA,NA,NA,NA,NA,NA,NA,"Package bomb",0,NA,NA,0,NA,NA,1,NA,NA,NA,NA,0,NA,NA,NA,NA,NA,NA,0,NA,NA,NA,NA,NA,NA,NA,NA,NA,NA,NA,NA,"PGIS",-9,-9,0,-9,NA
"66889",199710240003,1997,10,24,NA,0,NA,202,"Tajikistan",7,"Central Asia",NA,"Dushanbe",38.536667,68.78,1,0,NA,NA,1,1,1,0,NA,NA,0,1,0,3,"Bombing/Explosion",NA,NA,NA,NA,20,"Unknown",NA,NA,NA,"Unk",202,"Tajikistan",NA,NA,NA,NA,NA,NA,NA,NA,NA,NA,NA,NA,NA,NA,NA,NA,"Unknown",NA,NA,NA,NA,NA,NA,0,NA,NA,0,NA,NA,NA,NA,NA,NA,NA,NA,NA,NA,NA,NA,6,"Explosives/Bombs/Dynamite",15,"Vehicle",NA,NA,NA,NA,NA,NA,NA,NA,NA,NA,NA,NA,"Car bomb",0,NA,NA,1,NA,NA,1,NA,NA,NA,NA,0,NA,NA,NA,NA,NA,NA,0,NA,NA,NA,NA,NA,NA,NA,NA,NA,NA,NA,NA,"PGIS",-9,-9,0,-9,NA
"66912",199710270004,1997,10,27,NA,0,NA,202,"Tajikistan",7,"Central Asia",NA,"Uzbek border",NA,NA,5,0,NA,NA,1,1,0,1,1,"Insurgency/Guerilla Action",0,1,0,2,"Armed Assault",NA,NA,NA,NA,4,"Military",27,"Military Barracks/Base/Headquarters/Checkpost","Govt","Army outpost",202,"Tajikistan",NA,NA,NA,NA,NA,NA,NA,NA,NA,NA,NA,NA,NA,NA,NA,NA,"Unknown",NA,NA,NA,NA,NA,NA,0,NA,NA,0,NA,NA,NA,NA,NA,NA,NA,NA,NA,NA,NA,NA,5,"Firearms",5,"Unknown Gun Type",NA,NA,NA,NA,NA,NA,NA,NA,NA,NA,NA,NA,"Firearm",2,NA,NA,9,NA,NA,1,NA,NA,NA,NA,0,NA,NA,NA,NA,NA,NA,0,NA,NA,NA,NA,NA,NA,NA,NA,NA,NA,NA,NA,"PGIS",-9,-9,0,-9,NA
"67015",199711110004,1997,11,11,NA,0,NA,202,"Tajikistan",7,"Central Asia",NA,"Dushanbe",38.536667,68.78,1,0,NA,NA,1,1,1,0,NA,NA,0,1,0,3,"Bombing/Explosion",NA,NA,NA,NA,21,"Utilities",107,"Electricity",NA,"Electrical junction box",202,"Tajikistan",NA,NA,NA,NA,NA,NA,NA,NA,NA,NA,NA,NA,NA,NA,NA,NA,"Unknown",NA,NA,NA,NA,NA,NA,0,NA,NA,0,NA,NA,NA,NA,NA,NA,NA,NA,NA,NA,NA,NA,6,"Explosives/Bombs/Dynamite",16,"Unknown Explosive Type",NA,NA,NA,NA,NA,NA,NA,NA,NA,NA,NA,NA,"Explosive",0,NA,NA,0,NA,NA,1,NA,NA,NA,NA,0,NA,NA,NA,NA,NA,NA,0,NA,NA,NA,NA,NA,NA,NA,NA,NA,NA,NA,NA,"PGIS",-9,-9,0,-9,NA
"67076",199711180002,1997,11,18,NA,1,35764,202,"Tajikistan",7,"Central Asia",NA,"Dushanbe",38.536667,68.78,1,0,NA,NA,1,1,1,0,NA,NA,0,1,0,6,"Hostage Taking (Kidnapping)",NA,NA,NA,NA,7,"Government (Diplomatic)",47,"International Organization (peacekeeper, aid agency, compound)","EU/UN","Frank and Kareen M. Dubry",69,"France",NA,NA,NA,NA,NA,NA,NA,NA,NA,NA,NA,NA,NA,NA,NA,NA,"Rizvon Sadirov Group",NA,NA,NA,NA,NA,NA,0,NA,NA,0,NA,NA,NA,NA,NA,NA,NA,NA,NA,NA,NA,NA,13,"Unknown",NA,NA,NA,NA,NA,NA,NA,NA,NA,NA,NA,NA,NA,NA,NA,1,NA,NA,0,NA,NA,0,NA,NA,NA,NA,1,2,0,0,12,NA,"Tajikistan",0,NA,NA,NA,NA,NA,2,"Hostage(s) released by perpetrators",2,NA,NA,NA,NA,"PGIS",1,1,1,1,NA
"67249",199712090008,1997,12,9,NA,0,NA,202,"Tajikistan",7,"Central Asia",NA,"Moskovskiy",37.624484,69.645288,1,0,NA,NA,1,1,1,-9,NA,NA,0,1,0,2,"Armed Assault",NA,NA,NA,NA,3,"Police",22,"Police Building (headquarters, station, school)","Govt","Border Post",202,"Tajikistan",NA,NA,NA,NA,NA,NA,NA,NA,NA,NA,NA,NA,NA,NA,NA,NA,"Unknown",NA,NA,NA,NA,NA,NA,0,NA,NA,0,NA,NA,NA,NA,NA,NA,NA,NA,NA,NA,NA,NA,5,"Firearms",5,"Unknown Gun Type",NA,NA,NA,NA,NA,NA,NA,NA,NA,NA,NA,NA,"Firearm",1,NA,0,0,NA,0,1,NA,NA,NA,NA,0,NA,NA,NA,NA,NA,NA,0,NA,NA,NA,NA,NA,NA,NA,NA,NA,NA,NA,NA,"PGIS",-9,-9,0,-9,NA
"67385",199712270004,1997,12,27,NA,0,NA,202,"Tajikistan",7,"Central Asia",NA,"Dushanbe",38.536667,68.78,1,0,NA,NA,1,1,1,-9,NA,NA,0,1,0,2,"Armed Assault",NA,NA,NA,NA,3,"Police",25,"Police Security Forces/Officers","Govt","Border guard officer",202,"Tajikistan",NA,NA,NA,NA,NA,NA,NA,NA,NA,NA,NA,NA,NA,NA,NA,NA,"Unknown",NA,NA,NA,NA,NA,NA,0,NA,NA,0,NA,NA,NA,NA,NA,NA,NA,NA,NA,NA,NA,NA,5,"Firearms",5,"Unknown Gun Type",NA,NA,NA,NA,NA,NA,NA,NA,NA,NA,NA,NA,"Firearm",1,NA,NA,0,NA,NA,0,NA,NA,NA,NA,0,NA,NA,NA,NA,NA,NA,0,NA,NA,NA,NA,NA,NA,NA,NA,NA,NA,NA,NA,"PGIS",-9,-9,0,-9,NA
"67665",199803250001,1998,3,25,NA,1,35884,202,"Tajikistan",7,"Central Asia","Karotegin (Province)","Kofarnikhon",38.553056,69.019722,1,0,NA,"03/25/1998: Tajik opposition forces killed 20 soldiers and took 110 hostage in an attack on a battalion of Interior Ministry troops in Kofarnikhon, Tajikistan. Ninety of the hostages were freed on March 30, 1998. The fate of the remaining 20 was not disclosed in reports.",1,1,1,1,1,"Insurgency/Guerilla Action",0,1,0,2,"Armed Assault",6,"Hostage Taking (Kidnapping)",NA,NA,4,"Military",34,"Military Personnel (soldiers, troops, officers, forces)","Tajikistan Military","Tajikistan Interior Ministry troops in Kofarnikhon, Tajikistan",202,"Tajikistan",NA,NA,NA,NA,NA,NA,NA,NA,NA,NA,NA,NA,NA,NA,NA,NA,"Unknown",NA,NA,NA,NA,NA,"Unknown",0,NA,NA,0,NA,0,0,NA,NA,NA,NA,NA,NA,NA,NA,NA,5,"Firearms",5,"Unknown Gun Type",NA,NA,NA,NA,NA,NA,NA,NA,NA,NA,NA,NA,NA,20,0,0,NA,0,NA,1,3,"Minor (likely < $1 million)",NA,NA,1,110,0,NA,5,NA,NA,0,NA,NA,NA,NA,NA,6,"Combination",90,NA,"Sergei Yakovlev, Tajik rebels kill 20 troops, capture 180, AAP, March 25, 1998.","20 government soldiers killed, 50 captured in opposition attack near capital, AAP, March 26, 1998.","Opposition forces release most captive government troops in Tajikistan, The Associated Press Worldstream,  March 31, 1998.","CETIS",-9,-9,0,-9,NA
"67887",199807200004,1998,7,20,NA,0,NA,202,"Tajikistan",7,"Central Asia","Districts of Republican Subordination","Tavildara",38.779525,70.097949,3,1,"This incident occurred between Tavildara and Labidzhar.","07/20/1998: Unknown individuals attacked and killed four United Nations observers as they traveled to Labidzhar in Tajikistan.",1,1,1,0,NA,NA,0,1,0,2,"Armed Assault",NA,NA,NA,NA,7,"Government (Diplomatic)",47,"International Organization (peacekeeper, aid agency, compound)","United Nations","United Nations Observers",999,"Multinational",NA,NA,NA,NA,NA,NA,NA,NA,NA,NA,NA,NA,NA,NA,NA,NA,"Unknown",NA,NA,NA,NA,NA,"Unknown",0,NA,NA,0,NA,NA,0,NA,NA,NA,NA,NA,NA,NA,NA,NA,8,"Incendiary",18,"Arson/Fire",NA,NA,NA,NA,NA,NA,NA,NA,NA,NA,NA,NA,NA,4,0,0,0,0,0,0,NA,NA,NA,NA,0,NA,NA,NA,NA,NA,NA,NA,NA,NA,NA,NA,NA,NA,NA,NA,NA,"Konstantin Yelovsky, Moscow Says Murder of UN Officials Act of Terror, ITAR-TASS, July 23, 1998.","Government Warns Against Travel to Tajikistan, Tokyo Kyodo, July 24, 1998.","Russia Condemns Gangsterism of UN Murders in Tajikistan,  Interfax, July 23, 1998.","CETIS",-9,-9,1,1,NA
"68062",199808270001,1998,8,27,NA,0,NA,202,"Tajikistan",7,"Central Asia","Kulyabskaya (Oblast)","Tursunzoda",38.50845,68.225098,1,0,NA,"08/27/1998: Nurullo Khayrulloyev, Mayor of the Tajik town of Tursunzoda, died from the wounds he received in an armed attack on the town administration building. One guard was killed and another three were wounded in the attack, which was carried out by an unidentified group of armed men.",1,1,1,0,NA,NA,0,1,0,2,"Armed Assault",NA,NA,NA,NA,2,"Government (General)",21,"Government Building/Facility/Office","Government Building","Administration Building in Tursunzoda, Tajikistan",202,"Tajikistan",NA,NA,NA,NA,NA,NA,NA,NA,NA,NA,NA,NA,NA,NA,NA,NA,"Unknown",NA,NA,NA,NA,NA,"Unknown",0,NA,NA,0,NA,0,0,NA,NA,NA,NA,NA,NA,NA,NA,NA,5,"Firearms",5,"Unknown Gun Type",NA,NA,NA,NA,NA,NA,NA,NA,NA,NA,NA,NA,NA,2,0,0,3,0,0,1,3,"Minor (likely < $1 million)",NA,NA,0,NA,NA,NA,NA,NA,NA,NA,NA,NA,NA,NA,NA,NA,NA,NA,NA,"Tajikistan: Mayor Dies After Armed Attack, ITAR-TASS World Service, August 27, 1998.",NA,NA,"CETIS",-9,-9,0,-9,NA
"68070",199809030002,1998,9,3,NA,0,NA,202,"Tajikistan",7,"Central Asia","Unknown","Moskva",NA,NA,5,1,"This incident occurred 150 miles from Dushanbe.","09/03/1998: Two border guards were killed in an attack on the Moskva section of the Tajik-Afghan border. The guards, belonging to a Moscow-based unit, were stationed about 150 miles from Dushanbe. They were attacked from three sides by unidentified assailants armed with automatic weapons. There were no reported injuries in this incident.",1,1,1,0,NA,NA,0,1,0,2,"Armed Assault",NA,NA,NA,NA,4,"Military",29,"Military Unit/Patrol/Convoy","Russian Military","Russian Border Guards along the Tajik-Afghan border",167,"Russia",NA,NA,NA,NA,NA,NA,NA,NA,NA,NA,NA,NA,NA,NA,NA,NA,"Unknown",NA,NA,NA,NA,NA,"Unknown",0,NA,NA,0,NA,0,0,NA,NA,NA,NA,NA,NA,NA,NA,NA,5,"Firearms",5,"Unknown Gun Type",NA,NA,NA,NA,NA,NA,NA,NA,NA,NA,NA,NA,NA,2,0,0,0,0,0,0,NA,NA,NA,NA,0,NA,NA,NA,NA,NA,NA,NA,NA,NA,NA,NA,NA,NA,NA,NA,NA,"Two Border Guards Killed on Tajik-Afghan Border, Moscow Russian Television  Network, September 3, 1998.","""Two border guards killed, BBC Summary of World Broadcasts, September 5, 1998.","Two Russian border guards killed on Afghan border, Agence France Presse,  September 3, 1998.","CETIS",-9,-9,1,1,NA
"68189",199810150001,1998,10,15,NA,0,NA,202,"Tajikistan",7,"Central Asia","Dushanbe (Capital City)","Dushanbe",38.536667,68.78,1,0,NA,"10/15/1998: A homemade device exploded in the courtyard of a compound housing the Commission for National Reconciliation in Dushanbe, Tajikistan. The force of the explosion was estimated as equivalent to 1 kg of TNT. There were no casualties, but the blast knocked out the windows on the ground and first floors of nearby buildings. The perpetrators of this incident were unknown.",1,1,1,0,NA,NA,1,1,0,3,"Bombing/Explosion",NA,NA,NA,NA,2,"Government (General)",21,"Government Building/Facility/Office","Commission for National Reconciliation","Commission for National Reconciliation Administrative Buildings in Dushanbe, Tajikistan",202,"Tajikistan",NA,NA,NA,NA,NA,NA,NA,NA,NA,NA,NA,NA,NA,NA,NA,NA,"Unknown",NA,NA,NA,NA,NA,"Unknown",0,NA,NA,0,NA,0,0,NA,NA,NA,NA,NA,NA,NA,NA,NA,6,"Explosives/Bombs/Dynamite",17,"Other Explosive Type",NA,NA,NA,NA,NA,NA,NA,NA,NA,NA,NA,NA,"The force of the homemade bomb was estimated to be the equivalent of 1 kg of TNT.",0,0,0,0,0,0,1,3,"Minor (likely < $1 million)",NA,"The blast knocked out the windows on the ground and first floors of nearby buildings.",0,NA,NA,NA,NA,NA,NA,NA,NA,NA,NA,NA,NA,NA,NA,NA,NA,"""Dushanbe Hit by 3 Bomb Blasts, One at Commission Building, ITAR-TASS, October 15, 1998.",NA,NA,"CETIS",-9,-9,0,-9,"199810150001, 199810150002, 199810150003"
"68190",199810150002,1998,10,15,NA,0,NA,202,"Tajikistan",7,"Central Asia","Dushanbe (Capital City)","Dushanbe",38.536667,68.78,1,0,NA,"10/15/1998: A homemade device exploded in a residential area of Dushanbe, Tajikistan. Another bomb exploded nearby 30 minutes after this attack. There were no casualties, but the area sustained minor damage. The perpetrators of this incident were unknown.",1,1,1,0,NA,NA,1,1,0,3,"Bombing/Explosion",NA,NA,NA,NA,14,"Private Citizens & Property",67,"Unnamed Civilian/Unspecified","Civilians","Residents of Dushanbe, Tajikistan",202,"Tajikistan",NA,NA,NA,NA,NA,NA,NA,NA,NA,NA,NA,NA,NA,NA,NA,NA,"Unknown",NA,NA,NA,NA,NA,"Unknown",0,NA,NA,0,NA,0,0,NA,NA,NA,NA,NA,NA,NA,NA,NA,6,"Explosives/Bombs/Dynamite",16,"Unknown Explosive Type",NA,NA,NA,NA,NA,NA,NA,NA,NA,NA,NA,NA,NA,0,0,0,0,0,0,1,3,"Minor (likely < $1 million)",NA,NA,0,NA,NA,NA,NA,NA,NA,NA,NA,NA,NA,NA,NA,NA,NA,NA,NA,"""Dushanbe Hit by 3 Bomb Blasts, One at Commission Building, ITAR-TASS, October 15, 1998.",NA,NA,"CETIS",-9,-9,0,-9,"199810150002, 199810150001, 199810150003"
"68191",199810150003,1998,10,15,NA,0,NA,202,"Tajikistan",7,"Central Asia","Dushanbe (Capital City)","Dushanbe",38.536667,68.78,1,0,NA,"10/15/1998: A homemade device exploded in a residential area of Dushanbe, Tajikistan. Another bomb exploded nearby 30 minutes prior to this attack. There were no casualties, but the area sustained minor damage. The perpetrators of this incident were unknown.",1,1,1,0,NA,NA,1,1,0,3,"Bombing/Explosion",NA,NA,NA,NA,14,"Private Citizens & Property",67,"Unnamed Civilian/Unspecified","Civilians","Residents of Dushanbe, Tajikistan",202,"Tajikistan",NA,NA,NA,NA,NA,NA,NA,NA,NA,NA,NA,NA,NA,NA,NA,NA,"Unknown",NA,NA,NA,NA,NA,"Unknown",0,NA,NA,0,NA,0,0,NA,NA,NA,NA,NA,NA,NA,NA,NA,6,"Explosives/Bombs/Dynamite",16,"Unknown Explosive Type",NA,NA,NA,NA,NA,NA,NA,NA,NA,NA,NA,NA,NA,0,0,0,0,0,0,1,3,"Minor (likely < $1 million)",NA,NA,0,NA,NA,NA,NA,NA,NA,NA,NA,NA,NA,NA,NA,NA,NA,NA,NA,"""Dushanbe Hit by 3 Bomb Blasts, One at Commission Building, ITAR-TASS, October 15, 1998.",NA,NA,"CETIS",-9,-9,0,-9,"199810150003, 199810150001, 199810150002"
"68253",199811020004,1998,11,2,NA,0,NA,202,"Tajikistan",7,"Central Asia","Khatlon (Province)","Kurgan-Tyube",37.836165,68.779826,1,0,NA,"11/02/1998: A bomb exploded near the building housing the Interior Ministry Department in Kurgan-Tyube, Tajikistan. A driver working for the prosecutor's office was killed when the bomb was detonated. Several vehicles of the department were also damaged by the blast. No one claimed responsibility for the attack.",1,1,1,0,NA,NA,1,1,0,3,"Bombing/Explosion",NA,NA,NA,NA,2,"Government (General)",21,"Government Building/Facility/Office","Tajikistan Interior Ministry","Interior Ministry Department in Tajikistan",202,"Tajikistan",NA,NA,NA,NA,NA,NA,NA,NA,NA,NA,NA,NA,NA,NA,NA,NA,"Unknown",NA,NA,NA,NA,NA,"Unknown",0,NA,NA,0,NA,0,0,NA,NA,NA,NA,NA,NA,NA,NA,NA,6,"Explosives/Bombs/Dynamite",16,"Unknown Explosive Type",NA,NA,NA,NA,NA,NA,NA,NA,NA,NA,NA,NA,NA,1,0,0,0,0,0,1,3,"Minor (likely < $1 million)",NA,"Several Interior Ministry vehicles were damaged.",0,NA,NA,NA,NA,NA,NA,NA,NA,NA,NA,NA,NA,NA,NA,NA,NA,"Tajik Minister Says Explosions Terrorist attacks, Interfax, November 2, 1998.","Terrorist Attacks in Tajik Region Linked to Khudoyberdiyev, Dushanbe Asia-Plus, November 2, 1998.",NA,"CETIS",-9,-9,0,-9,"199811020004, 199811020005, 199811020006"
"68254",199811020005,1998,11,2,NA,0,NA,202,"Tajikistan",7,"Central Asia","Khatlon (Province)","Kurgan-Tyube",37.836165,68.779826,1,0,NA,"11/02/1998: A bomb exploded near a wall of the police station armory in Kurgan-Tyube, Tajikistan. There were no casualties, but the station sustained significant damage. No one claimed responsibility for the attack.",1,1,1,0,NA,NA,1,1,0,3,"Bombing/Explosion",NA,NA,NA,NA,3,"Police",22,"Police Building (headquarters, station, school)","Tajikistan Police","Police station armory in Kurgan-Tyube",202,"Tajikistan",NA,NA,NA,NA,NA,NA,NA,NA,NA,NA,NA,NA,NA,NA,NA,NA,"Unknown",NA,NA,NA,NA,NA,"Unknown",0,NA,NA,0,NA,0,0,NA,NA,NA,NA,NA,NA,NA,NA,NA,6,"Explosives/Bombs/Dynamite",16,"Unknown Explosive Type",NA,NA,NA,NA,NA,NA,NA,NA,NA,NA,NA,NA,NA,0,0,0,0,0,0,1,3,"Minor (likely < $1 million)",NA,NA,0,NA,NA,NA,NA,NA,NA,NA,NA,NA,NA,NA,NA,NA,NA,NA,NA,"Tajik Minister Says Explosions Terrorist attacks, Interfax, November 2, 1998.","Terrorist Attacks in Tajik Region Linked to Khudoyberdiyev, Dushanbe Asia-Plus, November 2, 1998.",NA,"CETIS",-9,-9,0,-9,"199811020005, 199811020004, 199811020006"
"68255",199811020006,1998,11,2,NA,0,NA,202,"Tajikistan",7,"Central Asia","Khatlon (Province)","Kurgan-Tyube",37.836165,68.779826,1,0,NA,"11/02/1998: A bomb exploded between the civil registrars office and a small market in Kurgan-Tyube, Tajikistan causing considerable damage, but resulting in no casualties. No one claimed responsibility for the attack. Officials believe that the registrar office was the intended target.",1,1,1,0,NA,NA,1,1,0,3,"Bombing/Explosion",NA,NA,NA,NA,2,"Government (General)",21,"Government Building/Facility/Office","Civil Registrars Office","Civil registrars office in Kurgan-Tyube, Tajikistan",202,"Tajikistan",NA,NA,NA,NA,NA,NA,NA,NA,NA,NA,NA,NA,NA,NA,NA,NA,"Unknown",NA,NA,NA,NA,NA,"Unknown",0,NA,NA,0,NA,0,0,NA,NA,NA,NA,NA,NA,NA,NA,NA,6,"Explosives/Bombs/Dynamite",16,"Unknown Explosive Type",NA,NA,NA,NA,NA,NA,NA,NA,NA,NA,NA,NA,NA,0,0,0,0,0,0,1,3,"Minor (likely < $1 million)",NA,NA,0,NA,NA,NA,NA,NA,NA,NA,NA,NA,NA,NA,NA,NA,NA,NA,NA,"Tajik Minister Says Explosions Terrorist attacks, Interfax, November 2, 1998.","Terrorist Attacks in Tajik Region Linked to Khudoyberdiyev, Dushanbe Asia-Plus, November 2, 1998.",NA,"CETIS",-9,-9,0,-9,"199811020006, 199811020004, 199811020005"
"68258",199811050001,1998,11,5,NA,0,NA,202,"Tajikistan",7,"Central Asia","Dushanbe (Capital City)","Ayni",39.391504,68.53818,1,0,NA,"11/05/1998: Rebels loyal to the former Colonel Mahmud Khudoyberdiyev blew up the largest bridge on the strategic road linking Dushanbe with the northern districts of Tajikistan. No further information was provided on this attack.",1,1,1,0,NA,NA,0,1,0,3,"Bombing/Explosion",NA,NA,NA,NA,19,"Transportation",103,"Bridge/Car Tunnel","Road Infrastructure","Highway bridge on a road linking Dushanbe with the northern districts of Tajikistan",202,"Tajikistan",NA,NA,NA,NA,NA,NA,NA,NA,NA,NA,NA,NA,NA,NA,NA,NA,"Supporters of Colonel Mahmud Khudoyberdiyev",NA,NA,NA,NA,NA,"Unknown",0,NA,NA,0,NA,0,0,NA,NA,NA,NA,NA,NA,NA,NA,NA,6,"Explosives/Bombs/Dynamite",16,"Unknown Explosive Type",NA,NA,NA,NA,NA,NA,NA,NA,NA,NA,NA,NA,NA,0,0,0,0,0,0,1,NA,NA,NA,NA,0,NA,NA,NA,NA,NA,NA,NA,NA,NA,NA,NA,NA,NA,NA,NA,NA,"Tajik Rebels Blew up Major Highway Bridge, ITAR-TASS World Service, November 5, 1998.",NA,NA,"CETIS",0,0,0,0,NA
"68759",199904270003,1999,4,27,NA,1,NA,202,"Tajikistan",7,"Central Asia","Khatlon","Yovon (District)",38.3144,69.046753,3,0,NA,"04/27/1999: Six policemen were taken hostage by an unidentified armed group after an attack on their police station in the Yavan District of Tajikistan, sixty kilometers south-east of Dushanbe.",1,1,1,0,NA,NA,0,1,0,6,"Hostage Taking (Kidnapping)",2,"Armed Assault",NA,NA,3,"Police",22,"Police Building (headquarters, station, school)","Tajikistan Police","A police station in Yavan District",202,"Tajikistan",NA,NA,NA,NA,NA,NA,NA,NA,NA,NA,NA,NA,NA,NA,NA,NA,"Unknown",NA,NA,NA,NA,NA,"Unknown",0,NA,NA,0,NA,0,0,NA,NA,NA,NA,NA,NA,NA,NA,NA,5,"Firearms",5,"Unknown Gun Type",NA,NA,NA,NA,NA,NA,NA,NA,NA,NA,NA,NA,NA,0,0,0,0,0,0,0,NA,NA,NA,NA,1,6,0,NA,-99,NA,NA,0,NA,NA,NA,NA,NA,7,"Unknown",NA,NA,"Galina Gridneva and Valeriy Zhukov, Armed Group Takes Six Policemen Hostage in Tajikistan., ITAR-TASS World Service, April 28, 1999.",NA,NA,"CETIS",-9,-9,0,-9,NA
"69344",199909130001,1999,9,13,NA,0,NA,202,"Tajikistan",7,"Central Asia","Dushanbe (Capital City)","Dushanbe",38.536667,68.78,1,0,NA,"09/13/1999: An unidentified man used grenades to attack a police station in Dushanbe, Tajikistan. Police immediately killed the attacker. There were no other casualties and the station sustained only minor damage.",1,1,1,0,NA,NA,0,1,0,3,"Bombing/Explosion",NA,NA,NA,NA,3,"Police",22,"Police Building (headquarters, station, school)","Tajikistan Police","Police Station in Dushanbe, Tajikistan",202,"Tajikistan",NA,NA,NA,NA,NA,NA,NA,NA,NA,NA,NA,NA,NA,NA,NA,NA,"Unknown",NA,NA,NA,NA,NA,"Unknown",0,NA,NA,0,1,0,0,NA,NA,NA,NA,NA,NA,NA,NA,NA,6,"Explosives/Bombs/Dynamite",7,"Grenade",NA,NA,NA,NA,NA,NA,NA,NA,NA,NA,NA,NA,NA,1,0,1,0,0,0,1,3,"Minor (likely < $1 million)",NA,NA,0,NA,NA,NA,NA,NA,NA,NA,NA,NA,NA,NA,NA,NA,NA,NA,NA,"""Armed Attacker Killed at Dushanbe Police Station,"" Asia-Plus, September 14, 1999.",NA,NA,"CETIS",-9,-9,0,-9,NA
"69501",199910180001,1999,10,18,NA,0,NA,202,"Tajikistan",7,"Central Asia","Dushanbe (Capital City)","Dushanbe",38.536667,68.78,1,0,NA,"10/18/1999: At approximately 5:00 pm local time, three people were slightly injured when a bomb exploded on the second floor of a market in central Dushanbe, Tajikistan, just 150 meters (500 feet) from the Presidential Palace. Minor damage was reported in this incident. It was not known who carried out the attack and police did not rule out the possibility that this was ""a settling of scores between rival gangs.""",0,1,1,1,2,"Other Crime Type",0,1,0,3,"Bombing/Explosion",NA,NA,NA,NA,14,"Private Citizens & Property",74,"Marketplace/Plaza/Square",NA,"A market in central Dushanbe",202,"Tajikistan",NA,NA,NA,NA,NA,NA,NA,NA,NA,NA,NA,NA,NA,NA,NA,NA,"Unknown",NA,NA,NA,NA,NA,"Unknown",0,NA,NA,0,NA,0,0,NA,NA,NA,NA,NA,NA,NA,NA,NA,6,"Explosives/Bombs/Dynamite",16,"Unknown Explosive Type",NA,NA,NA,NA,NA,NA,NA,NA,NA,NA,NA,NA,NA,0,0,0,3,0,0,1,3,"Minor (likely < $1 million)",NA,NA,0,NA,NA,NA,NA,NA,NA,NA,NA,NA,NA,NA,NA,NA,NA,NA,NA,"""Bomb Explosion in Central Dushanbe Injures Three, Agence France Presse, October 18, 1999.",NA,NA,"CETIS",-9,-9,0,-9,NA
"69694",199911290002,1999,11,29,NA,0,NA,202,"Tajikistan",7,"Central Asia","Dushanbe (Capital City)","Dushanbe",38.536667,68.78,1,0,NA,"11/29/2006: A person was killed and two were injured in an ambush on a minibus taxi in Dushanbe, Tajikistan. The taxi was carrying two civilians, a border patrol colonel, and Captain Ubaydulo Gulomov from the Tajikistan Organized Crime Directorate. The three attackers hid in trees and escaped after an exchange of fire. Government officials stated that Captain Gulomov was the target and that the assailants were seeking to destabilize the social and political situation in Dushanbe prior to upcoming parliamentary elections.",1,1,1,0,NA,NA,0,1,0,1,"Assassination",NA,NA,NA,NA,2,"Government (General)",18,"Government Personnel (excluding police, military)","Government Official","Captain Ubaydulo Gulomov from the Tajikistan Organized Crime Directorate",202,"Tajikistan",14,"Private Citizens & Property",67,"Unnamed Civilian/Unspecified","Civilians","Taxi passengers with Captain Gulomov in Tajikisan",202,"Tajikistan",NA,NA,NA,NA,NA,NA,NA,NA,"Unknown",NA,NA,NA,NA,NA,"To kill a select law enforcement official and destabilize the social and political situation in Dushanbe prior to upcoming parliamentary elections.",0,NA,NA,0,3,0,0,NA,NA,NA,NA,NA,NA,NA,NA,NA,5,"Firearms",5,"Unknown Gun Type",NA,NA,NA,NA,NA,NA,NA,NA,NA,NA,NA,NA,NA,1,0,0,3,0,1,1,3,"Minor (likely < $1 million)",NA,"The taxi was riddled with bullets.",0,NA,NA,NA,NA,NA,NA,NA,NA,NA,NA,NA,NA,NA,NA,NA,"Reports did not specify whether the attack was intended specifically for Captain Gulomov or his companion as well, Border Guard Colonel Gennadiy Polinotsyn, although they strongly emphasize Gulomov's position as motivation for the attack.","Tajikistan: Internal Affairs Officer Shot Dead, Russian Public Television First Channel Network, 11/29/1999.","Gunmen Kill Taxi Passengers In Dushanbe, ITAR-TASS (Moscow), 11/29/1999.",NA,"CETIS",-9,-9,0,-9,NA
"69990",200002160002,2000,2,16,NA,0,NA,202,"Tajikistan",7,"Central Asia","Dushanbe (Capital City)","Dushanbe",38.536667,68.78,1,0,NA,"02/16/2000: Tajik Deputy Minister Shamsullo Dzhabirov was killed by a car bomb. Makhamadsaid Ubaidullayev, the mayor of Dushanbe, Tajikistan's capital city, was injured by the blast as well. No group claimed responsibility for the bombing, but it was suspected that an Islamic anti-government group was behind the attack and that the mayor of Dushanbe was the intended target.",1,1,1,0,NA,NA,0,1,0,3,"Bombing/Explosion",NA,NA,NA,NA,2,"Government (General)",18,"Government Personnel (excluding police, military)","Government Official","Shamsullo Dzabirov, Tajikistan's Deputy Security Minister",202,"Tajikistan",2,"Government (General)",15,"Politician or Political Party Movement/Meeting/Rally","Mayor of Dushanbe","Makhmadsaid Ubaidullayev, the Mayor of Dushanbe",202,"Tajikistan",NA,NA,NA,NA,NA,NA,NA,NA,"Unknown",NA,NA,NA,NA,NA,"To destabilize the country before parlimentary election.",0,NA,NA,0,2,2,0,NA,NA,NA,NA,NA,NA,NA,NA,NA,6,"Explosives/Bombs/Dynamite",15,"Vehicle",NA,NA,NA,NA,NA,NA,NA,NA,NA,NA,NA,NA,NA,1,0,0,1,0,0,0,NA,NA,NA,NA,0,NA,NA,NA,NA,NA,NA,NA,NA,NA,NA,NA,NA,NA,NA,NA,NA,"Gridneva, Galina and Zhukov, Valery, ""Tajik president condemns Dushanbe mayor car bomb blast,"" ITAR-TASS News Agency, February 16, 2000.","""Two Tajiks on trial for bomb attack which killed vice minister,"" Agence France Presse, March 26, 2001.",NA,"CETIS",-9,-9,0,-9,NA
"70241",200004240003,2000,4,24,NA,1,NA,202,"Tajikistan",7,"Central Asia","Khatlon","Qurghonteppa",28.291564,-16.62913,4,0,NA,"04/24/2000: Unidentified armed Afghans broke into a residence in the Khatlon Oblast of Tajikistan and opened fire, killing one person and injuring another. A third person was also kidnapped. No group claimed credit for this incident and there was no information on the fate of the hostage.",1,1,1,1,2,"Other Crime Type",0,1,0,2,"Armed Assault",6,"Hostage Taking (Kidnapping)",NA,NA,14,"Private Citizens & Property",71,"Race/Ethnicity Identified","Civilians","Tajik Citizens",202,"Tajikistan",NA,NA,NA,NA,NA,NA,NA,NA,NA,NA,NA,NA,NA,NA,NA,NA,"Unknown",NA,NA,NA,NA,NA,"Unknown",0,NA,NA,0,NA,0,0,NA,NA,NA,NA,NA,NA,NA,NA,NA,5,"Firearms",5,"Unknown Gun Type",NA,NA,NA,NA,NA,NA,NA,NA,NA,NA,NA,NA,NA,1,0,0,1,0,0,-9,NA,NA,NA,NA,1,1,0,NA,-99,NA,NA,0,NA,NA,NA,NA,NA,7,"Unknown",-99,NA,"Edward F. Mickolus, Terrorism, 1996-2001 : A Chronology, Imprint Westport, CT: Greenwood Press, 2002.",NA,NA,"CETIS",-9,-9,0,-9,NA
"70330",200005200005,2000,5,20,NA,0,NA,202,"Tajikistan",7,"Central Asia","Unknown","Unknown",NA,NA,5,0,"Tajikistan, a former Soviet republic","5/20/2000: Saifullo Rakhimov, the chairman of state-run radio and television, was shot and killed near his home in Tajikistan.  Six gunmen dressed in camouflage blocked his car and then opened fire.  Rakhimov's driver was critically wounded in the attack.  No group has claimed responsibility and authorities believe the attack was a ""contracted terrorist act"".",1,1,1,0,NA,NA,0,1,0,1,"Assassination",NA,NA,NA,NA,10,"Journalists & Media",54,"Radio Journalist/Staff/Facility","State media","Saifullo Rakhimov, the chairman of state-run radio and television",202,"Tajikistan",14,"Private Citizens & Property",77,"Laborer (General)/Occupation Identified","Civilian","The driver of Saifullo Rakhimov, the chairman of state-run radio and television",202,"Tajikistan",NA,NA,NA,NA,NA,NA,NA,NA,"Gunmen",NA,NA,NA,NA,NA,"Unknown",0,NA,NA,0,6,0,0,NA,NA,NA,NA,NA,NA,NA,NA,NA,5,"Firearms",2,"Automatic Weapon",NA,NA,NA,NA,NA,NA,NA,NA,NA,NA,NA,NA,"A submachine gun",1,0,0,1,0,0,0,NA,NA,NA,NA,0,NA,NA,NA,NA,NA,NA,NA,NA,NA,NA,NA,NA,NA,NA,NA,"One source states that a submachine gun was used while a second source states that the victim was shot with a hand pistol.","""Chief of Tajikistan state television and radio slain,"" Associated Press, May 21, 2000.","""Tajikistan killing,"" Broadcast News, May 21, 2000.","Galina Gridneva, ""Murder of Tajik journalist thought ordered,"" ITAR-TASS News Agency, May 22, 2000.","UMD Schmid 2012",-9,-9,0,-9,NA
"70641",200007160012,2000,7,16,NA,0,NA,202,"Tajikistan",7,"Central Asia","Dushanbe (Capital City)","Dushanbe",38.536667,68.78,1,0,NA,"07/16/2000: A bomb targeting a European Union vehicle exploded in Dushanbe, Tajikistan, killing one person and injuring four others. The vehicle had markings indicating that it was property of the European Community Humanitarian Aid department (ECHO). The perpetrators of this incident were not known.",1,1,1,0,NA,NA,0,1,0,3,"Bombing/Explosion",NA,NA,NA,NA,12,"NGO",62,"International NGO","European Community Humanitarian Aid department (ECHO)","ECHO vehicle",999,"Multinational",NA,NA,NA,NA,NA,NA,NA,NA,NA,NA,NA,NA,NA,NA,NA,NA,"Unknown",NA,NA,NA,NA,NA,"Unknown",0,NA,NA,0,NA,0,0,NA,NA,NA,NA,NA,NA,NA,NA,NA,6,"Explosives/Bombs/Dynamite",14,"Time Fuse",NA,NA,NA,NA,NA,NA,NA,NA,NA,NA,NA,NA,NA,1,0,0,4,0,0,1,3,"Minor (likely < $1 million)",NA,NA,0,NA,NA,NA,NA,NA,NA,NA,NA,NA,NA,NA,NA,NA,NA,NA,NA,"Edward F. Mickolus, Terrorism, 1996-2001 : A Chronology, Imprint Westport, CT: Greenwood Press, 2002.",NA,NA,"CETIS",-9,-9,1,1,NA
"71068",200010010004,2000,10,1,NA,0,NA,202,"Tajikistan",7,"Central Asia","Dushanbe (Capital City)","Dushanbe",38.536667,68.78,1,0,NA,"10/01/2000: Unidentified militants set off two bombs in a Christian church in Dushanbe, Tajikistan. The explosion killed seven people and injured 70.",1,1,1,0,NA,NA,0,1,0,3,"Bombing/Explosion",NA,NA,NA,NA,15,"Religious Figures/Institutions",86,"Place of Worship","Christian Church","Christian Church in Dushanbe",202,"Tajikistan",NA,NA,NA,NA,NA,NA,NA,NA,NA,NA,NA,NA,NA,NA,NA,NA,"Unknown",NA,NA,NA,NA,NA,"Unknown",0,NA,NA,0,NA,0,0,NA,NA,NA,NA,NA,NA,NA,NA,NA,6,"Explosives/Bombs/Dynamite",16,"Unknown Explosive Type",NA,NA,NA,NA,NA,NA,NA,NA,NA,NA,NA,NA,NA,7,0,0,70,0,0,1,3,"Minor (likely < $1 million)",NA,NA,0,NA,NA,NA,NA,NA,NA,NA,NA,NA,NA,NA,NA,NA,NA,NA,NA,"Edward F. Mickolus, Terrorism, 1996-2001 : A Chronology, Imprint Westport, CT: Greenwood Press, 2002.",NA,NA,"CETIS",-9,-9,0,-9,NA
"71097",200010110001,2000,10,11,NA,1,NA,202,"Tajikistan",7,"Central Asia","Dushanbe (Capital City)","Dushanbe",38.536667,68.78,1,0,NA,"10/11/2000: The Chief of Personal Guards and the driver of Tajik First Vice-premier, Khodzhikbar Turadzhonzoda, were kidnapped by unknown gunmen. The two men were kidnapped in the area of the Shokhmansur market place in the center of Dushanbe, Tajikistan.",1,1,1,0,NA,NA,0,1,0,6,"Hostage Taking (Kidnapping)",NA,NA,NA,NA,2,"Government (General)",18,"Government Personnel (excluding police, military)","Tajik Government Staff","Chief of Personal Guards",202,"Tajikistan",2,"Government (General)",18,"Government Personnel (excluding police, military)","Tajikistan Government Staff","The driver of the Tajik First Vice-premier, Khodzhikbar Turadzhonzoda",202,"Tajikistan",NA,NA,NA,NA,NA,NA,NA,NA,"Unknown",NA,NA,NA,NA,NA,"Unknown",0,NA,NA,0,NA,NA,0,NA,NA,NA,NA,NA,NA,NA,NA,NA,5,"Firearms",5,"Unknown Gun Type",NA,NA,NA,NA,NA,NA,NA,NA,NA,NA,NA,NA,NA,0,0,0,0,0,0,0,NA,NA,NA,NA,1,2,0,NA,-99,NA,NA,0,NA,NA,NA,NA,NA,7,"Unknown",-99,NA,"""Chief guard and driver of Tajik vice-premier kidnapped,"" Nezavisimaya Gazeta, October 12, 2000.","""Abduction of Tajik Vice Premier's Staff May Be Another Attempt To Intimidate Him,"" ITAR-TASS, October 12, 2000.",NA,"CETIS",-9,-9,0,-9,NA
"71880",200103010003,2001,3,1,NA,0,NA,202,"Tajikistan",7,"Central Asia","Kofarnihon (District)","Kofarnikhon",38.553056,69.019722,1,0,NA,"03/01/2001: Three people opened fire on the car of Kofarnihons administration chief, Ismaildzhon Gulov, seriously wounding his bodyguard. The attack took place in Kofarnihon, Tajikistan, and no group claimed responsibility",1,1,1,1,2,"Other Crime Type",0,1,0,2,"Armed Assault",NA,NA,NA,NA,2,"Government (General)",18,"Government Personnel (excluding police, military)","Administration Chief","Ismaildzhon Gulov, Kofarnihon's Administration Chief",202,"Tajikistan",NA,NA,NA,NA,NA,NA,NA,NA,NA,NA,NA,NA,NA,NA,NA,NA,"Unknown",NA,NA,NA,NA,NA,"Unknown",0,NA,NA,0,3,0,0,NA,NA,NA,NA,NA,NA,NA,NA,NA,5,"Firearms",5,"Unknown Gun Type",NA,NA,NA,NA,NA,NA,NA,NA,NA,NA,NA,NA,NA,0,0,0,1,0,0,0,NA,NA,NA,NA,0,NA,NA,NA,NA,NA,NA,NA,NA,NA,NA,NA,NA,NA,NA,NA,NA,"""Tajik Local Administration Official Survives Attempt on His Life, Interfax, March 01, 2001.",NA,NA,"CETIS",-9,-9,0,-9,NA
"72069",200104050002,2001,4,5,NA,0,NA,202,"Tajikistan",7,"Central Asia","Unknown","Dushanbe",38.536667,68.78,1,0,"The first floor of the Sadbarg shopping center in Dushanbe","04/05/2001: Two people were killed and at least 10 were wounded when an bomb containing approximately 400 grams of TNT explosive detonated in the Sadbarg shopping center in Dushanbe, Tajikistan around 4pm.  The bomb's detonation ignited a canister of natural gas in the mall, causing a serious fire and damage to the mall when all the windows were blown out.  Sources note that many of the individuals in the mall at the time were Afghans, selling various items in stores.  No group claimed responsibility for the attack.",1,1,1,0,NA,NA,0,1,0,3,"Bombing/Explosion",NA,NA,NA,NA,1,"Business",7,"Retail/Grocery/Bakery","Sadbarg shopping center","Vendors and shoppers in the Sadbarg shopping center",202,"Tajikistan",NA,NA,NA,NA,NA,NA,NA,NA,NA,NA,NA,NA,NA,NA,NA,NA,"Unknown",NA,NA,NA,NA,NA,"Although the specific motive was unknown, sources detail the ongoing violence in the area due to ongoing political upheaval and the transportation of drugs and weapons into Tajikistan from Afghanistan.",0,NA,NA,0,-99,0,0,NA,NA,NA,NA,NA,NA,NA,NA,NA,6,"Explosives/Bombs/Dynamite",28,"Dynamite/TNT",NA,NA,NA,NA,NA,NA,NA,NA,NA,NA,NA,NA,"Sources describe the bomb as containing 400 grams of TNT.  No detail was provided as to the packaging or detonation details of the bomb, nor about where the bomb was placed in the mall beyond that it detonated on the first floor.  The bomb's explosion set off a canister of natural gas in the mall, causing a serious fire.",2,0,0,10,0,0,1,4,"Unknown",NA,"Sources note that all of the windows in the mall were blown out in the explosion.",0,NA,NA,NA,NA,NA,NA,NA,NA,NA,NA,NA,NA,NA,NA,NA,NA,"""Bomb blast kills one, injures nine in Tajik capital,"" Agence France-Presse, April 5, 2001.","""Two killed, more wounded in Tajik explosion,"" Associated Press, April 5, 2001.","Galina Gridneva and Valery Zhukov, ""Two killed, 10 injured in Dushanbe supermarket blast,"" ITAR-TASS, April 5, 2001.","UMD Schmid 2012",-9,-9,0,-9,NA
"72093",200104110005,2001,4,11,NA,0,NA,202,"Tajikistan",7,"Central Asia",NA,"Dushanbe",38.536667,68.78,1,0,"A Dushanbe suburban street","04/11/2001: Three armed gunmen ambushed the Deputy Interior Minister's car with AK-47s as it traveled down a suburban street in Dushanbe, Tajikistan, around 8am.  The Deputy Minister was killed, as were two bodyguards and the driver.  Although no group claimed responsibility, sources conflicted as to whether this was a terrorist or criminal incident.  Four people were later arrested due to their possible group affiliation and suspected connections to the assassination of the Minister.",1,1,1,1,2,"Other Crime Type",0,1,0,1,"Assassination",NA,NA,NA,NA,2,"Government (General)",21,"Government Building/Facility/Office","Deputy Interior Minister","Khabib Sanginov",202,"Tajikistan",NA,NA,NA,NA,NA,NA,NA,NA,NA,NA,NA,NA,NA,NA,NA,NA,"Unknown",NA,NA,NA,NA,NA,"Although the specific motive was unknown, sources suggested that this assassination could have been due to the Deputy Minister's political stance on organized crime.",0,NA,NA,0,3,4,0,NA,NA,NA,NA,NA,NA,NA,NA,NA,5,"Firearms",2,"Automatic Weapon",NA,NA,NA,NA,NA,NA,NA,NA,NA,NA,NA,NA,"AK-47s were used in the assassination.  It was unclear if the AK-47s used were automatic or semi-automatic.",4,0,0,0,0,0,-9,4,"Unknown",NA,"It was unclear how much damage was done to the vehicle.",0,NA,NA,NA,NA,NA,NA,NA,NA,NA,NA,NA,NA,NA,NA,NA,"One of the sources notes that this case was classified as a terrorist incident by the courts and criminal proceedings were pending.","Lida Isamova, ""Senior Interior Ministry official in Tajikistan shot dead,"" Associated Press, April 11, 2001.","Galina Gridneva and Valery Zhukov, ""Killing of Tajik Dpty Interior min qualified as terrorism,"" ITAR-Tass, April 11, 2001.","""Four suspects detained in slaying of Tajik police official,"" Associated Press, April 12, 2001.","UMD Schmid 2012",-9,-9,0,-9,NA
"72303",200106150005,2001,6,15,NA,0,NA,202,"Tajikistan",7,"Central Asia","Districts of Republican Subordination","Tavildara (District)",38.693725,70.485717,3,0,"The AgroAction office in the region of Tavil-Dara, to the east of Dushanbe by 100 miles","6/15/2001: Fifteen people associated with AgoAction, a German agricultural humanitarian organization, were kidnapped by gunmen in the Tavil Dara region of Tajikistan.  One of the workers was American, one was German, and the rest were from Tajikistan.  Four people, including three women, were immediately released, while the remaining eleven were released two days later.  All of the hostages were unharmed.  The gunmen used to be rebels and were currently working for the Ministry of Emergency Situations.  The gunmen demanded the release of four individuals who had been arrested for an assassination that took place several months earlier.",1,1,1,0,NA,NA,0,1,0,6,"Hostage Taking (Kidnapping)",NA,NA,NA,NA,12,"NGO",62,"International NGO","AgroAction","Fifteen AgroAction employees, including thirteen people from Tajikistan, one from America, and one from Germany",202,"Tajikistan",NA,NA,NA,NA,NA,NA,NA,NA,NA,NA,NA,NA,NA,NA,NA,NA,"Gunmen",NA,NA,NA,NA,NA,"The hostage takers wanted four of their comrades, arrested for their connections to an assassination the occurred several months earlier, released.",0,NA,NA,0,-99,0,1,10,"Unknown",NA,NA,NA,NA,NA,NA,NA,5,"Firearms",5,"Unknown Gun Type",NA,NA,NA,NA,NA,NA,NA,NA,NA,NA,NA,NA,"The hostages were kidnapped at gunpoint.",0,0,0,0,0,0,0,NA,NA,NA,NA,1,15,1,NA,2,NA,NA,0,0,0,0,0,"0",2,"Hostage(s) released by perpetrators",15,NA,"Akbar Borisov, ""Eleven members of German aid group held in Tajikistan,"" Agence France-Presse, June 16, 2001.","""Gunmen seize hostages in Tajikistan,"" Associated Press, June 16, 2001.","""All hostages abducted in Tajikistan freed,"" Associated Press, June 17, 2001.","UMD Schmid 2012",-9,-9,0,-9,NA
"72377",200107170002,2001,7,17,NA,0,NA,202,"Tajikistan",7,"Central Asia","Dushanbe (Capital City)","Dushanbe",38.536667,68.78,1,0,NA,"07/17/2001: Karim Yuldashev, foreign affairs advisor to the Tajik president, was gunned down outside his home by three men using silenced pistols. He was shot in the head and chest and died shortly thereafter. No one claimed responsibility for the assassination, but officials suspected Islamic militants were behind the attack.",1,1,1,0,NA,NA,0,1,0,1,"Assassination",NA,NA,NA,NA,2,"Government (General)",18,"Government Personnel (excluding police, military)","Tajik Presidential Advisor","Karim Yuldashev, Presidential Advisor",202,"Tajikistan",NA,NA,NA,NA,NA,NA,NA,NA,NA,NA,NA,NA,NA,NA,NA,NA,"Unknown",NA,NA,NA,NA,NA,"Unknown",0,NA,NA,0,3,0,0,NA,NA,NA,NA,NA,NA,NA,NA,NA,5,"Firearms",3,"Handgun",NA,NA,NA,NA,NA,NA,NA,NA,NA,NA,NA,NA,"The handguns were equipped with silencers.",1,0,0,0,0,0,0,NA,NA,NA,NA,0,NA,NA,NA,NA,NA,NA,NA,NA,NA,NA,NA,NA,NA,NA,NA,NA,"""Tajik presidential advisor gunned down in broad daylight in capital by three assailants,"" Associated Press, July 17, 2001.","Abdurakhimov Rakhimov, ""Unknown,"" Scottish Media Newspapers, Ltd., September 10, 2001.","""Three assassins responsible for gunning down Tajikistani official in Dushanbe,"" Interfax, July 17, 2001.","CETIS",-9,-9,0,-9,NA
"73036",200109080006,2001,9,8,NA,0,NA,202,"Tajikistan",7,"Central Asia",NA,"Dushanbe",38.536667,68.78,1,0,"A residence in Tajikistan","09/08/2001: An unidentified gunmen shot Abdurajim Rajimov, the cultural minister of Tajikistan, at least five times outside of his home in Dushambe, Tajikistan around 6:00am.  Although no group claimed responsibility for the attack, it was thought that Rajimov was killed due to his central involvement in the planning of the upcoming independence day celebrations.",1,1,1,0,NA,NA,0,1,0,1,"Assassination",NA,NA,NA,NA,2,"Government (General)",18,"Government Personnel (excluding police, military)","Cultural Minister for government of Tajikistan","Abdurajim Rajimov",202,"Tajikistan",NA,NA,NA,NA,NA,NA,NA,NA,NA,NA,NA,NA,NA,NA,NA,NA,"Unknown",NA,NA,NA,NA,NA,"Although the specific motive for this assassination was unknown, it was thought that Rajimov was killed due to his central involvement in the planning of the upcoming independence day celebrations.  Also, sources note that government officials in the area had been targeted and killed recently.",0,NA,NA,0,1,0,0,NA,NA,NA,NA,NA,NA,NA,NA,NA,5,"Firearms",5,"Unknown Gun Type",NA,NA,NA,NA,NA,NA,NA,NA,NA,NA,NA,NA,"Rajimov was shot from a short distance between five and seven times as he left his home.  One source says he was shot five times while the other says seven times.",1,0,0,0,0,0,0,NA,NA,NA,NA,0,NA,NA,NA,NA,NA,NA,NA,NA,NA,NA,NA,NA,NA,NA,NA,NA,"""Tajik cultural minister killed on way to work in capital,"" Associated Press, September 8, 2001.","""Tajik minister of culture killed by gunman,"" EFE News Service, September 8, 2001.",NA,"UMD Schmid 2012",-9,-9,0,-9,NA
"78175",200506130006,2005,6,13,NA,0,NA,202,"Tajikistan",7,"Central Asia","(Region) of Republican Subordination (Province)","Dushanbe",38.536667,68.78,1,0,NA,"06/13/2005: A bomb that exploded near the Ministry of Emergency Situations and Civil Defense in the Tajik capital of Dushanbe was suspected to be the work of terrorists or extremists in the country, including the outlawed Hezb-e Tahrir party. However, some authorities deny the existence of extremists in Tajikistan. The explosion destroyed five or six cars, shattered the windows in the ministry building, but resulting in no casualties.",1,1,1,0,NA,NA,0,1,0,3,"Bombing/Explosion",NA,NA,NA,NA,2,"Government (General)",21,"Government Building/Facility/Office","Tajik Ministry of Emergency Situations and Civil Defense","Ministry of Emergency Situations and Civil Defense building in Dushanbe",202,"Tajikistan",NA,NA,NA,NA,NA,NA,NA,NA,NA,NA,NA,NA,NA,NA,NA,NA,"Hizb al-Tahrir al-Islami (HT)",NA,NA,NA,NA,NA,"Some authorities suspect that the attackers hoped to destabilize the country.",1,NA,NA,0,NA,0,0,NA,NA,NA,NA,NA,NA,NA,NA,NA,6,"Explosives/Bombs/Dynamite",16,"Unknown Explosive Type",NA,NA,NA,NA,NA,NA,NA,NA,NA,NA,NA,NA,NA,0,0,0,0,0,0,1,3,"Minor (likely < $1 million)",-99,"Five or six cars were destroyed, and windows on the building were shattered.",0,NA,NA,NA,NA,NA,NA,NA,NA,NA,NA,NA,NA,NA,NA,NA,NA,"""War on Terror Central Asia 13-14 Jun 05,"" BBC Monitoring, June 14, 2005.","""BBC Monitoring:  War on Terror Central Asia 11-13 Jun 05,"" BBC Monitoring, June 13, 2005.",NA,"CETIS",0,1,0,1,NA
"84780",200711140012,2007,11,14,NA,0,NA,202,"Tajikistan",7,"Central Asia","Dushanbe (Capital City)","Dushanbe",38.536667,68.78,1,0,NA,"11/14/2007: A guard was killed at the Tajik presidential palace in Dushanbe, Tajikistan, when he touched a plastic bag full of explosives outside the palace, causing its explosion. No group claimed responsibility in the attack.",1,1,1,0,NA,NA,0,1,0,3,"Bombing/Explosion",NA,NA,NA,NA,2,"Government (General)",17,"Head of State","Tajik Presidential Palace","Guard",202,"Tajikistan",NA,NA,NA,NA,NA,NA,NA,NA,NA,NA,NA,NA,NA,NA,NA,NA,"Unknown",NA,NA,NA,NA,NA,"To express displeasure with the current president.",0,NA,NA,0,NA,0,0,NA,NA,NA,NA,NA,NA,NA,NA,NA,6,"Explosives/Bombs/Dynamite",10,"Pressure Trigger",NA,NA,NA,NA,NA,NA,NA,NA,NA,NA,NA,NA,NA,1,0,0,0,0,0,0,NA,NA,NA,NA,0,NA,NA,NA,NA,NA,NA,NA,NA,NA,NA,NA,NA,NA,NA,NA,"The explosion coincided with ceremonies marking the President's ascent to power after a five year civil war between the President's secular government and a mostly Islamic opposition.","""Guard at Tajik presidential palace killed in explosion,"" Associated Press Worldstream, November 15, 2007.","Akbar Borisov, ""One dead in blast near Tajik presidential palace,"" Agence France Presse, November 14, 2007.","""Dushanbe blast is terrorist attack - prosecutor,"" Central Asia General Newswire, November 14, 2007.","CETIS",-9,-9,0,-9,NA
"91421",200904170018,2009,4,17,NA,0,NA,202,"Tajikistan",7,"Central Asia","Leninabad","Isfara",40.116667,70.633333,1,0,"The attack took place in Isfara.","04/17/2009: On Friday at 1200 noon, in Isfara, Sughd, Tajikistan, unidentified assailants fired upon a police officer, wounding him. The officer, Maj Noiron Yuldoshev, was shot three times with a Makarov pistol.  No group claimed responsibility.",0,1,1,1,2,"Other Crime Type",0,1,0,2,"Armed Assault",NA,NA,NA,NA,3,"Police",25,"Police Security Forces/Officers","Tajikistan Law Enforcement","The police officer was the target in the attack.",202,"Tajikistan",NA,NA,NA,NA,NA,NA,NA,NA,NA,NA,NA,NA,NA,NA,NA,NA,"Unknown",NA,NA,NA,NA,NA,"The specific motive for the attack is unknown.",0,NA,NA,0,-99,0,0,NA,NA,NA,NA,NA,NA,NA,NA,NA,5,"Firearms",3,"Handgun",NA,NA,NA,NA,NA,NA,NA,NA,NA,NA,NA,NA,"A Makarov pistol was used in the attack.",0,0,0,1,0,0,0,NA,NA,NA,NA,0,NA,NA,NA,NA,NA,NA,NA,NA,NA,NA,NA,NA,NA,NA,NA,NA,"BBC Monitoring Central Asia, ""Senior Police Officer Wounded in Northern Tajikistan,"" LexisNexis Academic, Asia-Plus News Agency, April 18, 2009.","National Counterterrorism Center, ""One Police Officer Wounded in Armed Attack in Isfara, Sughd, Tajikistan,"" Worldwide Incidents Tracking System, December 21, 2009.",NA,"ISVG",-9,-9,0,-9,NA
"97878",201009030016,2010,9,3,NA,0,NA,202,"Tajikistan",7,"Central Asia","Soghd","Khujand",40.283333,69.633333,1,0,"The attack occurred at a police station in Khujand, Sughd, Tajikistan.","09/03/2010: On Friday morning at 0640, in Khujand, Sughd, Tajikistan, two suicide bombers detonated a vehicle-borne explosive device into the regional police headquarters of the organized-crime department. Two police officers and the two bombers were killed, 25 others were wounded, and the police station was damaged. No group claimed responsibility, although it was widely believed Islamic Movement of Uzbekistan was responsible. The motive for the attack is unknown but authorities suspected the attack to be an attempt to free Islamist fighters being held on murder charges.",1,1,1,0,NA,NA,0,1,1,3,"Bombing/Explosion",NA,NA,NA,NA,3,"Police",22,"Police Building (headquarters, station, school)","Khujand Law Enforcement","A police station was targeted in the attack.",202,"Tajikistan",NA,NA,NA,NA,NA,NA,NA,NA,NA,NA,NA,NA,NA,NA,NA,NA,"Islamic Movement of Uzbekistan (IMU)",NA,NA,NA,NA,NA,"The motive for the attack is unknown but authorities suspected the attack to be an attempt to free Islamist fighters being held on murder charges.",1,NA,NA,0,2,0,0,NA,NA,NA,NA,NA,NA,NA,NA,NA,6,"Explosives/Bombs/Dynamite",15,"Vehicle",NA,NA,NA,NA,NA,NA,NA,NA,NA,NA,NA,NA,"An improvised explosive device was used in the attack.",4,0,2,25,0,0,1,3,"Minor (likely < $1 million)",NA,"The attack caused an unknown amount of property damage to the police headquarters.",0,NA,NA,NA,NA,NA,NA,NA,NA,NA,NA,NA,NA,NA,NA,NA,NA,"National Counterterrorism Center, ""Two Police Officers Killed, Twenty-six Others, Two Civilians Wounded in Suicide VBIED Attack by Suspected IMU in Khujand, Sughd, Tajikistan,"" Worldwide Incidents Tracking System, January 11, 2011.","Michael Schwirtz, Police Station Target of Bomb in Tajikistan, LexisNexis Academic, International Herald Tribune, September 4, 2010.","Agence France Presse, Suicide Blast Kills Two Tajik Police, Wounds 25: Official, LexisNexis Academic, Agence France Presse, September 3, 2010.","ISVG",1,1,0,1,NA
"108485",201206130002,2012,6,13,NA,0,NA,202,"Tajikistan",7,"Central Asia","Dushanbe","Dushanbe",38.536667,68.78,1,0,NA,"06/13/2012: Assailants opened fire on Kholmumin Safarov in Dushanbe city, Tajikistan. Safarov, the brother-in-law of the Tajik president and a state forest authority, was killed in the attack. No group claimed responsibility for the incident.",1,1,1,0,NA,NA,0,1,0,1,"Assassination",NA,NA,NA,NA,2,"Government (General)",18,"Government Personnel (excluding police, military)","State Forest Authority","Head Kholmumin Safarov",202,"Tajikistan",NA,NA,NA,NA,NA,NA,NA,NA,NA,NA,NA,NA,NA,NA,NA,NA,"Unknown",NA,NA,NA,NA,NA,NA,0,NA,NA,0,-99,0,0,NA,NA,NA,NA,NA,NA,NA,NA,NA,5,"Firearms",3,"Handgun",NA,NA,NA,NA,NA,NA,NA,NA,NA,NA,NA,NA,"A Makarov pistol was used in the attack.",1,0,0,0,0,0,0,NA,NA,NA,NA,0,NA,NA,NA,NA,NA,NA,NA,NA,NA,NA,NA,NA,NA,NA,NA,NA,"""Attempt on government official's life committed in Dushanbe,"" Central Asia News, June 14, 2012.","""Tajik president's relative reportedly killed in attack,"" Central Asian News online, June 14, 2012.","""President's immediate relative shot to death in Dushanbe,"" Asia-PLUS Daily Blitz, June 14, 2012.","START Primary Collection",-9,-9,0,-9,NA
"109418",201207220035,2012,7,21,NA,0,NA,202,"Tajikistan",7,"Central Asia","Gorno-Badakhshan","Ishkashim",36.727742,71.611447,1,0,NA,"07/21/2012: Assailants attacked an intelligence official in Ishkashim town, Gorno-Badakhshan province, Tajikistan. The official, General Abdullo Nazarov, died after being stabbed to death. No group claimed responsibility for the attack, but authorities suspected Tolib Ayombekov loyalists.",1,1,1,0,NA,NA,0,1,0,1,"Assassination",NA,NA,NA,NA,2,"Government (General)",20,"Intelligence","National Intelligence Service","Security Official: General Abdullo Nazarov",202,"Tajikistan",NA,NA,NA,NA,NA,NA,NA,NA,NA,NA,NA,NA,NA,NA,NA,NA,"Tolib Ayombekov loyalists",NA,NA,NA,NA,NA,NA,0,NA,NA,0,-99,0,0,NA,NA,NA,NA,NA,NA,NA,NA,NA,9,"Melee",23,"Knife or Other Sharp Object",NA,NA,NA,NA,NA,NA,NA,NA,NA,NA,NA,NA,NA,1,0,0,0,0,0,0,NA,NA,NA,NA,0,NA,NA,NA,NA,NA,NA,NA,NA,NA,NA,NA,NA,NA,NA,NA,NA,"""Tajikistan: Government Attacks Rebels After General Is Killed,"" The New York Times, July 25, 2012.","""TAJIKISTAN: GOVERNMENT ATTACKS REBELS AFTER GENERAL IS KILLED,"" The New York Times Abstracts, July 25, 2012.","""Khorog ceasefire expires,"" Asia-PLUS Daily Blitz, July 27, 2012.","START Primary Collection",0,0,0,0,NA
"109483",201207230062,2012,7,23,NA,0,NA,202,"Tajikistan",7,"Central Asia","Gorno-Badakhshan","Khorog",37.486729,71.549843,1,0,NA,"07/23/2012: Assailants threw a grenade into the vehicle of Nafasbek Dilshodov in Khorog town, Gorno-Badakhshan autonomous region, Tajikistan. Dilshodov, the Rushan district prosecutor, and one other person were injured in the attack. No group claimed responsibility for the incident.",1,1,1,0,NA,NA,0,1,0,3,"Bombing/Explosion",NA,NA,NA,NA,2,"Government (General)",14,"Judge/Attorney/Court","Government of Shughnon","District Prosecutor",202,"Tajikistan",NA,NA,NA,NA,NA,NA,NA,NA,NA,NA,NA,NA,NA,NA,NA,NA,"Unknown",NA,NA,NA,NA,NA,NA,0,NA,NA,0,-99,0,0,NA,NA,NA,NA,NA,NA,NA,NA,NA,6,"Explosives/Bombs/Dynamite",7,"Grenade",NA,NA,NA,NA,NA,NA,NA,NA,NA,NA,NA,NA,NA,0,0,0,2,0,0,1,3,"Minor (likely < $1 million)",-99,"A vehicle was damaged in this attack.",0,NA,NA,NA,NA,NA,NA,NA,NA,NA,NA,NA,NA,NA,NA,NA,NA,"""District prosecutor receives leg injury as a result of car explosion in eastern Tajikistan &nbsp;,"" Central Asia News, July 24, 2012.","""Counterterrorim Digest: Central Asia 24 Jul 12,"" Asia-Plus news agency website, Dushanbe), July 24, 2012.","""Counterterrorism Digest: 24-25 July 2012,"" BBC Monitoring, July 25, 2012.","START Primary Collection",-9,-9,0,-9,NA
"109559",201207270019,2012,7,26,NA,0,NA,202,"Tajikistan",7,"Central Asia","Gorno-Badakhshan","Rushan",37.944485,71.557178,1,0,NA,"07/26/2012: Assailants opened fire on a special police task force in Rushan district, Gorno-Badakhshan autonomous region, Tajikistan. Four police officers were injured in the attack. No group claimed responsibility for the incident.",1,1,1,0,NA,NA,0,1,0,2,"Armed Assault",NA,NA,NA,NA,3,"Police",23,"Police Patrol (including vehicles and convoys)","Special Purpose Mobile Unit (OMON)","Vehicle",202,"Tajikistan",NA,NA,NA,NA,NA,NA,NA,NA,NA,NA,NA,NA,NA,NA,NA,NA,"Unknown",NA,NA,NA,NA,NA,NA,0,NA,NA,0,-99,0,0,NA,NA,NA,NA,NA,NA,NA,NA,NA,5,"Firearms",5,"Unknown Gun Type",NA,NA,NA,NA,NA,NA,NA,NA,NA,NA,NA,NA,NA,0,0,0,4,0,0,1,3,"Minor (likely < $1 million)",-99,"A vehicle was damaged in this attack.",0,NA,NA,NA,NA,NA,NA,NA,NA,NA,NA,NA,NA,NA,NA,NA,NA,"""OMON unit comes under fire in east Tajikistan, four policemen wounded,"" Interfax: Russia & CIS Military Newswire, July 27, 2012.","""OMON unit comes under fire in east Tajikistan, four policemen wounded,"" Russia & CIS Military Newswire, July 27, 2012.","""Riot police   attacked,   four injured in troubled Tajik east - source,"" Interfax news agency, Moscow, July 26, 2012.","START Primary Collection",-9,-9,0,-9,NA
"110286",201208220003,2012,8,22,NA,0,NA,202,"Tajikistan",7,"Central Asia","Gorno-Badakhshan","Khorog",37.486729,71.549843,1,0,NA,"08/22/2012: Assailants detonated a grenade and opened fire on Imomnazar Imomnazarov at his residence in Khorog town, Shughnon district, Gorno-Badakhshan autonomous province, Tajikistan. Imomnazarov, a former Tajik opposition commander, was killed in the assault. No group claimed responsibility for the incident.",1,1,1,0,NA,NA,0,1,0,1,"Assassination",NA,NA,NA,NA,14,"Private Citizens & Property",77,"Laborer (General)/Occupation Identified","Not Applicable","Former Militant Commander: Imomnazar Imomnazarov",202,"Tajikistan",NA,NA,NA,NA,NA,NA,NA,NA,NA,NA,NA,NA,NA,NA,NA,NA,"Unknown",NA,NA,NA,NA,NA,NA,0,NA,NA,0,-99,0,0,NA,NA,NA,NA,NA,NA,NA,NA,NA,6,"Explosives/Bombs/Dynamite",7,"Grenade",5,"Firearms",2,"Automatic Weapon",NA,NA,NA,NA,NA,NA,NA,NA,NA,1,0,0,0,0,0,0,NA,NA,NA,NA,0,NA,NA,NA,NA,NA,NA,NA,NA,NA,NA,NA,NA,NA,NA,NA,"Civilians rioted following the attack, stating that a peace agreement had been broken.  Some sources blamed the government for the incident; government officials denied having any involvement.","""Unexplained Killing of Former Commander in Eastern Tajikistan Triggers Protests,"" IHS Global Insight Daily Analysis, August 23, 2012.","""Imomnazarov killed in grenade blast, says Tajik chief prosecutor's office,"" Asia-PLUS Daily Blitz, August 23, 2012.","""Former Tajik Opposition Field Commander Killed In Badakhshan,"" Radio Free Europe Documents and Publications, August 22, 2012.","START Primary Collection",-9,-9,0,-9,NA
"132181",201405240181,2014,5,24,NA,0,NA,202,"Tajikistan",7,"Central Asia","Gorno-Badakhshan","Khorugh",37.50011,71.550606,1,0,NA,"05/24/2014: Assailants threw a grenade and opened fire on the State Committee for National Security Headquarters in Khorugh city, Gorno-Badakhshan province, Tajikistan. At least one assailant was killed and two others were wounded in the assault. No group claimed responsibility for the attack.",1,1,1,0,NA,NA,0,1,0,2,"Armed Assault",NA,NA,NA,NA,2,"Government (General)",21,"Government Building/Facility/Office","State Committee for National Security","Headquarters",202,"Tajikistan",NA,NA,NA,NA,NA,NA,NA,NA,NA,NA,NA,NA,NA,NA,NA,NA,"Unknown",NA,NA,NA,NA,NA,NA,0,NA,NA,0,3,2,0,NA,NA,NA,NA,NA,NA,NA,NA,NA,6,"Explosives/Bombs/Dynamite",7,"Grenade",5,"Firearms",2,"Automatic Weapon",5,"Firearms",3,"Handgun",NA,NA,NA,NA,"Grenades, Kalashnikov machine-gun, and a Makarov pistol were used in the attack.",1,0,1,2,0,2,-9,NA,NA,NA,"It is unknown if the building was damaged in this attack.",0,NA,NA,NA,NA,NA,NA,NA,NA,NA,NA,NA,NA,NA,NA,NA,NA,"""Tajikistan province calms down after deadly clashes,"" Interfax, May 26, 2014.","""Report calls for fair investigation of unrest in Tajik east,"" Imruz News, May 29, 2014.",NA,"START Primary Collection",-9,-9,0,-9,NA
"152371",201509040052,2015,9,4,NA,0,NA,202,"Tajikistan",7,"Central Asia","Unknown","Dushanbe",NA,NA,5,0,NA,"09/04/2015: Assailants opened fire on police officers in Dushanbe city, Tajikistan. This was one of two coordinated attacks in the area on the same day. At least four police officers were killed in the attack. Additionally, two assailants were killed, three assailants were injured, and five police officers were injured in the attack. No group claimed responsibility; however, sources attributed the incident to a group led by Abduhalim Nazarzoda.",1,1,1,0,NA,NA,1,1,0,2,"Armed Assault",NA,NA,NA,NA,3,"Police",22,"Police Building (headquarters, station, school)","Politsia","Headquarters",202,"Tajikistan",NA,NA,NA,NA,NA,NA,NA,NA,NA,NA,NA,NA,NA,NA,NA,NA,"Unknown",NA,NA,NA,NA,NA,"The specific motive is unknown; however, sources suspected that the attack may have been related to the banning of the Islamic Renaissance Party of Tajikistan (IRPT) and an attack by authorities on a civilian who refused to shave his beard.",0,NA,NA,0,-99,6,0,NA,NA,NA,NA,NA,NA,NA,NA,NA,5,"Firearms",5,"Unknown Gun Type",NA,NA,NA,NA,NA,NA,NA,NA,NA,NA,NA,NA,NA,5,0,1,4,0,2,1,4,"Unknown",-99,"An unknown number of weapons and ammunition were stolen in this attack.",0,NA,NA,NA,NA,NA,NA,NA,NA,NA,NA,NA,NA,NA,NA,NA,"Casualty numbers for this attack conflict across sources. Following GTD protocol, the majority reliable estimates are reported here. Casualty figures for this incident represent a division of the cumulative total of those killed and wounded across incidents (201509040052, 201509040053).","""Tajik policemen killed in attacks on state buildings,"" Al Jazeera, September 4, 2015.","""At least 10 killed in armed attacks in Tajikistan, U.S. embassy shut,"" Reuters, September 4, 2015.","""Nine People Killed In Tajikistan Attacks,"" Radio Free Europe, September 4, 2015.","START Primary Collection",-9,-9,0,-9,"201509040052, 201509040053"
"152372",201509040053,2015,9,4,NA,0,NA,202,"Tajikistan",7,"Central Asia","Dushanbe","Vahdat",38.562525,69.016689,1,0,NA,"09/04/2015: Assailants opened fire on police officers in Vahdat city, Dushanbe region, Tajikistan. This was one of two coordinated attacks in the area on the same day. At least four police officers were killed in the attack. Additionally, two assailants were killed, three assailants were injured, and five police officers were injured in the attack. No group claimed responsibility; however, sources attributed the incident to a group led by Abduhalim Nazarzoda.",1,1,1,0,NA,NA,1,1,0,2,"Armed Assault",NA,NA,NA,NA,3,"Police",22,"Police Building (headquarters, station, school)","Politsia","Headquarters",202,"Tajikistan",NA,NA,NA,NA,NA,NA,NA,NA,NA,NA,NA,NA,NA,NA,NA,NA,"Unknown",NA,NA,NA,NA,NA,"The specific motive is unknown; however, sources suspected that the attack may have been related to the banning of the Islamic Renaissance Party of Tajikistan (IRPT) and an attack by authorities on a civilian who refused to shave his beard.",0,NA,NA,0,-99,6,0,NA,NA,NA,NA,NA,NA,NA,NA,NA,5,"Firearms",5,"Unknown Gun Type",NA,NA,NA,NA,NA,NA,NA,NA,NA,NA,NA,NA,NA,5,0,1,4,0,1,1,4,"Unknown",-99,"An unknown number of weapons and ammunition were stolen in this attack.",0,NA,NA,NA,NA,NA,NA,NA,NA,NA,NA,NA,NA,NA,NA,NA,"Casualty numbers for this attack conflict across sources. Following GTD protocol, the majority reliable estimates are reported here. Casualty figures for this incident represent a division of the cumulative total of those killed and wounded across incidents (201509040052, 201509040053).","""Tajik policemen killed in attacks on state buildings,"" Al Jazeera, September 4, 2015.","""At least 10 killed in armed attacks in Tajikistan, U.S. embassy shut,"" Reuters, September 4, 2015.","""Nine People Killed In Tajikistan Attacks,"" Radio Free Europe, September 4, 2015.","START Primary Collection",-9,-9,0,-9,"201509040053, 201509040052"
"154844",201511070053,2015,11,7,NA,0,NA,202,"Tajikistan",7,"Central Asia","Dushanbe","Dushanbe",38.559176,68.786009,1,0,"The incident occurred in the Sino neighborhood.","11/07/2015: Assailants stabbed military officers at a military recruitment drive in Sino district, Dushanbe city, Districts of Republican Subordination, Tajikistan. Two military officers were killed and two others were wounded in the attack. No group claimed responsibility for the incident.",1,1,1,0,NA,NA,0,1,0,2,"Armed Assault",NA,NA,NA,NA,4,"Military",28,"Military Recruiting Station/Academy","Military of Tajikistan","Recruitment Drive",202,"Tajikistan",NA,NA,NA,NA,NA,NA,NA,NA,NA,NA,NA,NA,NA,NA,NA,NA,"Unknown",NA,NA,NA,NA,NA,NA,0,NA,NA,0,-99,0,0,NA,NA,NA,NA,NA,NA,NA,NA,NA,9,"Melee",23,"Knife or Other Sharp Object",NA,NA,NA,NA,NA,NA,NA,NA,NA,NA,NA,NA,NA,2,0,0,2,0,0,0,NA,NA,NA,NA,0,NA,NA,NA,NA,NA,NA,NA,NA,NA,NA,NA,NA,NA,NA,NA,NA,"""Two Tajik military officers stabbed to death amid recruitment drive,"" Agence France-Presse Top News (English), t, November 9, 2015.","""Defense ministry rules out connection between the Nov 7 incident and ongoing conscription campaign,"" Asia Plus, November 9, 2015.","""Two recruitment officers killed and two others wounded in Dushanbe,"" Asia Plus, November 9, 2015.","START Primary Collection",-9,-9,0,-9,NA
"160109",201603250035,2016,3,25,NA,1,NA,202,"Tajikistan",7,"Central Asia","Khatlon","Shurobod district",37.842354,70.046287,3,0,"The incident occurred along the border with Badakshan province, Afghanistan","03/25/2016: Assailants from Afghanistan abducted two Tajik workers in Shurobod district, Khatlon, Tajikistan. One Tajik national was killed and two others were abducted during the attack. The two hostages were released on March 28, 2016. No group claimed responsibility for the incident.",0,1,1,1,2,"Other Crime Type",0,1,0,6,"Hostage Taking (Kidnapping)",NA,NA,NA,NA,14,"Private Citizens & Property",67,"Unnamed Civilian/Unspecified","Not Applicable","Civilians",202,"Tajikistan",NA,NA,NA,NA,NA,NA,NA,NA,NA,NA,NA,NA,NA,NA,NA,NA,"Unknown",NA,NA,NA,NA,NA,NA,0,NA,NA,0,-99,0,0,NA,NA,NA,NA,NA,NA,NA,NA,NA,5,"Firearms",5,"Unknown Gun Type",NA,NA,NA,NA,NA,NA,NA,NA,NA,NA,NA,NA,NA,1,0,0,0,0,0,0,NA,NA,NA,NA,1,2,0,NA,3,"Afghanistan","Afghanistan",0,NA,NA,NA,NA,"The abductors demanded the release of their colleague from Tajikistan's custody for the release of the two kidnappees.",2,"Hostage(s) released by perpetrators",2,"There is doubt that this incident meets terrorism-related criteria. Authorities blamed the incident on drug smugglers.","""Afghan gunmen free kidnapped Tajiks,"" MENAFN, March 28, 2016.","""Afghan morning headlines: Kabul blast, abduction, security,"" BBC Monitoring, March 29, 2016.",NA,"START Primary Collection",-9,-9,0,-9,NA
